Ciudad,Nombre,Dirección,Latitud,Longitud,address,horario,parqueo,cajero
Manta,tuti,"X84Q+MMG, Av. Metropolitana, Montecristi",-1.0428543,-80.6605579,,,,
Ambato,tuti  1 de mayo,"Lizardo Ruiz &, Ambato",-1.2354055,-78.6273779,,,,
Guayaquil,tuti  10 de agosto,"R443+WMR, Blvd. 9 de Octubre, Guayaquil",-2.1926406,-79.89587259999999,,,,
Ambato,tuti  10 de noviembre,"C. Pichincha 216, Guaranda",-1.595361,-79.0018729,,,,
Ambato,tuti  12 de noviembre,"Q95G+869, Av. Doce de Noviembre, Ambato",-1.2417198,-78.6243854,,,,
Guayaquil,tuti  1ro de mayo,"Calle 2 NO 426, Guayaquil",-2.1879907,-79.8908391,,,,
Santo Domingo,tuti  2 de mayo,"Av. Patricio Romero 206, Santo Domingo",-0.2329729,-79.1814904,,,,
Guayaquil,tuti  24 y garcia goyena,"24 entre García Goyena, y, Guayaquil",-2.2031483,-79.9222331,,,,
Otavalo,tuti  28 de junio,"Gabriel García Moreno S/n, Quito",-0.1128934,-78.4479672,,,,
Guayaquil,tuti  4 de noviembre,"Tungurahua 3715, Guayaquil",-2.2113821,-79.9036588,,,,
Quito,tuti  6 de diciembre,"RGGF+F4H, Quito",-0.1738002,-78.4772332,,,,
Machala,tuti  6 esquinas 2024,"P2JV+47W, Machala",-3.2696442,-79.95681130000001,,,,
Santo Domingo,tuti  abraham calazacon,"Av. Abraham Calazacón &, Santo Domingo",-0.26327,-79.16584230000001,,,,
Quito,tuti  agapanthus,"Rio Napo 170809, Quito",-0.3317891,-78.48010239999999,,,,
Quito,tuti  ajavi,"PFV5+32R, Quito",-0.2572577,-78.5424743,,,,
Ambato,tuti  alamos,"88VP+J73, Riobamba",-1.6559436,-78.6643423,,,,
Santo Domingo,tuti  alluriquin,"M2G3+X75, E20, San José de Alluriquín",-0.3226234000000001,-78.9967633,,,,
Quito,tuti  amaguana,"JFFV+8Q4, Amaguaña",-0.3767335,-78.505533,,,,
Santa Elena,tuti  anconcito,"M4H7+943 entre calle L y K, av. Principal, Anconcito",-2.3216012,-80.8871857,,,,
Machala,tuti  arenillas,"CWVJ+MM7 y Rio Guayas, Av Raul Frias, Arenillas",-3.5558317,-80.0683574,,,,
Ambato,tuti  av atahualpa,"Av Atahualpa, Ambato",-1.2571904,-78.63123449999999,,,,
Santo Domingo,tuti  av. chone,"PRW7+3FP, Santo Domingo",-0.2547819,-79.18629299999999,,,,
Santo Domingo,tuti  av. quevedo,"Av. Quevedo Km3, Santo Domingo",-0.2679113,-79.1937969,,,,
Ambato,tuti  ayapamba,"Av. Pedro Vazcones, y",-1.2263049,-78.58697819999999,,,,
Machala,tuti  balao,"35QM+QPM, Balao",-2.9116079,-79.8154757,,,,
Santa Elena,tuti  ballenita,"Q4MP+C4C, Santa Elena",-2.2165839,-80.86524829999999,,,,
Quevedo,tuti  balzar 1,"J3MV+M27 Vinces, Balzar",-1.3658732,-79.90744629999999,,,,
Quevedo,tuti  balzar av amazonas,"Av. Amazonas &, Balzar",-1.3573795,-79.9025158,,,,
Ambato,tuti  banos,"JH3G+QF8, Baños de Agua Santa",-1.3954454,-78.4238263,,,,
Guayaquil,tuti  barrio centenario,"Q4J6+78V, Rosa Borja de Ycaza, Guayaquil",-2.2192602,-79.8892025,,,,
Guayaquil,tuti  bastion popular - bloque 2,"W34C+FMF, Guayaquil",-2.0938468,-79.9283342,,,,
Otavalo,tuti  bonanza,"VG89+F9F, Av. Galo Plaza Lasso, Quito",-0.1338125,-78.4815625,,,,
Machala,tuti  brisas,"Av. Arizaga 130, Machala",-3.2695157,-79.95020040000001,,,,
Quevedo,tuti  buena fe,"4G66+G6H, 7 de Agosto, Buena Fe",-0.8888096,-79.4891523,,,,
Otavalo,tuti  bustamante,"Rafael Bustamante E4-23, Quito",-0.1442589,-78.4819558,,,,
Ambato,tuti  bypass,"983F+WQ7, Riobamba",-1.6452316,-78.6755879,,,,
Ambato,"tuti  cajabamba, riobamba","76XH+4X4, Caja bamba",-1.7022375,-78.7700469,,,,
Quito,tuti  calderon,"VHXG+C36, Quito",-0.1016694,-78.42472769999999,,,,
Guayaquil,tuti  calle a,"Q3JR+C8P, Guayaquil",-2.2188971,-79.9091655,,,,
Ibarra,tuti  cayambe.,"Restauración 5154, Cayambe",0.0406101,-78.1446436,,,,
Quito,tuti  centro mejia,"Vargas 14-46, Quito",-0.2107856,-78.5039965,,,,
Ambato,tuti  chasquis,"Av. los chásquis &, Ambato",-1.2601762,-78.6242383,,,,
Quito,tuti  chillogallo,"PCCW+M8Q, Manuel Coronado, y, Quito",-0.2784574,-78.55347220000002,,,,
Quito,tuti  ciudad futura,"MFQF+VHQ, Quito",-0.3104546,-78.5258905,,,,
Guayaquil,tuti  ciudadela bolivariana,"1A, Bolivariana",-2.1836455,-79.8952771,,,,
Otavalo,tuti  ciudadela universitaria,Quito,-0.2111888,-78.3856223,,,,
Guayaquil,tuti  colinas de la alborada,13,-2.1313338,-79.910339,,,,
Quito,tuti  colon,"QGX5+QQJ, Av. Cristóbal Colón, Quito",-0.2005641,-78.49060659999999,,,,
Guayaquil,tuti  colon y teniente,"Colon &, Guayaquil",-2.1925673,-79.90460999999999,,,,
Quito,tuti  conocoto,"García Moreno S7-105, Quito",-0.2982972,-78.4808345,,,,
Ibarra,tuti  cotacachi,"Av. Modesto Peñaherrera 1246, Cotacachi",0.3003343,-78.26398809999999,,,,
Guayaquil,tuti  coviem,"Sl 11, Guayaquil",-2.1891341,-79.8899031,,,,
Quito,tuti  cusubamba,"Cusubamba 2, Quito",-0.2739189,-78.54476489999999,,,,
Ibarra,tuti  divino nino,"8VPC+CJ3, Ibarra",0.3361515,-78.12842429999999,,,,
Guayaquil,tuti  duran - recreo 3 ( 5ta etapa),"25, El Recreo 6",-2.168933,-79.7996354,,,,
Guayaquil,tuti  duran 3 - colinas del valle,"Cdla. Primavera 2, Durán",-2.174236,-79.8468697,,,,
Babahoyo,tuti  duran 9 hector cobos,"R5X8+3PR, Durán",-2.1522689,-79.8332254,,,,
Ibarra,tuti  el angel,"J3C6+M56, El Ángel",0.6216875,-77.9395625,,,,
Quito,tuti  el arenal,"QJWF+42V, Quito",-0.2046238,-78.3774717,,,,
Guayaquil,tuti  el dorado,Av León Febres Cordero Ribadeneyra,-2.0555891,-79.8749804,,,,
Ibarra,tuti  el ejido,"Av. Mariano Acosta, Ibarra",0.3457517,-78.1373443,,,,
Quevedo,tuti  el empalme hnos. coronel,"Vía La Guayas 307, Velasco Ibarra",-1.0380298,-79.6355021,,,,
Quevedo,tuti  el empalme san miguel,"X952+P9G, Velasco Ibarra",-1.0406881,-79.6490492,,,,
Ambato,tuti  el salto - latacunga,Calle Calixto Pino &,-0.9293643,-78.6174405,,,,
Machala,tuti  empleados municipales (av. las palmeras),"P2MH+79Q, Avenida de Las Palmeras, Machala",-3.2667993,-79.9715076,,,,
Guayaquil,tuti  entre rios,"V43P+F5J, Samborondón",-2.1462952,-79.86455289999999,,,,
Ambato,tuti  espoch,"88QC+GJ5, Av. Pedro Vicente Maldonado, Riobamba",-1.6611762,-78.6783588,,,,
Guayaquil,tuti  federico goding,"Federico Godín 2414, Guayaquil",-2.2117421,-79.91229059999999,,,,
Ambato,tuti  ficoa,"20, Av. Rodrigo Pachano &, Ambato",-1.2372873,-78.63292860000001,,,,
Ambato,tuti  galeria plaza,"89W4+Q22, Girasoles, Riobamba",-1.6531349,-78.6448537,,,,
Guayaquil,tuti  garzota,"V445+8HJ, Guayaquil",-2.1441508,-79.8911079,,,,
Guayaquil,tuti  garzota hermano miguel,"R4X5+CF9, Av. Hermano Miguel, Guayaquil",-2.1514751,-79.8912536,,,,
Quito,tuti  giovanni calles,"WH24+PHG, Giovanni Calles Lascano, Quito",-0.0981834999999999,-78.4435646,,,,
Guayaquil,tuti  gomez rendon,"R34G+6GG, Guayaquil",-2.1944474,-79.9236629,,,,
Quito,tuti  gran marcelino,"Av. Oswaldo Guayasamín Oe4-134, Quito",-0.212178,-78.41053459999999,,,,
Riobamba,tuti  guamote,"378R+6RV, Av Macas, Guamote",-1.9343678,-78.7077639,,,,
Guayaquil,tuti  guangala,"Q3FV+PMF, Guayaquil",-2.2256754,-79.90581449999999,,,,
Ambato,tuti  guano,"Agustin Davalos &, Guano",-1.6065296,-78.646052,,,,
Guayaquil,tuti  guayacanes,"V4J4+7Q2, TuTi, Guayacanes District, Provincia Libre de Guayaquil, 3er Callejon 20 NE, Guayaquil",-2.1193533,-79.8931181,,,,
Ibarra,tuti  guayllabamba,"Av. Libertador Simón Bolívar 1303-1279, Quito",-0.0574759,-78.3452089,,,,
Ambato,tuti  huachi grande,"M9V7+785, Carr. Panamericana, Ambato",-1.3068845,-78.6366482,,,,
Babahoyo,tuti  huancavilca,"W32Q+CW7, Guayaquil",-2.0989694,-79.9102073,,,,
Machala,tuti  huaquillas,"GQC6+2HX, Huaquillas",-3.4797377,-80.2384634,,,,
Quito,tuti  huarcay,"PC3J+424, Andres Perez, Quito",-0.297188,-78.5698668,,,,
Ibarra,tuti  ibarra juan de velasco,"Juan de Velasco 714-800, Ibarra",0.348028,-78.1192615,,,,
Ibarra,tuti  ibarra mercado mayorista,"Av. 13 de Abril 23-71, Ibarra",0.3623399,-78.1223856,,,,
Quito,tuti  ilalo,"PG3W+992, Ilaló, Quito",-0.2969515,-78.45450579999999,,,,
Santo Domingo,tuti  indio colorado,"PRWC+3V5, Av. Abraham Calazacón, Santo Domingo",-0.2548556,-79.17777060000002,,,,
Guayaquil,tuti  isidro ayora,"V483+9VC, Av Isidro Ayora, Guayaquil",-2.1340711,-79.89536009999999,,,,
Ambato,tuti  izamba,Av. Pedro Vásconez &,-1.2261139,-78.5869483,,,,
Santo Domingo,tuti  jacinto cortez,"PRM8+7VH, AURELIO ESPINOZA, Via Bellavista, Santo Domingo",-0.2668237,-79.1827733,,,,
Quevedo,tuti  jaime roldos,"XG7M+W49, Av. Jaime Roldos A, Quevedo",-1.0352046,-79.4671255,,,,
Ibarra,tuti  jaime roldos quito,"WF8V+3QF, Quito",-0.0848454999999999,-78.5054175,,,,
Ambato,tuti  jose peralta,"P9F9+HJ2, José Peralta, Ambato",-1.2761062,-78.6309785,,,,
Machala,tuti  juan palomino,"P2GM+3VC, Av. Jose Borja Barrezueta, Machala",-3.2748221,-79.96535999999999,,,,
Ibarra,tuti  julio andrade,"M76J+JHF, Quito",0.661354,-77.7188422,,,,
Ibarra,tuti  juncal,"Carr. Panamericana, Troncal de la Sierra E35, El Juncal",0.4350984,-77.9679752,,,,
Quevedo,tuti  june guzman,"C. Decima Cuarta 511, Quevedo",-1.0299068,-79.4700759,,,,
Guayaquil,tuti  junin,"Junín 407 y, Guayaquil",-2.1884852,-79.8870182,,,,
Quito,tuti  la armenia,"Charles Darwin 420d, Quito",-0.2807786,-78.465828,,,,
Guayaquil,tuti  la atarazana,"R4C7+V39, Av. 2 N-E- De La Democracia, Guayaquil",-2.1778484,-79.88727279999999,,,,
Guayaquil,tuti  la aurora,W4X9+4CC,-2.0521988,-79.8815049,,,,
Santo Domingo,tuti  la concordia,"2J33+794, La Concordia",0.0031325,-79.39654469999999,,,,
Quito,tuti  la ecuatoriana,"MCRP+4JV, Av. La Ecuatoriana, Quito",-0.3096889,-78.5634687,,,,
Quito,tuti  la floresta,"Madrid E12-71, Quito",-0.2077034,-78.4865169,,,,
Quito,tuti  la gasca,"Gaspar de Carvajal 33-9, Quito",-0.1968058,-78.50213640000001,,,,
Santa Elena,tuti  la libertad 1 - mercado,"Av. 9, entre y 23, La Libertad",-2.2273982,-80.9065959,,,,
Santa Elena,tuti  la libertad 2 - av. eleodoro,"Av. Eleodoro Solorzano, y, La Libertad",-2.2268903,-80.8995491,,,,
Santa Elena,tuti  la libertad 3 - calle tercera,"Av. Tercera, y, La Libertad",-2.2215426,-80.906116,,,,
Santa Elena,tuti  la libertad 4 - abdon calderon,"11 de Diciembre, La Libertad",-2.2372756,-80.9105725,,,,
Santa Elena,tuti  la libertad 5 - 28 de mayo,"Barrio 28 de Mayo, y, La Libertad",-2.2303162,-80.9139885,,,,
Santa Elena,tuti  la libertad 6 - propicia,"C. 43 28, Mz. 26 Solar 11 y, La Libertad",-2.2385096,-80.8893168,,,,
Santa Elena,tuti  la libertad 7 - velasco ibarra,"Calle 24, y, La Libertad",-2.2440702,-80.9045126,,,,
Santo Domingo,tuti  la lorena,"PRVW+8C2, Av. la Lorena, Santo Domingo",-0.2563656,-79.1541285,,,,
Ambato,tuti  la prensa,"88QP+4JG, Avenida La Prensa, Riobamba",-1.6621932,-78.6634163,,,,
Quito,tuti  la roldos,"N85 &, Quito",-0.0847969,-78.5055361,,,,
Santo Domingo,tuti  la union,"4HMW+F42, E20, La Unión",0.1336984,-79.4047932,,,,
Quito,tuti  la vicentina,"QGM6+MPP, Quito",-0.2157506,-78.48817319999999,,,,
Ibarra,tuti  la victoria,"8VWR+VXP, Ibarra",0.3452472,-78.1096816,,,,
Ibarra,tuti  laguna mall,"Av. Mariano Acosta 1571, Ibarra",0.3481426,-78.1275522,,,,
Guayaquil,tuti  las esclusas,"P4R6+HH4, Guayaquil",-2.2586003,-79.88855769999999,,,,
Guayaquil,tuti  las penas,"R48F+PF7, Numa Pompilio Llona 204, Guayaquil",-2.1830584,-79.8764022,,,,
Otavalo,tuti  las vinas,Quito,-0.1353116,-78.4641084,,,,
Guayaquil,tuti  limonal,"Autop. Narcisa de Jesús Solar 11, Guayaquil",-2.1347851,-79.88111479999999,,,,
Guayaquil,tuti  lomas de sargentillo,"Av. El Telégrafo, Lomas de Sargentillo",-1.8786063,-80.0850947,,,,
Santo Domingo,tuti  los continentes,"Av. Abraham Calazacón &, Santo Domingo",-0.2515758,-79.16183219999999,,,,
Ibarra,tuti  los olivos,"Dr. Plutarco Larrea 259-282, Ibarra",0.3632874,-78.1120148,,,,
Guayaquil,tuti  los rios,"Q4X2+HR7, Guayaquil",-2.2010783,-79.8979409,,,,
Latacunga,tuti  machachi,"FCPM+M35, Machachi",-0.5133771,-78.5672685,,,,
Ambato,tuti  manuelita saez ambato,"Manuelita Sáenz 359, Ambato",-1.2609602,-78.6397136,,,,
Guayaquil,tuti  mapasingue oeste,"R3X8+5XR, Guayaquil",-2.1520141,-79.9326225,,,,
Machala,tuti  marcel laniado,"P2RX+HV7, Marcel Laniado, Machala",-3.2585676,-79.9503198,,,,
Ambato,tuti  media luna,"88W4+25P, Troncal de la Sierra, Riobamba",-1.654903,-78.6945434,,,,
Ambato,tuti  mercado mayorista,"P9JP+F6Q, Av. El Cóndor, Ambato",-1.2687875,-78.61439060000001,,,,
Ambato,tuti  mercado oriental,"Eugenio Espejo 3396-3488, Riobamba",-1.6658562,-78.6432584,,,,
Ibarra,tuti  mercado santo domingo,"9V4H+9W6, Ibarra",0.355987,-78.12017569999999,,,,
Quito,tuti  monjas,"Alfonso Mora S2-537, Quito",-0.2318621,-78.4831237,,,,
Santo Domingo,tuti  monsenor,"QR5J+V4R, Santo Domingo",-0.2402334,-79.1697228,,,,
Quito,tuti  monserrat,"PGQ3+C37, Lizardo Garcia, Quito",-0.2615872,-78.4972548,,,,
Quito,tuti  monteserrin,"RGRM+59W, Av. Eloy Alfaro, Quito",-0.1595209,-78.4665797,,,,
Guayaquil,tuti  mucho lote lince,"1° CALLEJÓN 25 NO 2686, Guayaquil",-2.0857076,-79.9221159,,,,
Santa Elena,tuti  muey de salinas,"Q379+5R4, Salinas",-2.2371242,-80.9304172,,,,
Machala,tuti  napoleon mera,"P2PW+67X, Machala",-3.2644265,-79.9542932,,,,
Quito,tuti  nayon,"Huascar Esquina, Quito",-0.1575152,-78.4383332,,,,
Otavalo,tuti  oswaldo guayasamin,"QJWJ+RGC, E28C, Quito",-0.2029082,-78.3687219,,,,
Ibarra,tuti  otavalo abdon calderon,"Abdon Calderon 208, Otavalo",0.2259195,-78.26190340000001,,,,
Ibarra,tuti  otavalo centro,"C. Vicente Ramon Roca 1002-1070, Otavalo",0.228796,-78.26029079999999,,,,
Quevedo,tuti  palenque via a la revesa,"H66R+263, Palenque",-1.4399798,-79.7594591,,,,
Otavalo,tuti  pambachupa,"RF5Q+PF2, Antonio Herrera, Quito",-0.1908896,-78.50843909999999,,,,
Quito,tuti  paquisha,"MC4M+WQW, Gustavo Orces Villagomez, Quito",-0.3425166,-78.5658009,,,,
Ambato,tuti  parque industrial,"RC44+RH9, Ambato",-1.192921,-78.59367309999999,,,,
Machala,tuti  parque lineal,"P2QH+4C7, Avenida 11ava. Sur, Machala",-3.2622675,-79.9713148,,,,
Ambato,tuti  parroquia atahualpa,"Q9JQ+HHR, Av. 22 de Enero, Ambato",-1.2186727,-78.61102369999999,,,,
Machala,tuti  pasaje,"9 de Octubre &, Pasaje",-3.3267117,-79.8056574,,,,
Guayaquil,tuti  pascuales,Guayaquil,-2.068309,-79.9324311,,,,
Santo Domingo,tuti  pedro vicente maldonado,"3WPX+VCP, Pedro Vicente Maldonado",0.0868094,-79.05115119999999,,,,
Guayaquil,tuti  perimetral,"km25, Vía Perimetral, Guayaquil",-2.1284761,-79.94961169999999,,,,
Ibarra,tuti  pimampiro,"93Q5+WWR, Pimampiro",0.3898205,-77.94036349999999,,,,
Ambato,tuti  pinllo,"Q985+2VX, Calle Maugeri y Quiteño Libre, Ambato",-1.2348805,-78.6402808,,,,
Ibarra,tuti  pio xii,"Pío XII 1730, Quito",-0.0634214,-78.4286535,,,,
Guayaquil,tuti  plaza danin,"6º Pasaje 9 NO 520, Guayaquil",-2.1717346,-79.8964335,,,,
Santo Domingo,tuti  plaza hogar,"PRW3+4J6, Santo Domingo",-0.2546786,-79.1960215,,,,
Ibarra,tuti  plaza napoles,"3V44+8G6, Cayambe",0.0561185,-78.1433172,,,,
Ambato,tuti  plaza roja guaranda,"C. Azuay 701, Guaranda",-1.5909312,-79.000297,,,,
Ibarra,tuti  plaza viva,"9 de Agosto, Quito",-0.0997021,-78.4223122,,,,
Quito,tuti  pomasqui,"N 1-90, Quito",-0.0518554,-78.4564006,,,,
Guayaquil,tuti  portete,"Porrete 2817, Guayaquil",-2.2050697,-79.9043212,,,,
Guayaquil,tuti  portete y la 35,"Portete de Tarqui 6016, Guayaquil",-2.1979928,-79.9301795,,,,
Guayaquil,tuti  pradera,"Q475+99C, Av. Domingo Comín, Guayaquil",-2.2366012,-79.891576,,,,
Ambato,tuti  pucara,"89C7+C5Q, Ave Celso Rodriguez, Riobamba",-1.678907,-78.63701999999999,,,,
Quito,tuti  pueblo solo pueblo,"Oe1E 544, Quito",-0.3077011,-78.54552269999999,,,,
Quito,tuti  puente 3,"PGP7+P58, Quito",-0.2631822,-78.48694859999999,,,,
Guayaquil,tuti  puerto azul,"R26Q+QF5, *Av. Principal Y Calle Tercera, Guayaquil",-2.1881137,-79.9612459,,,,
Guayaquil,tuti  puerto inca,FF62+3FG,-2.5398145,-79.5488108,,,,
Santo Domingo,tuti  puerto quito,"4PCW+QHX, Av. 18 de Mayo, Puerto Quito",0.122002,-79.2534788,,,,
Ambato,tuti  pujili,"28V3+W8P, Pujilí",-0.955217,-78.6966726,,,,
Quevedo,tuti  quevedo,"WGX8+RX3, Quevedo",-1.0509332,-79.4827648,,,,
Quevedo,tuti  quevedo san camilo,"XGGR+MFW, Quevedo",-1.0232625,-79.4587969,,,,
Quito,tuti  quitumbe,"Av. Llira Ñan &, Quito",-0.296378,-78.5463826,,,,
Machala,tuti  rayito de luz,"P3QC+XVW, Machala",-3.2606625,-79.92724129999999,,,,
Quito,tuti  real audiencia,"Avenida Real Audiencia &, Porfirio Romero 170104, Quito",-0.1386246,-78.486184,,,,
Guayaquil,tuti  rosendo aviles,"Rosendo Avilés T., Guayaquil",-2.2073793,-79.9273345,,,,
Otavalo,tuti  rumipamba,"RG74+XQX, Quito",-0.1850625,-78.49306250000001,,,,
Ambato,tuti  salcedo,"XC56+3H2, Vicente León, Salcedo",-1.0423597,-78.5886567,,,,
Santa Elena,tuti  salinas 1 - general enrique gallo,"Q2WF+F88, Gral. Enríquez Gallo, Salinas",-2.2038324,-80.9766652,,,,
Santa Elena,tuti  salinas 2 - av. carlos espinoza,"Q3J3+Q4P, Avenida Eleodoro Solorzano, Salinas",-2.2180137,-80.947133,,,,
Babahoyo,tuti  salitre,"558P+XJQ, Vía a Samborondón, Salitre",-1.8326066,-79.8135913,,,,
Babahoyo,tuti  samanes 6,"CALLE 20C NE-HNO. ROBERTO COSTA PRATS 102, Guayaquil",-2.1107816,-79.9046595,,,,
Guayaquil,tuti  samborondon,"31 de Octubre, Samborondón",-1.9627995,-79.72555659999999,,,,
Quito,tuti  san antonio,"Av Equinoccial 1055, Quito",-0.0080543,-78.4476145,,,,
Quito,tuti  san bartolo,"PFJC+8R7, Quito",-0.2689863,-78.5279674,,,,
Quito,tuti  san blas,"QFJV+XFG, Quito",-0.217553,-78.5062888,,,,
Ambato,tuti  san felipe,Av. Simón Rodríguez,-0.9295977,-78.6293036,,,,
Ambato,tuti  san francisco,"Sebastián de Benalcázar 2064-2234, Riobamba",-1.675618,-78.6472107,,,,
Ibarra,tuti  san gabriel,"H5V9+P4P, San Gabriel",0.5942957999999999,-77.8321519,,,,
Quevedo,tuti  san jose sur,"XG6F+HVM, Quevedo",-1.0385375,-79.4753281,,,,
Quito,tuti  san juan de la armenia,"PGJP+RPR, Sebastián de Benalcazar, Quito",-0.267866,-78.4632319,,,,
Ambato,tuti  san luis riobamba,"8974+4HX Pana americana Macas, Riobamba",-1.6871368,-78.6435096,,,,
Quito,tuti  san martin de porras,"PF2G+R5V, E8G, Quito",-0.2978764,-78.5247021,,,,
Santo Domingo,tuti  san miguel de los bancos,"24F3+3W2, San Miguel de Los Bancos",0.0227204,-78.8951993,,,,
Machala,tuti  san-patricio,"P3GF+7H9, Av. Ferroviaria, Machala",-3.2743435,-79.9255237,,,,
Quito,tuti  santa ana,"Julian Estrella &, Quito",-0.2828501,-78.5614958,,,,
Quito,tuti  santa anita,"PFX6+WVQ, Av. Mariscal Sucre, Quito",-0.2502087,-78.5377994,,,,
Ambato,tuti  santa rosa,"Vía a Sta Rosa &, Santa Rosa",-1.2816544,-78.6625415,,,,
Santa Elena,tuti  santa rosa de salinas,"Q3P2+QPF, Salinas",-2.2130313,-80.9481938,,,,
Quito,tuti  santo angel de guamani,"MC9W+HM7, C. OE2H, Quito",-0.3313499,-78.55325409999999,,,,
Ambato,tuti  saquisili,"586M+J57, Saquisilí",-0.8386881,-78.6668254,,,,
Guayaquil,tuti  sauces 4,"Teodoro Alvarado Oleas, Guayaquil, y",-2.1283432,-79.8845089,,,,
Guayaquil,tuti  sauces 8,"V3FX+7RJ, Guayaquil",-2.1267875,-79.9004844,,,,
Quito,tuti  serapio japerabi,"Serapio Japerabi S13-204, Quito",-0.2568317,-78.5345524,,,,
Guayaquil,tuti  suscal,"Q3C5+R5P, Guayaquil",-2.2279054,-79.9420446,,,,
Otavalo,tuti  tanda,"RH95+94V, C. Leonidas Proaño, Quito",-0.1813115,-78.44241310000001,,,,
Tena,tuti  tena,"X5XQ+P86, C. Victor Hugo San Miguel, Tena",-1.0006766,-77.8117517,,,,
Quito,tuti  toacazo,"PFQ3+GRM, Toacazo, Quito",-0.2611713,-78.5453788,,,,
Otavalo,tuti  toctiuco,"Juan De Quiroz 6-135, Quito",-0.2093453,-78.5223213,,,,
Santo Domingo,tuti  troncal de la costa,"PQFW+4V2, Troncal de la Costa, Santo Domingo",-0.277317,-79.2029183,,,,
Tulcán,tuti  tulcan norte,"R7CR+8PG, Tulcán",0.8207576999999999,-77.7081165,,,,
Quito,tuti  tumbaco centro,"Gaspar de Carvajal S/N, Quito",-0.2150447,-78.4039641,,,,
Ambato,tuti  uniandes,"M9XW+QVP, Av Bolivariana, Ambato",-1.2998634,-78.60253999999999,,,,
Guayaquil,tuti  urbasur,"2, Los Tulipanes Guasmo Sur",-2.2434375,-79.8867428,,,,
Ibarra,tuti  urcuqui,"CR5H+6M3, Urcuqui",0.4173604,-78.1945997,,,,
Guayaquil,tuti  urdenor 2,"Av. Rodrigo Chavez, Guayaquil",-2.1496049,-79.90554879999999,,,,
Ambato,tuti  vasija_riobamba,"89P6+V33, Juan de Velasco, Riobamba",-1.6628625,-78.6398281,,,,
Ambato,tuti  veloz,"88MV+VG3, Brasil, Riobamba",-1.6654538,-78.6561656,,,,
Guayaquil,tuti  vergeles,"W36W+498, Guayaquil",-2.089411,-79.9040189,,,,
Quevedo,tuti  via a valencia,"XHP3+R7M, Quevedo",-1.0129125,-79.44682809999999,,,,
Quevedo,tuti  via guayaquil,"W9W5+2H6, Velasco Ibarra",-1.0549719,-79.6410994,,,,
Quevedo,tuti  via manabi,"X955+7W5, Velasco Ibarra",-1.0418711,-79.6401319,,,,
Santa Elena,tuti  via punta carnero,"Vía Punta Carnero, Salinas",-2.230350800000001,-80.9217437,,,,
Guayaquil,tuti  victor emilio,"Victor Emilio Estrada 1219, Guayaquil",-2.1615433,-79.9166805,,,,
Quito,tuti  villaflora,"QF4J+99P, Av Rodrigo de Chávez, Quito",-0.2440403,-78.5190405,,,,
Ambato,tuti  villarroel,"88GW+QPV, Gaspar de Villarroel, Riobamba",-1.6730248,-78.6532059,,,,
Machala,tuti - bolivar,"P2WG+6F4, Machala",-3.2544793,-79.97384009999999,,,,
Machala,tuti - via al puerto,"P2W9+VWG, Machala",-3.2528013,-79.980171,,,,
Guayaquil,tuti - villa espana,"W39M+X75, Guayaquil",-2.0800419,-79.9167851,,,,
,tuti 1 de mayo,,,,CALLE LIZARDO RUIZ Y TOMAS DE SEVILLA,08:00 - 21:00,No,No
,tuti 10 de agosto,,,,Avenida 10 de agosto #2014. entre Tulcan y Los Rios,08:00 - 21:00,No,No
,tuti 10 de noviembre,,,,CALLE PICHINCHA Y ESPEJO,08:00 - 21:00,No,No
,tuti 12 de noviembre,,,,Av. 12 de Noviembre y calle Tomas Sevilla.,08:00 - 21:00,No,No
,tuti 19 y sedalana,,,,19 Y SEDALANA,08:00 - 21:00,No,No
Manta,tuti 24 de mayo,"PHCJ+7MF, Portoviejo",-1.2793437,-80.4184142,,,,
,tuti 24 de mayo - manabi,,,,"CALLE BOLIVAR Y CALLE COMERCIO, BARRIO CENTRAL.",08:00 - 21:00,No,No
,tuti 24 y garcia goyena,,,,24 y Garcia Goyena Mz. 42 Sl. 26,08:00 - 21:00,No,No
,tuti 25 y la j,,,,CALLE J #1019 ENTRE LA CALLE 25 Y LA CALLE 26,08:00 - 21:00,No,No
,tuti 27 y la c,,,,"27 Y LA C, BARRIO LA BENDICIN DE DIOS",08:00 - 21:00,No,No
,tuti 28 de junio,,,,"Garci­a Moreno y Pedro Manuel Alobuela, junto a la panaderia croissant",08:00 - 21:00,No,No
Quevedo,tuti 28 de mayo,"HG4P+6HJ, Ventanas",-1.444399,-79.46361279999999,,,,
,tuti 38 y bolivia,,,,Calle 38 entre Bolivia y Vacas Galindo. Mz. 423 Sl. 7,08:00 - 21:00,No,No
,tuti 4 de noviembre,,,,4 de noviembre 2117 y Tungurahua,08:00 - 21:00,No,No
,tuti 5 esquinas,,,,JUAN DE ALCAZAR Y FRANCISCO COBO,08:00 - 21:00,Sí,No
,tuti 6 de diciembre,,,,AV 6 DE DICIEMBRE Y TELEGRAFO,08:00 - 21:00,Sí,No
,tuti 6 esquinas,,,,Av. Colon Tinoco y Av. Manuel Estomba,08:00 - 21:00,No,No
,tuti 9.5 via a daule,,,,Km 9.5 Via a Daule. junto a Paseo Shopping,08:00 - 21:00,Sí,No
Manta,tuti abdon calderon,"XM95+QW7, E30, Portoviejo",-1.0306089,-80.34019669999999,Guasmo Sur. Cooperativa Union de Bananeros bloque 1. Av. Abdon Calderon. Mz. 2803 Sl. 5,08:00 - 21:00,No,No
,tuti abraham calazacon,,,,ABRAHAM CALAZACON Y AV. RIO TOACHI,08:00 - 21:00,No,No
,tuti adesdac,,,,CIUDADELA ADESDAC MZ. A SOLAR 46,08:00 - 21:00,No,No
,tuti agapanthus,,,,PLAZA AGAPANTHUS UBICADA EN LA AV. HUANCAVILCA Y RIO NAPO.,08:00 - 21:00,Sí,No
,tuti alamos,,,,DE LOS ALAMOS E10 - 30 Y,08:00 - 21:00,No,No
,tuti albocentro,,,,Av. Rodolfo Baquerizo Nazur. CC Gran Albocentro,08:00 - 21:00,Sí,No
,tuti alborada 8va etapa,,,,Av. Demetrio Aguilera Malta. entrada por la Fco Orellana,08:00 - 21:00,Sí,No
,tuti alejandro castro,,,,Avenida Alejandro Castro Beni­tez Y Calle Alamor,08:00 - 21:00,Sí,No
,tuti alluriquin,,,,VIA ALOAG - SANTO DOMINGO,08:00 - 21:00,No,No
,tuti aloag,,,,VIA ALOAG SANTO DOMINGO Y CALLE GREGORIO CANDO,08:00 - 21:00,No,No
,tuti alonso de angulo,,,,"ALONSO DE ANGULO Y PEDRO DE ALFARO, BARRIO VILLAFLORA, PARROQUIA LA MAGDALENA.",08:00 - 21:00,No,No
Manta,tuti altamira,"28H2+M6Q, Av. Las Acacias, Manta",-0.9707854,-80.6993923,AV. LAS ACACIAS Y LAS GARDENIAS EN LA MZ. E LOTE 31 DE LA LOTIZACION CENTENARIO DE LA PARROQUIA TARQUI DEL CANTON MANTA.,08:00 - 21:00,No,No
,tuti amaguana,,,,CALLE CRISTOBAL COLON Y SIMON BOLIVAR,08:00 - 21:00,No,No
,tuti america,,,,AV. AMERICA Y BRASIL,08:00 - 21:00,No,No
,tuti anconcito,,,,BARRIO GONZALO CHAVEZ AVENIDA PRINCIPAL CALLE L Y K,08:00 - 21:00,Sí,No
Manta,tuti arenales,"4FR8+VR8, Arenales de Crucita Crucita, Portoviejo",-0.8578331,-80.532935,,,,
,tuti arenillas,,,,CDLA GUAYAQUIL SIMON BOLIVAR ENTRE RIO GUAYAS Y JAIME ROLDOS,08:00 - 21:00,No,No
,tuti argentina y la 17,,,,ARGENTINA Y LA 17,08:00 - 21:00,No,No
,tuti armenia,,,,AV. CHARLES DARWIN Y ESTADIO,08:00 - 21:00,No,No
,tuti assad bucaram,,,,LA 29 Y LA J,08:00 - 21:00,No,No
,tuti atarazana,,,,Av. de la Democracia. Edificio Tehanga solar 9 -10 mz. 111. planta baja local 101.,08:00 - 21:00,No,No
Quito,tuti atucucho,"VFCP+VQJ, Oe16A, Quito",-0.1278345,-78.5130092,CALLE MANUEL DE JESUS ALVAREZ Y OE 16A,08:00 - 21:00,No,No
Ibarra,tuti atuntaqui,"C. Gral. Enriquez &, Atuntaqui",0.3287266,-78.2160492,CALLE GENERAL ENRIQUEZ ENTRE ATAHUALPA Y JUAN DE VELASCO,08:00 - 21:00,Sí,No
Manta,tuti aurora,"2893+PGQ, Manta",-0.9804633,-80.6962186,,,,
,tuti av casuarina,,,,COOPERATIVA NUEVA PROSPERINA ETAPA 4 MZ 787 SOLAR 12,08:00 - 21:00,No,No
,tuti av la prensa,,,,AV LA PRENSA Y AGUSTIN DAVALOS,08:00 - 21:00,No,No
,tuti av. 24 de mayo - quito,,,,"24 de Mayo e Imbabura, Centro Historico",08:00 - 21:00,No,No
,tuti av. 25 de julio,,,,Av. 25 de julio. Ciudadela 9 de octubre Mz. 41 Solar 3. Frente al hospital Iess,08:00 - 21:00,No,No
Manta,tuti av. 4 de noviembre,"Av. 4 de Noviembre &, Manta",-0.9694301,-80.7043145,,,,
,tuti av. amazonas,,,,"BARRIO MARISCAL SUCRE, N218 ROBLES E4-135AVENIDA AMAZONAS EDIFICIO PROINCO OF. 103 PARROQUIA MARISCAL SUCRE.",08:00 - 21:00,No,No
,tuti av. atahualpa,,,,Av. Atahualpa y pasaje Isaac Roballo.,08:00 - 21:00,No,No
,tuti av. chone,,,,"AV. CHONE, A UNA CUADRA DEL HOTEL SANTANDER, FRENTE A KIA.",08:00 - 21:00,Sí,No
,tuti av. de las americas,,,,AV. DE LAS AMERICAS SOLAR 1 EDIFICIO 9,08:00 - 21:00,No,No
Manta,tuti av. del ejercito,"WGRP+2Q7, Av. del Ejército, Portoviejo",-1.0599685,-80.4630668,,,,
Ambato,tuti av. el rey,"Av. El Rey 119, Ambato",-1.237055,-78.6189818,AV. EL REY  Y AV. LAS AMERICAS,08:00 - 21:00,Sí,No
Manta,tuti av. guayaquil,"WHR4+WFV, Portoviejo",-1.057634,-80.4438656,"AV. GUAYAQUIL, SITIO CIMARRON DE LA PARROQUIA Y CANTON PORTOVIEJO DE LA PROVINCIA DE MANABI",08:00 - 21:00,No,No
,tuti av. isidro ayora,,,,Av. Demetrio Aguilera e Isidro Ayora. esquina,08:00 - 21:00,Sí,No
Manta,tuti av. manabi,"Callejon Robles 130103, Portoviejo",-1.0515815,-80.46129599999999,,,,
,tuti av. simon bolivar,,,,AV. SIMON BOLIVAR ENTRE LA CALLE RICARDO SOTOMAYOR,08:00 - 21:00,No,No
Manta,tuti av. universitaria,"XG3V+4Q4, Portoviejo",-1.0472549,-80.4555845,,,,
Manta,tuti av.bolivariana,"Av. Bolivariana, Portoviejo",-1.0572164,-80.4722877,,,,
,tuti avanzada,,,,TRANSVERSAL SUR ENTRE VIA AGUSTIN,07:00 - 20:00,Sí,No
,tuti ayapamba,,,,Av. Pedro Vazcones y Cesar Agusto Salazar,08:00 - 21:00,Sí,No
,tuti azuay y villavicencio,,,,AZUAY Y VILLAVICENCIO,08:00 - 21:00,No,No
,tuti baba,,,,CALLE BABAHOYO ENTRE DAULE Y AV. GUAYAQUIL. DIAGONAL AL PARQUE CENTRAL DE BABA,08:00 - 21:00,No,No
,tuti babahoyo,,,,Calle Bolivar #143 y 5 de Junio. A 1 cuadra del MSP,08:00 - 21:00,No,No
,tuti babahoyo 2 - camilo ponce,,,,"Babahoyo, Calle Gral. Barahona Meji­a y Barreiro",08:00 - 21:00,No,No
,tuti babahoyo 3 - juan x. marcos,,,,Juan X. Marcos y Calle H,08:00 - 21:00,No,No
,tuti babahoyo 4 - estadio,,,,BABAHOYO. CALLE JUAN X. MARCOS Y CALLE J,08:00 - 21:00,No,No
,tuti babahoyo 5 - la ventura,,,,BABAHOYO CDLA. LA VENTURA.,08:00 - 21:00,No,No
,tuti babahoyo 6 - mamey,,,,Cdla. El Mamey sol. 12 Mz. 24,08:00 - 21:00,No,No
Manta,tuti badaracco,"27Q4+M8V, Manta",-0.960836,-80.7442109,"MANTA, CONECTOR VIA SAN MATEO - CIRCUNVALACION",08:00 - 21:00,Sí,No
Manta,tuti bahia,"9HXG+4GP, Av. 3 de Noviembre, Bahía de Caráquez",-0.602166,-80.4236719,AV. 3 DE NOVIEMBRE Y ASCAZUBI.,08:00 - 21:00,No,No
,tuti balao,,,,Calle Bolivar y 10 de Agosto,08:00 - 21:00,No,No
,tuti ballenita av. francisco pizarro,,,,"AV. FRANCISCO PIZARRO, E 15, RUTA DEL SPONDYLUS, VIA A BALLENITA",08:00 - 21:00,No,No
,tuti balzar,,,,Calle Vinces y Av. Rocafuerte,08:00 - 21:00,No,No
,tuti balzar av. amazonas,,,,CALLE AMAZONAS Y JOSE IGNACIO MACÍAS,08:00 - 21:00,No,Sí
,tuti banos,,,,PEDRO VICENTE MALDONADO ENTRE EUGENIO ESPEJO Y AV. AMAZONAS,08:00 - 21:00,Sí,No
,tuti bastion bloque 4,,,,Cooperativa Flor de Bastion Bloque 4 Mz. 696 Sol. 2,08:00 - 21:00,No,No
,tuti bastion bloque 9,,,,COOP. BASTION POPULAR BLOQUE 9 MZ # 1104,08:00 - 21:00,No,No
,tuti bastion popular bloque 2,,,,Cooperativa Bastion Popular Bloque 2. Sl.4 Mz. 819,08:00 - 21:00,No,No
,tuti bastion popular bloque 6,,,,BASTION POPULAR BLOQUE 6 MZ. 945 SOLAR 3. DIAGONAL A CHILDREN INTERNATIONAL,08:00 - 21:00,No,No
Guayaquil,tuti bellavista,"R38Q+C27, Jose Maria Velasco Ibarra, Guayaquil",-2.1839626,-79.9124688,,,,
,tuti bellavista - guayaquil,,,,Cdla Bellavista Av. 26 MZ 0081 Solar 25,08:00 - 21:00,No,No
,tuti bellavista - quito,,,,"BELLAVISTA OE3436 Y CHUQUISACA, PARROQUIA DE PONCEANO.",08:00 - 21:00,Sí,Sí
,tuti bicentenario,,,,HOMERO SALAS Y AV LA PRENSA,08:00 - 21:00,Sí,No
,tuti bocatoma,,,,Av. Ilalo y 7ma transversal.,08:00 - 21:00,No,No
,tuti bolivariana,,,,Cdla. Bolivariana. Av. Delta y Gral. Jose Antonio Mz. 7 Sl. 4. frente a la Universidad de Guayaquil,08:00 - 21:00,Sí,No
,tuti bonanza,,,,AV. GALO PLAZA LASSO,08:00 - 21:00,Sí,No
,tuti brasil y la 11,,,,Brasil entre Otavalo y Federico Goding Mz. 10,08:00 - 21:00,No,No
,tuti brisas,,,,Ciudadela las Brisas. Av Arizaga y calle Luis Leon Roman antigua Vi­a Pajonal.,08:00 - 21:00,No,No
,tuti bucay,,,,Av. Garcia Moreno y Eloy Alfaro,08:00 - 21:00,No,No
,tuti buena fe,,,,"COOPERATIVA DIECINUEVE DE OCTUBRE, AV 7 DE AGOSTO Y NATALIO ROSADO, PARROQUIA SIETE DE AGOSTO DEL CANTON BUENA FE.",08:00 - 21:00,No,No
Quevedo,tuti buena fe 2 centro,"4G46+536, 7 de Agosto, Buena Fe",-0.8946944,-79.4898889,,,,
,tuti bustamante,,,,RAFAEL BUSTAMANTE Y JUAN VACA,08:00 - 21:00,Sí,No
,tuti by pass,,,,AV. MONS LEONIDAS PROANO,08:00 - 21:00,Sí,No
,tuti cajabamba,,,,AV. UNIDAD NACIONAL Y AV. DEL MAESTRO,08:00 - 21:00,Sí,No
,tuti calceta,,,,CALLE SALINAS Y CALLE PORTAL PLAZA.,08:00 - 21:00,No,No
,tuti calderon,,,,VICENTE PAREDES Y 9 DE AGOSTO.,08:00 - 21:00,Sí,No
,tuti calle a,,,,Cristo del Consuelo. Calle A Sl. 16,08:00 - 21:00,No,No
,tuti caluma,,,,Calle Av. Elias Fierro entre Jose Rodri­guez,08:00 - 21:00,Sí,No
,tuti camilo ponce,,,,AV. TRONCAL DE LA COSTA PANAMERICANA,07:00 - 21:00,No,No
,tuti canton isidro ayora,,,,CALLE JUAN MONTALVO (CARRETERO) ENTRE AV. DE LAS MERCEDES Y JOHN F. KENNEDY DIAGONAL A FARMACIAS VICKY,08:00 - 21:00,No,No
Manta,tuti canton santa ana,"C. Horacio Hidrovo Velasquez 0209, Santa Ana",-1.2083901,-80.37102790000002,,,,
,tuti capitan najera,,,,Tungurahua entre Capitan Najera y Medardo Angel Silva,08:00 - 21:00,No,No
,tuti caranqui,,,,AV. ATAHUALPA E INES HERNANDEZ,08:00 - 21:00,Sí,No
,tuti carapungo,,,,GALO PLAZA LASSO.,08:00 - 21:00,No,No
,tuti carmen la 14,,,,"EL CARMEN, PARROQUIA PARAISO LA 14",08:00 - 21:00,No,No
,tuti cascol,,,,"AV. 3 DE DICIEMBRE, DE LA PARROQUIA CASCOL DEL CANTON PAJAN.",08:00 - 21:00,No,No
,tuti cashapamba,,,,Antonio Tandazo entre Francisco Quinabanda y PJE Miranda,08:00 - 21:00,No,No
,tuti casuarina gasolinera,,,,ENTRADA DE LA 8. AV. CASUARINA. PROXIMA A GASOLINERA SAN SEBASTIAN,08:00 - 21:00,No,Sí
,tuti cayambe,,,,JUNIN OE Y RESTAURACION,08:00 - 21:00,No,No
,tuti centenario sur,,,,AV. 25 DE JULIO Y VICENTE TRUJILLO,08:00 - 21:00,No,No
Quito,tuti centro del muchacho trabajador,Quito,-0.1101746,-78.4938277,,,,
Santa Elena,tuti chanduy,"H8W9+XM6, Calle Sta. Elena, Chanduy",-2.4025884,-80.68087349999999,CALLE SANTA ELENA Y SAN AGUSTIN,08:00 - 21:00,No,No
Manta,tuti charapoto,"5G75+VQC, Charapotó",-0.8353075999999999,-80.4905158,"AV. ELOY ALFARO Y AV. PRINCIPAL DE LA PARROQUIA URBANA Charapoto, Canton SUCRE.",08:00 - 21:00,No,No
,tuti chasquis,,,,AV. CHASQUIS Y GALO PLAZA,08:00 - 21:00,Sí,No
,tuti checa,,,,Av. Quito y Eladio ProaNo,08:00 - 21:00,No,No
,tuti chillogallo,,,,MANUEL CORONADO Y AV. MARISCAL SUCRE.,08:00 - 21:00,Sí,No
Portoviejo,tuti chone av. amazonas,"7WR2+VM6, Chone",-0.7078458999999999,-80.0983748,"SOLAR N.-04 DE LA MANZANA F DE LA LOTIZACION ANDRES MACIAS ESPINEL, EN LA AV. AMAZONAS ENTRE BY PASS Y CALLE M, DE LA PARROQUIA Y CANTON CHONE.",08:00 - 21:00,No,No
,tuti chone centro,,,,"CALLE ROCAFUERTE, ENTRE CALLE ATAHUALPA, INTERSECCION CALLE VARGAS TORRES DE LA PARROQUIA Y CANTON CHONE.",08:00 - 21:00,No,No
,tuti chone eloy alfaro,,,,"AV. ELOY ALFARO DE LA LOTIZACION KENNEDY DEL BARRIO SANTA MARTHA, CANTON CHONE.",08:00 - 21:00,Sí,No
Guayaquil,tuti chongon,"QW8C+568, Via Chongon, Guayaquil",-2.2345675,-80.07941149999999,Comuna San Pedro. Sector 1. Mz. 1 Sl. 7. Junto a la casa Comunal de Chongon,08:00 - 21:00,No,No
,tuti chongon 2 - comuna san pedro,,,,"SECTOR 1, COMUNA SAN PEDRO, SOLAR 11 MZ. 391",08:00 - 21:00,No,No
Manta,tuti cielito lindo,"273V+V3R, Manta",-0.9952661,-80.7073638,"BARRIO SANTA ANA, CALLE 322 AL LADO DE LA CANCHA.",08:00 - 21:00,No,No
Machala,tuti circ. norte,"P3W4+QGR, Napoleon Mera, Machala",-3.2530033,-79.9437392,,,,
,tuti circunvalacion norte,,,,AV. CIRCUNVALACION NORTE Y AV. NAPOLEON MERA,08:00 - 21:00,No,No
Machala,tuti circunvalacion sur,"P2MH+JVJ, Machala",-3.2659096,-79.9703632,AV CIRCUNVALACION SUR Y AV DE LAS PALMERAS,08:00 - 21:00,Sí,No
Quito,tuti ciudad bicentenario,"WGJX+24F, Quito",-0.0699713,-78.4522538,CALLE DE LOS NARCISOS Y HORTENSIAS,08:00 - 21:00,No,No
,tuti ciudad celeste,,,,AV. LEON FEBRES CORDERO RIVADENEIRA,08:00 - 21:00,Sí,No
,tuti ciudad de daule 1 vicente piedrahita,,,,Piedrahita y Jose Olmedo Mz22 Solar A1. Daule,08:00 - 21:00,No,No
,tuti ciudad de daule 2 isidoro carchi,,,,Av. Piedrahita e Isidoro Carchi. Sector Marianita 1,08:00 - 21:00,No,No
,tuti ciudad de daule 3 los daulis,,,,Avenida Los Daulis y Norberto Ronquillo,08:00 - 21:00,No,No
,tuti ciudad futura,,,,"Calle Principal y S44, JUNTO A LA CARNICERIA CORTES Y CARNES",08:00 - 21:00,No,No
,tuti ciudad santiago,,,,KM 20.5 VIA DAULE,08:00 - 21:00,Sí,No
,tuti ciudadela universitaria,,,,AV.UNIVERSITARIA  L.T.E,08:00 - 21:00,Sí,No
,tuti colibri,,,,AVENIDA GENERAL PINTAG Y AVENIDA GENERAL RUMINAHUI,08:00 - 21:00,Sí,No
,tuti colimes,,,,CIUDADELA 6 DE FEBRERO CALLE SANTA ROSA,08:00 - 21:00,No,No
,tuti colinas 1 (rosales),,,,"Av. Jose Luis Tamayo y Jose Ramon de Jesus, Colinas de la Alborada",08:00 - 21:00,No,No
,tuti colinas 2 (alamos),,,,Calle Base Sur y Jose Antonio Cajamarca. frente a Alamos Center,08:00 - 21:00,No,No
,tuti colon,,,,AV. COLON ENTRE AMAZONAS Y JUAN LEON MERA.,08:00 - 21:00,Sí,No
,tuti colon y teniente ledesma,,,,TENIENTE LEDEZMA (CALLE 7MA) ENTRE COLON Y ALCEDO,08:00 - 21:00,No,No
Otavalo,tuti comite del pueblo,"Eloy Alfaro, Y 2), 170138, Quito",-0.1281877,-78.471052,Av. Juan Molineros y De los Jazmines.,08:00 - 21:00,Sí,No
,tuti conocoto,,,,Calle Garcia Moreno y Juan Montalvo.,08:00 - 21:00,No,No
,tuti continentes,,,,"AV. ABRAHAM CALAZACON Y PALLATANGA, URBANIZACION MARIA DE LOURDES.",08:00 - 21:00,No,No
,tuti cooperativa 2 de mayo,,,,"COOPERATIVA 2 DE MAYO, SOBRE LA AV. PATRICIO ROMERO.",08:00 - 21:00,No,No
,tuti cotacachi,,,,"CALLE MODESTO PENAHERRERA, BOLIVAR, GONZALEZ",08:00 - 21:00,Sí,No
Quito,tuti cotocollao,"Av. de la Prensa 62-56, Quito",-0.121586,-78.4936322,Av. Diego Vasquez de Cepeda y Nazaret.,08:00 - 21:00,Sí,No
,tuti coviem,,,,"CDLA. COVIEM MZ 33, SOLAR 12 Y 13. 3ER PASAJE Y PIO JARAMILLO (PERIMETRAL)",08:00 - 21:00,No,No
,tuti crucitas,,,,AV. ALEJANDRO CASTRO Y ARGENTINA,08:00 - 21:00,No,No
,tuti cumanda,,,,CALLE 10 DE AGOSTO Y CALLE CUMANDA MZ.1 LOTE 1,08:00 - 21:00,No,No
,tuti cusubamba,,,,Calle Cusubamba y Av. Rumichaca S26-69.,08:00 - 21:00,No,No
,tuti cutuglagua,,,,Av. Atacazo cercano a la Iglesia Catolica Jesus de Nazareth,08:00 - 21:00,No,No
,tuti daule terminal,,,,LOTIZACION BAHAMON SOL. 5 Y 11 MZ. 43,08:00 - 21:00,No,No
Manta,tuti del redondel del paraiso,"27VX+FQ3, Avenida 108, Manta",-0.9563559,-80.7005741,,,,
,tuti divino el angel,,,,JOSE BENIGNO GRIJALVA,07:00 - 21:00,Sí,No
,tuti divino nino,,,,TOVIAS MENA Y MIGUEL SANCHEZ,08:00 - 21:00,Sí,No
Quevedo,tuti don pancho,"sector, Velasco Ibarra",-1.0422217,-79.6370517,,,,
,tuti duran 1 5 de junio,,,,Av. Jaime Nebot Velazco. Coop. 5 de Junio Bloque A3,08:00 - 21:00,No,Sí
,tuti duran 2 abel gilbert,,,,Coop. 2 de Mayo Mz4 Sl 1. bajos eventos Niev,08:00 - 21:00,No,No
,tuti duran 3 colinas del valle,,,,Cdla. Colinas del Valle Mz5 Sl 13-14,08:00 - 21:00,No,No
,tuti duran 4,,,,AV. SAMUEL CISNEROS. CIUDADELA ABEL GILBERT. 1 ETAPA 9 MANZANA 20,08:00 - 21:00,No,No
,tuti duran 7 - sibambe,,,,DURAN. CALLE SIBAMBE Y AV. DE LA VIRGEN,08:00 - 21:00,No,No
,tuti duran centro calle yaguachi,,,,URB. RECREO BLASERA MZ 9 SOLAR 2. ENTRE CALLES YAGUACHI Y CUENCA,08:00 - 21:00,No,No
,tuti duran hector cobos,,,,Coop. Hector Cobos El Arbolito frente a la urb. Porton del Ri­o.,08:00 - 21:00,No,No
,tuti duran juan leon mera,,,,AV. JUAN LEON MERA CDLA. SANTA ROSA MZ 54 SOLAR 1. AL FRENTE ALMACENES D TODO,08:00 - 21:00,No,No
,tuti duran oramas gonzalez,,,,DURAN CALLE VEHICULAR 17 MZ 3 SOLAR 17 DE LA CIUDADELA ORMAS GONZALEZ. DIAGONAL A LA FARMACIA CRUZ AZUL,08:00 - 21:00,No,No
,tuti duran pichincha,,,,Duran calle Pichincha y Av. Principal 5 de Junio,08:00 - 21:00,No,No
Quevedo,tuti echeandia,"HP9C+C2J, C. Ramon Ulloa, Echeandía",-1.4314112,-79.279994,CALLE GONZALES SUAREZ ENTRE RAMON ULLOA Y SIMON BOLIVAR,08:00 - 21:00,No,No
Quito,tuti eden,"De los Pinos 905-830, Quito",-0.1367589,-78.47279619999999,"DE LOS PINOS Y DE LOS GUACAMAYOS, LA KENNEDY.",08:00 - 21:00,Sí,No
Santo Domingo,tuti el 34,"PGHX+3PF, Av. Chone, El Carmen",-0.272383,-79.450654,,,,
,tuti el arenal,,,,AV. OSWALDO GUAYASAMIN Y PASAJE SAN FRANCISCO,08:00 - 21:00,No,No
,tuti el bosque,,,,ALONSO DE TORRES Y AV. EDMUNDO CARVAJAL,08:00 - 21:00,Sí,No
,tuti el carmen av. esperanza,,,,"AV. LA ESPERANZA, EN LOS SOLARES 7 Y 8 DE LA MANZANA B DE LA LOTIZACION SAN ANTONIO DE LA PARROQUIA Y CANTON EL CARMEN.",08:00 - 21:00,No,No
,tuti el carmen-el 34,,,,"LOTIZACION ATENAS I, AVENIDA CHONE Y SIMON BOLIVAR DE LA PARROQUIA Y CANTON EL CARMEN.",08:00 - 21:00,No,No
Quito,tuti el condado,"Pedro de la Peña Oe5-166, Quito",-0.1052665,-78.499287,CALLE PEDRO DE LA PENA Y SAN FRANCISCO DE RUMIURCO.,08:00 - 21:00,No,No
,tuti el dorado,,,,CENTRO COMERCIAL EL DORADO JUNTO A LA FARMACIA FYBECA,08:00 - 21:00,Sí,No
,tuti el ejido,,,,AV. MARIANO ACOSTA Y GAULLUPE,08:00 - 21:00,Sí,No
,tuti el empalme 2 don pancho,,,,"AV. GUAYAQUIL, SECTOR LA DEMOCRACIA SOL. 22 Y 23",08:00 - 21:00,No,No
,tuti el empalme 3 centro,,,,Av. Manabi y calle Mateo Rodriguez,08:00 - 21:00,Sí,No
Quevedo,tuti el empalme centro,"X92R+MQC, Av. Manabi, Velasco Ibarra",-1.0483186,-79.6080967,,,,
Quito,tuti el inca,"Pio Valdivieso E7-74, Quito",-0.1581057,-78.4774137,AV. 6 DE DICIEMBRE E ISLA ISABELA.,08:00 - 21:00,No,No
Manta,tuti el palmar,"Rocafuerte en las inmediaciones del Aeropuerto, Vía Manta - Jaramijo, Manta",-0.9611889,-80.6880903,,,,
Santo Domingo,tuti el paraiso la 14,"CF6Q+H42, La Catorce",-0.5886057,-79.5122289,,,,
Guayaquil,tuti el paseo shopping,"V3M8+RP8, Av. Camilo Ponce Enríquez, Guayaquil",-2.1154574,-79.9331405,,,,
Manta,tuti el porvenir,"27MP+FCM, Manta",-0.9662928,-80.71394509999999,,,,
Manta,tuti el redondel,"JCV5+CPC, Jipijapa",-1.3565001,-80.5907909,,,,
,tuti el salto,,,,BELISARIO QUEVEDO Y FELIX VALENCIA,08:00 - 21:00,No,No
,tuti el tingo,,,,AV. ILALO Y AV EL TURISMO,08:00 - 21:00,Sí,No
,tuti el triangulo,,,,AV. GENERAL RUMINAHUI E ISLA GENOVEVA,08:00 - 21:00,Sí,No
,tuti el triunfo,,,,Calle 24 de Mayo y Assad Bucaram en el Antiguo Paseo el Triunfo,08:00 - 21:00,No,Sí
,tuti eloy alfaro,,,,Eloy Alfaro #921 entre Brasil y Cuenca,08:00 - 21:00,No,No
Quevedo,tuti empalme 2 don pancho,"W9V5+RH2, Velasco Ibarra",-1.0554983,-79.6411189,,,,
,tuti empalme 4- hermanos coronel,,,,AV. WASHINGTON ALAVA SABANDO LUIS Y CORDERO CRESPO MZ 6 SL 5 Y 9,08:00 - 21:00,No,No
Santa Elena,tuti engabao,Engabao,-2.5726133,-80.4857107,,,,
,tuti entrada de la 8,,,,"ENTRADA DE LA 8 COOP. UNIDOS POR LA PAZ, SOLAR 23 MZ 2794",08:00 - 21:30,No,No
,tuti entre rios,,,,SAMBORONDON. URBANIZACION ENTRE RIOS MZ. Z1 SOLAR 24-25,08:00 - 21:00,No,No
,tuti esclusas,,,,Av. Raul Clemente Huerta. Cdla. Fundacion Guayaquil Mz. 1777 Sl. 10. Frente a estacion de la metrovia y Monasterio Santa Clara,08:00 - 21:00,No,No
,tuti espoch,,,,AV. PEDRO VICENTE MALDONADO Y FELICIANO CHECA,08:00 - 21:00,Sí,No
,tuti fajardo,,,,Av. El Inca y San Miguel 1,08:00 - 21:00,No,No
,tuti federico goding,,,,LA 11VA ENTRE DOMINGO SAVIO Y MARIA BAQUERIZO SANDOVAL,08:00 - 21:00,No,No
,tuti ferroviaria,,,,AV. FERROVIARIA Y 3RA AVENIDA,08:00 - 21:00,No,No
Machala,tuti ferroviaria #2,"P3J5+GWG, Av. Ferroviaria, Machala",-3.2686757,-79.9401523,,,,
,tuti ferroviaria baja,,,,CALLE JUAN CUEVA Y HERMANDAD FERROVIARIA,08:00 - 21:00,No,No
,tuti fertisa,,,,PRE-COOPERATIVA SANTIAGUITO ROLDOS MZ 31 SOLAR 10,08:00 - 21:00,No,No
,tuti ficoa,,,,Avenida Rodrigo Pachano y Calle Juan Montalvo,08:00 - 21:00,Sí,No
,tuti flavio alfaro,,,,"CALLE RAFAEL ALCIVAR, SECTOR 05, BARRIO O PARCELACION CENTRAL, MANZANA 08, ZONA 01, DE LA PARROQUIA Y CANTON FLAVIO ALFARO.",08:00 - 21:00,No,No
,tuti flor de bastion bloque 9,,,,COOPERATIVA FLOR DE BASTION BLOQUE 9 MZ. 1104 SOLAR 8,08:00 - 21:00,No,No
,tuti floresta,,,,MADRID Y ANDALUCIA,08:00 - 21:00,No,No
,tuti floresta 2,,,,"AV. ROBERTO SERRANO, COOPERATIVA LOS LAURELES MZ 752 SOLAR 9",08:00 - 21:00,No,No
,tuti florida,,,,SAN FRANCISCO KM 8.5 VIA DAULE MZ. 1 SOLAR 13.3.4.5 Y 6,08:00 - 21:00,Sí,No
Manta,tuti floron,"WGCW+3PR, C. 21 de Diciembre, Portoviejo",-1.0797352,-80.4532535,,,,
,tuti forestal,,,,POMPEYA Y SIMON BOLIVAR,08:00 - 21:00,No,No
,tuti fortin,,,,FORTIN AV. PERIMETRAL BLOQUE 2 MZ. 1585 SL. 1,07:30 - 20:30,No,No
Guayaquil,tuti fragata,"Q34R+XM8, Guayaquil",-2.2426107,-79.9082827,Cooperativa Vivienda de Fragata Limitada Mz. 2205 Sl. 15 y 16,08:00 - 21:00,No,No
,tuti francisco de orellana,,,,Ave. Francisco de Orellana,08:00 - 21:00,No,No
,tuti francisco jacome,,,,La Florida. 6to pasaje y callejon 19,08:00 - 21:00,No,No
,tuti galeria plaza,,,,AV. ANTONIO JOSE DE SUCRE Y GIRASOLES,08:00 - 21:00,Sí,No
,tuti garzota,,,,Ciudadela Garzota Mz43 Sl 17-18. atras del garzo centro,08:00 - 21:00,Sí,No
,tuti garzota guillermo pareja rolando,,,,GARZOTA. GUILLERMO PAREJA ROLANDO MANZANA 15 SOLAR 2. FRENTE AL EDIFICIO DE PLATA. DIAGONAL A WESTERN UNION. PASANDO LA GASOLINERA PRIMAX.,08:00 - 21:00,Sí,No
,tuti garzota hermanos miguel,,,,Cdla. L. Vernaza Sol. 8 y 25 Mz. 17,08:00 - 21:00,Sí,No
,tuti giovanni calles,,,,AV. CAPITAN GIOVANNI CALLES Y DORAL,08:00 - 21:00,No,No
,tuti gomez rendon,,,,29 y Gomez Rendon. diagonal al mercado de la 28,08:00 - 21:00,No,No
,tuti gomez rendon y la 20,,,,Calles Gomez Rendon #4219 interseccion Decima Novena y Vigesima.,08:00 - 21:00,Sí,No
,tuti gonzalez suarez,,,,AV. GONZALEZ SUAREZ Y CALLE CARPENTI,07:00 - 21:00,Sí,No
Cuenca,tuti gonzalez suarez cuenca,"Av. González Suárez 14-44 y, Cuenca",-2.8983856,-78.9827131,,,,
,tuti gran marcelino plaza,,,,"RODRIGO DE NUNEZ Y AV. OSWALDO GUAYASAMIN, PLAZA GRAN MARCELINO, TUMBACO",08:00 - 21:00,Sí,No
,tuti gribaldo mino,,,,Gribaldo Mino y Av. San Pedro de Taboada,08:00 - 21:00,Sí,No
,tuti guabo,,,,3 de Noviembre entre Eloy Alfaro y Bolívar,08:00 - 21:00,Sí,No
,tuti guabo 2,,,,AV. PANAMERICANA Y ADUANA,08:00 - 21:00,Sí,No
,tuti guajalo,,,,AV. PEDRO VICENTE MALDONADO Y 21 DE AGOSTO,08:00 - 21:00,Sí,No
,tuti guamote,,,,AVENIDA MACAS Y PANAMERICANA SUR,08:00 - 21:00,No,No
,tuti guangala,,,,Tulcan. entre Arturo Serrano y Jose Cuadra. Coop. Covitap Mz7 Sl3,08:00 - 21:00,No,No
,tuti guano,,,,AGUSTIN DAVALOS Y FRAY LAZARO Y ASUNCION,08:00 - 21:00,Sí,No
,tuti guasmo maternidad,,,,"Guasmo Sur, calle Dr. Fernando Lopez Lara",08:00 - 21:00,No,No
,tuti guasmo norte,,,,GUASMO NORTE. PRE COOPERATIVA CENTRO CIVICO SOLAR 13 MZ. 107,08:00 - 21:00,No,No
,tuti guayacanes,,,,Urbanizacion Guayacanes Mz 73 Solar 4,08:00 - 21:00,No,No
,tuti guayas y guabo,,,,Guayas entre Guabo y Kleber Franco,08:00 - 21:00,No,No
,tuti guayas y quil,,,,Guasmo Sur. Precooperativa Guayas y Quil 2. manzana 2376 solar 9,08:00 - 21:00,No,No
,tuti guayllabamba,,,,AV LIBERTADORES SIMON BOLIVAR,08:00 - 21:00,Sí,No
,tuti hermano miguel,,,,Av. Roberto Serrano y calle 52 Mz. 1403 Sl. 3,08:00 - 21:00,Sí,No
,tuti hospital guasmo,,,,"PRECOOPERATIVA FEBRES CORDERO, CALLE CACIQUE TOMALA",08:00 - 21:00,No,No
,tuti huachi grande,,,,PANAMERICANA NORTE E35 Y ALASKA VIA AMBATO RIOBAMBA,08:00 - 21:00,Sí,No
,tuti huancavilca norte,,,,Frente al comisariato del constructor,08:00 - 21:00,No,No
,tuti huaquillas,,,,AV. REPUBLICA Y AV SANTA ROSA,08:00 - 21:00,No,Sí
,tuti huaquillas 2 - av. republica,,,,AV. DE LA REPUBLICA ENTRE AZUAY Y BOLIVAR,08:00 - 21:00,No,No
,tuti huarcay,,,,Av. Luis Duque y Oswaldo Hurtado,08:00 - 21:00,No,No
,tuti hugo cortez,,,,Cooperativa LosTulipanes. Av. Hugo Cortez Mz. 1110 Sl. 9,08:00 - 21:00,No,No
Ambato,tuti i quijano y ordonez,Quijano y Ordoñez &,-0.9379094,-78.612808,,,,
,tuti ibarra centro,,,,SIMON BOLIVAR Y CRISTOBAL COLON ESQUINA,08:00 - 21:00,Sí,No
,tuti ilalo,,,,"AVENIDA ILALO OE 12-S4-375, ALANGASI.",08:00 - 21:00,Sí,No
,tuti inaquito,,,,ALFONSO DE PEREIRA E INAQUITO,08:00 - 21:00,No,No
,tuti indio colorado,,,,"STO. DOMINGO, AV. CHONE Y REDONDEL INDIO COLORADO.",08:00 - 21:00,No,No
,tuti infa,,,,ABOGADO JAIME ROLDOS AGUILERA Y CAMILO PONCE ENRIQUEZ,08:00 - 21:00,No,No
,tuti inmaconsa,,,,LOTIZACION INDUSTRIAL INMACONSA SOLAR 1 (1) MZ. 70 DENTRO DE GASOLINERA GASPETROLIUM,08:00 - 21:00,Sí,No
Quito,tuti isla floreana,"Av. Isla Floreana &, Quito",-0.1673693,-78.48335279999999,Av. Isla Floreana e Isla Isabela.,08:00 - 21:00,No,No
Guayaquil,tuti iv milagro,"Av. 17 de Septiembre &, Milagro",-2.1377163,-79.5967288,,,,
,tuti izamba,,,,Av. Ayapamba Oe2-98,08:00 - 21:00,Sí,No
,tuti jacinto cortez,,,,"SANTO DOMINGO, JACINTO CORTEZ Y AURELIO ESPINOZA",08:00 - 21:00,No,No
,tuti jaime roldos,,,,Via a Santa Rosa y Roca Fuerte,08:00 - 21:00,Sí,No
,tuti jama,,,,"JAMA, REDONDEL ENTRE 15 DE JUNIO Y AV. JAMA",08:00 - 21:00,Sí,No
Manta,tuti jaramijo,"29X6+R48, C. 23 de Octubre, Jaramijó",-0.9504579,-80.63964190000002,"CALLE 23 DE OCTUBRE, ENTRE 28 DE ABRIL Y AV. NAVAL. A UNA CUADRA DEL MUNICIPIO",08:00 - 21:00,No,Sí
,tuti jipijapa,,,,VICTOR MANUEL RENDON Y CALLE ELOY ALFARO (REDONDEL BY PASS). PARROQUIA SAN LORENZO DE JIPIJAPA.,08:00 - 21:00,Sí,No
Manta,tuti jipijapa centro,"MC2C+CQX, Jipijapa",-1.3488896,-80.57801540000001,,,,
Manta,tuti jocay,"27QP+Q5W, Manta",-0.9604362,-80.7144492,"LOTIZACION EL PORVENIR ACTUAL BARRIO JOCAY, CALLE J-3 DEL CANTON MANTA.",08:00 - 21:00,No,No
,tuti jose de peralta,,,,Av. Lorena Y Bahi­a de Caraquez,08:00 - 21:00,Sí,No
Guayaquil,tuti jose mascote,"José Mascote 4705, Guayaquil",-2.2169592,-79.90137709999999,Jose Mascote 4718 entre Francisco Segura y Oconnor,08:00 - 21:00,No,No
,tuti juan montalvo,,,,Av. Circunvalacion Norte y Av. Juan Montalvo y calle 12 va Norte,08:00 - 21:00,No,No
,tuti jujan,,,,Lotizacion Angel Leon SOLAR 40,08:00 - 21:00,No,No
,tuti julio andrade,,,,"CARCHI, AV PANAMERICANA NORTE",08:00 - 21:00,Sí,Sí
,tuti juncal,,,,"AVENIDA PANAMERICANA Y S/N, FRENTE A LA GASOLINERA EL JUNCAL",08:00 - 21:00,Sí,No
,tuti junin,,,,AV ELOY ALFARO ENTRE AV VELASCO IBARRA Y AV 10 DE AGOSTO,08:00 - 21:00,No,No
,tuti junin y 6 de marzo,,,,JUNIN ENTRE LORENZO DE GARAYCOA Y 6 DE MARZO. A 200 METROS DEL PARQUE SAN AGUSTIN,08:00 - 21:00,No,No
,tuti junquillal,,,,Raul Vera y Carlos Andrade,08:00 - 21:00,No,No
Babahoyo,tuti kennedy norte,"Maria Piedad Castillo de Levi, Guayaquil",-2.1541973,-79.90213949999999,KENNEDY NORTE ENTRE PIEDAD CASTILLO Y JOSE SANTIAGO CASTILLO. AL FRENTE DE CEAO CLINIC,08:00 - 21:00,Sí,No
,tuti km 24.5 via daule,,,,KM 24.5 VIA DAULE,08:00 - 21:00,Sí,Sí
Ambato,tuti l san buenaventura,Av. Miguel Iturralde 350,-0.8839572,-78.6151896,,,,
,tuti la arboleda,,,,"Francisco Matis y Monjas alto, frente a la panificadora El Pan dorado",08:00 - 21:00,No,No
,tuti la aurora,,,,Av. L. Febres Cordero. entre Luis Parreno y Av. 18 de agosto,08:00 - 21:00,No,No
,tuti la concordia,,,,AV. SIMON PLATA TORRES Y CALLE AMAZONAS.,08:00 - 21:00,No,No
,tuti la ecuatoriana,,,,AV. MARISCAL SUCRE.,08:00 - 21:00,No,No
Santo Domingo,tuti la esperanza,"PGFJ+X38, Av. Esperanza, El Carmen",-0.275095,-79.4698033,,,,
,tuti la gasca,,,,AV LA GASCA Y GASPAR DE CARVAJAL,08:00 - 21:00,Sí,No
,tuti la joya,,,,VIAL 1 SECTOR LA CANDELARIA DE LA PARROQUIA SATELITE LA AURORA LOTE #10F,08:00 - 21:00,Sí,No
,tuti la libertad 1,,,,BARRIO SIMON BOLIVAR CALLE 23 ENTRE AVENIDA 9NA Y 10MA,08:00 - 21:00,Sí,No
,tuti la libertad 2 - av eleodoro,,,,AV. ELEODORO SOLORZANO Y CALLE 31,08:00 - 21:00,No,No
,tuti la libertad 3 - calle tercera,,,,CALLE TERCERA Y CALLE 25AVA,08:00 - 21:00,No,No
,tuti la libertad 4,,,,"SECTOR ABDON CALDERON MZ 54 SOLAR 1, DIAGONAL A CIUDAD DEPORTIVA A UNA CUADRA DE RADIO AMOR",08:00 - 21:00,No,No
,tuti la libertad 5 - 28 de mayo,,,,"Barrio 28 de mayo solar 5 y 6 mz 35, frente al parque",08:00 - 21:00,No,No
,tuti la libertad 6 - la propicia,,,,SECTOR LA PROPICIA MZ. 26 SOLAR 11 Y 12,08:00 - 21:00,No,No
,tuti la linea,,,,SECTOR ALBAN BORJA CALLE HIGUERA,08:00 - 21:00,No,No
,tuti la lorena,,,,Panamericana y Nevada,08:00 - 21:00,Sí,No
,tuti la luz,,,,Av. Galo Plaza Lasso y Pablo Paredes,08:00 - 21:00,No,No
,tuti la mana,,,,"Cotopaxi. La Mana, Av. 19 de Mayo y Galo Plaza.",08:00 - 21:00,No,No
,tuti la mascota,,,,AV. MARISCAL SUCRE Y AVENIDA RODRIGO DE CHAVEZ,08:00 - 21:00,No,No
,tuti la ofelia,,,,AV. DIEGO VASQUEZ Y RAMON CHIRIBOGA,08:00 - 21:00,Sí,No
,tuti la planada,,,,OE17B ENTRE N75 Y N76,08:00 - 21:00,Sí,No
Quito,tuti la prensa,"VG65+P2V, Quito",-0.1382011,-78.4924647,AV. LA PRENSA N55-60 Y QUITO,08:00 - 21:00,Sí,No
Otavalo,tuti la pulida,"VF6V+2M4, Jorge Piedra, Quito",-0.1393849,-78.5048907,Calle Jorge Piedra y Oe9B,08:00 - 21:00,No,No
,tuti la republica,,,,Av. de la Republica y calle Azuay,08:00 - 21:00,No,No
Manta,tuti la tejedora,"DE LA LOTIZACIÓN LAS PAMPAS DEL SOL, MZ E LOTE 17",-1.1286535,-80.7973681,"MANZANA E, LOTE 17 DE LA LOTIZACION LAS PAMPAS DEL SOL EN EL SITIO COLORADO DEL CANTON MONTECRISTI.",08:00 - 21:00,Sí,No
,tuti la troncal 1 alfonso andrade,,,,Av. Alfonso Andrade #930 y Av. 25 de agosto,08:00 - 21:00,No,No
,tuti la troncal 2 25 de agosto,,,,Avenida Central Veinticinco de Agosto Interseccion calle publica,08:00 - 21:00,Sí,No
,tuti la union,,,,"E20 Y Guayas, La Unión",08:00 - 21:00,Sí,No
,tuti la vicentina,,,,"Toribio Hidalgo, Barrio La Vicentina",08:00 - 21:00,No,No
,tuti la victoria,,,,AV. PATRICIO ROMERO BARBERIS Y Oe1E,08:00 - 21:00,No,No
,tuti ladrillera,,,,FLOR DE BASTION . CALLE 27 S.O. MZ. 125 SOLAR UNO (4),08:00 - 21:00,No,No
,tuti laguna mall,,,,AV. MARIANO ACOSTA 15 - 105 Y CALLE CRISTOBAL GOMEZ JURADO,07:00 - 21:00,Sí,No
Manta,tuti las orquideas,"WGR9+M57, C. D-1, Portoviejo",-1.0583449,-80.4820608,,,,
,tuti las palmas,,,,VIA MANTA PORTOVIEJO JUNTO AL CEDI MANABI 800 METROS DE DURAGAS.,08:00 - 21:00,Sí,No
,tuti las penas,,,,Cerro Santa Ana. Calle J. Moran de Buitron y Callejon S. 1 MZ. 45,08:00 - 21:00,No,No
,tuti las vinas,,,,Cesar Teran Lopez y De Las Vinas,08:00 - 21:00,No,No
,tuti laurel,,,,Av. Colon Jurado Mendoza y via al Cementerio,08:00 - 21:00,No,No
,tuti legarda,,,,BERNARDO DE LEGARDA OE8136 Y PASAJE TEXEIRA,08:00 - 21:00,No,No
,tuti libertad 7 velasco ibarra,,,,"BARRIO JAIME NEBOT, SECTOR VELASCO IBARRA, CALLE 24 AVENIDA 38, LA LIBERTAD",08:00 - 21:00,No,No
,tuti limonal,,,,Coop. El Liomal Mz. 2384 Sol. 8,08:00 - 21:00,No,No
,tuti limoncito,,,,KM 30 VIA A LA COSTA,08:00 - 21:00,Sí,No
,tuti lizardo ruiz,,,,LIZARDO RUIZ  Y GENERAL JOSE MARIA GERRERO,08:00 - 21:00,Sí,No
,tuti llano chico,,,,"17 DE SEPTIEMBRE Y 5 DE JULIO, A 250 METROS DEL PARQUE LLANO CHICO.",08:00 - 21:00,Sí,No
Otavalo,tuti llano grande,"Gabriel García Moreno &, Quito",-0.1120553,-78.4414508,Jose Peralta y Gonzalo Zaldumbide,08:00 - 21:00,Sí,No
,tuti loma de puengasi,,,,Ricardo Izurieta y Juan Bautista Aguirre,08:00 - 21:00,No,No
,tuti lomas de sargentillo,,,,Av. El Telegrafo frente a la escuela Manuela CaNizares,08:00 - 21:00,No,No
,tuti los alamos,,,,AV. LIZARZABURU Y SAINT AMAND MONTROND,08:00 - 21:00,Sí,No
,tuti los arenales,,,,"PORTOVIEJO DEL SECTOR LOS ARENALES, PARROQUIA CRUCITA, DEL CANTON PORTOVIEJO.",08:00 - 21:00,Sí,No
Manta,tuti los bajos,"W89C+37C, Portoviejo",-1.0823073,-80.679356,"MONTECRISTI, CALLE PRINCIPAL DEL SITIO BAJO DE PECHICHE",08:00 - 21:00,No,No
,tuti los bosques,,,,"AV. 5 DE JUNIO, DEL BARRIO EL PAPAGAYO, DE LA PARROQUIA 18 DE OCTUBRE.",08:00 - 21:00,Sí,No
Ibarra,tuti los ceibos,"Av. El Retorno &, Ibarra",0.3352349,-78.1161253,AV EL RETORNO ENTRE RIO CURARAY Y RIO PASTAZA,08:00 - 21:00,No,No
Manta,tuti los esteros,"C. 119 119, Manta",-0.9494747,-80.70271629999999,CDLA. LOS ESTEROS MZ 18-A SOLAR 24. FRENTE A ESCUELA FISCAL BLANCA GILBERT DE INTRIAGO,08:00 - 21:00,No,Sí
Santa Elena,tuti los michis,"Q4F2+468, Calle 31, La Libertad",-2.2271248,-80.89942549999999,,,,
,tuti los olivos,,,,PLUTARCO LARREA Y AV. PANAMERICANA,08:00 - 21:00,Sí,No
,tuti los rios,,,,Gomez Rendon #1929 entre Esmeraldas y Los Rios. esq.,08:00 - 21:00,Sí,No
,tuti luis tufino,,,,"OE2-383, AV. LUIS G. TUFINO",08:00 - 21:00,Sí,No
,tuti luque y chile,,,,Edificio Mega. Luque entre Chile y Pedro Carbo solar 6 manzana 16,08:00 - 21:00,No,No
Quito,tuti luz y vida,"WHG8+335 Conjunto San José de Moran, Carlos Mantilla, Quito",-0.0748544,-78.43476009999999,CARLOS MANTILLA E5-94,08:00 - 21:00,No,No
,tuti machachi,,,,AVENIDA AMAZONAS Y LUIS CORDERO,08:00 - 21:00,Sí,No
,tuti machala y huancavilca,,,,Avenida Machala #2134 y calle Huancavilca.,08:00 - 21:00,Sí,No
,tuti madero vargas,,,,AV. BOLIVAR MADERO VARGAS Y CALLE CARRERA 21AVA OESTE,08:00 - 21:00,No,No
,tuti magdalena,,,,BARRIO MAGDALENA S10C HUAYNAPALCON OE5-41 PARROQUIA MAGDALENA.,08:00 - 21:00,No,No
,tuti maldonado y guaranda,,,,MALDONADO Y GUARANDA,08:00 - 21:00,No,No
,tuti malecon y loja,,,,MALECON 2000 Y LOJA,08:00 - 21:00,No,No
,tuti malvinas,,,,PRE-COOPERATIVA DIGNA POPULAR MZ. 4238 SOLAR #2,08:00 - 21:00,No,No
Santa Elena,tuti manglaralto,"5724+24J, Montañita",-1.8499733,-80.7446318,"CANTON MANGLARALTO, VIA OLON MZ 30 SOLAR 7 Y 8",08:00 - 21:00,No,No
,tuti manta - alta gracia,,,,MANTA. SECTOR ALTA GRACIA. AV. LAS ACACIAS Y CJ. 1-2,08:00 - 21:00,No,No
,tuti manta 2000,,,,CALLE 12 VIA A SAN MATEO URB. MANTA 2000 FRENTE A LA ENTRADA DEL COLEGIO JULIO PIERREGROSSE,08:00 - 21:00,No,No
,tuti manta 4 de noviembre,,,,Barrio La Paz Av. 4 de Noviembre. diagonal a Paseo Shopping,08:00 - 21:00,No,Sí
,tuti manta aurora,,,,AVENIDA LA AURORA MZ D Y CALLE RIO ESMERALDA,08:00 - 21:00,No,No
,tuti manta av. 108,,,,TARQUI AV. 108 Y CALLE 20,08:00 - 21:00,No,No
,tuti manta circunvalacion,,,,AVENIDA CIRCUNVALACION Y AVENIDA 47 EN LA GASOLINERA PRIMAX,08:00 - 21:00,No,No
Manta,tuti manta costa azul,"28PG+P76, Manta",-0.9632602999999998,-80.6743872,LOTIZACION COSTA AZUL MANZANA C. LOTE 11 Y 12,08:00 - 21:00,No,No
,tuti manta el palmar,,,,Ciudadela El Palmar frente al nuevo terminal terrestre Via Principal,08:00 - 21:00,No,No
,tuti manta flavio reyes,,,,MANTA. FLAVIO REYES ENTRE CALLE 19 Y 18. DIAGONAL A OSCUS.,08:00 - 21:00,No,No
Manta,tuti manta interbarrial,"27GQ+22Q, Manta",-0.9749824,-80.7123541,MANTA. BARRIO SAN PEDRO. SITIO MAZATO (AV. INTERBARRIAL) AV. 215 Y CALLE 309,08:00 - 21:00,No,Sí
Manta,tuti manta las cumbres,"27HG+W9F, C. 291, Manta",-0.9701636,-80.7242327,BARRIO LAS CUMBRES. CALLE 291 Y CALLE 21/11,08:00 - 21:00,No,No
,tuti manta plaza 11,,,,SECTOR MAZATO. TRAMO 2 DE LA VIA CIRCUNVALACION. DE LA PARROQUIA TARQUI DEL CANTON MANTA.,08:00 - 21:00,No,No
Manta,tuti manta santa martha,"27W9+F5F, Manta",-0.9538227,-80.7320778,CALLE 12. AVENIDA 28. GARAJE Y LOCALES BURGOS.,08:00 - 21:00,No,No
Manta,tuti manta tarqui,"27WM+HM2, Avenida 108, Manta",-0.9536048,-80.7158493,CALLE 102 AV. 108 AL FRENTE DE LA PLAZA COMERCIAL TARQUI,08:00 - 21:00,No,No
,tuti manuelita saenz,,,,AV. MANUELA SAENZ Y FRANCISCO DE GOYA,08:00 - 21:00,No,No
,tuti mapasingue 2 - calle primera,,,,"MAPASINGUE ESTE, CALLE PRIMERA",08:00 - 21:00,No,No
,tuti mapasingue 3 - oeste,,,,"LUIS ALCIVAR ELIZALDE, SOLAR 72A MZ 11",08:00 - 21:00,No,No
,tuti marcel laniado,,,,Av. Marcel Laniado y Napoleon Mera,08:00 - 21:00,No,No
Ibarra,tuti marianitas,"WH6C+59G, Capitán Giovanni Calles, Quito",-0.0895874,-78.42911959999999,CALLE CAPITAN GIOVANNI CALLES Y AV. CACHA,08:00 - 21:00,Sí,No
,tuti martha bucaram,,,,MARTHA  BUCARAM DE ROLDOS,08:00 - 21:00,Sí,No
,tuti martha de roldos,,,,Av. J.T. Marengo Mz112 Sl1. junto a Pintulac,08:00 - 21:00,No,No
,tuti media luna,,,,AV. MONSENOR LEONIDAS PROANO INTERSECCION JUAN DE LIZARAZO,08:00 - 21:00,Sí,No
,tuti mejia,,,,"CALLES VARGAS, RIOFRIO Y ZAMBRANO DE LA ZONA METROPOLITANA DEL CENTRO DE QUITO.",08:00 - 21:00,No,Sí
,tuti mena del hierro,,,,Av. Machala y Av Occidental Sector Mena del Hierro,08:00 - 21:00,No,No
Ibarra,tuti mercado carapungo,"WH42+XFM, Galo Pl. Lasso, Quito",-0.0925334999999999,-78.4487973,CALLE RIO CAYAMBE Y NEPTALY GODOY,08:00 - 21:00,No,No
,tuti mercado llano grande,,,,"CARAPUNGO, DAIGONAL AL MERCADO LLANO GRANDE",08:00 - 21:00,Sí,No
,tuti mercado mayorista,,,,AVENIDA EL CONDOR Y BATALLA DE TARQUI,08:00 - 21:00,Sí,No
,tuti mercado oriental,,,,ESPEJO Y CORDOVEZ,08:00 - 21:00,Sí,No
,tuti mercado santo domingo,,,,RAFAEL TROYA Y MANUEL DE LA CHICA NARVAEZ,08:00 - 21:00,No,No
Santa Elena,"tuti michis 2, gasolinera","Q37Q+5QF, 11 de Diciembre, La Libertad",-2.2371597,-80.9105859,,,,
,tuti milagro 1 24 de mayo,,,,Calle 24 de Mayo entre 12 de Febrero y Miguel Valverde,08:00 - 21:00,No,No
,tuti milagro 2 andres bello,,,,"Calle Andres Bello e Ibarra, Via Naranjito",08:00 - 21:00,No,No
,tuti milagro 3 juan montalvo,,,,Calle Juan Montalvo. entre Eloy Alfaro y 12 de Febrero,08:00 - 21:00,No,No
,tuti milagro 4 17 de septiembre,,,,URBANIZACION QUINTA PATRICIA LOTE 4 MANZANA A,08:00 - 21:00,No,No
,tuti milagro 5 av. armando jimenez,,,,"Av. Armando Jimenez entre C Miguel Caceres y Carlos Brito Cdla. las PiNas Mz. G-5 Sol. 10,11,12",08:00 - 21:00,No,No
,tuti milagro 6 av. aguarico,,,,"Av. Aguarico, Ciudadela Dager Mz. 12 Sol. 11",08:00 - 21:00,No,No
,tuti milagro av. amazonas,,,,Av. Amazonas y 9 de octubre,08:00 - 21:00,No,No
,tuti milagro av. mariscal sucre,,,,"Cdla. La Pradera, av. Mariscal Sucre y Alfonso QuiNonez",08:00 - 21:00,Sí,No
,tuti milagro jaime roldos,,,,Av. Jaime Roldos Aguilera Mz. E Sol. 13 y 14,08:00 - 21:00,No,No
,tuti milagro rocafuerte,,,,24 DE MAYO ENTRE 9 DE OCTUBRE Y ROCAFUERTE,07:00 - 20:00,Sí,No
,tuti miraflores,,,,MIRAFLORES AV. CENTRAL Y CALLE SEGUNDA SL 7 MZ 14,08:00 - 21:00,No,No
Quevedo,tuti mocache,28 de Mayo,-1.1868933,-79.5049037,"CANTON MOCACHE, BARRIO LINDO.",08:00 - 21:00,Sí,No
,tuti monjas,,,,Alfonso Mora y S2L,08:00 - 21:00,No,No
,tuti monsenor,,,,"SANTO DOMINGO, AV. ESMERALDAS Y AV. ABRAHAM CALAZACON.",08:00 - 21:00,Sí,No
,tuti monserrat,,,,CATALINA HERRERA Y LIZARDO GARCIA,08:00 - 21:00,No,No
,tuti montalvo antonia bastidas,,,,Av. Antonio Bastidas 03-0 y Segunda,08:00 - 21:00,No,No
,tuti monte sinai,,,,BARRIO MONTE SINAI. BARRIO 2 MANZANA 5775 SOLAR 40,08:00 - 21:00,No,No
,tuti monte sinai triangulo,,,,MONTE SINAI. COOPERATIVA TRIANGULO MANZANA 0005 SOLAR 13,08:00 - 21:00,No,No
,tuti montecristi,,,,MONTECRISTI AVENIDA METROPOLITANA,08:00 - 21:00,No,No
Manta,tuti montecristi la pradera,"2897+858, Manta",-0.9817005,-80.6870484,LOTIZACION SHIRLEY SOLAR 9 Y 11,08:00 - 21:00,No,No
Manta,tuti montecristi leonidas proano,2834+F8X,-0.9962299999999998,-80.6941578,"CIUDADELA MONSEÑOR LEONIDAS PROAÑO, AVENIDA VICTOR Velez MACÍAS Y 9 DE OCTUBRE LOTE #32 Y MZ. 16, CANTON MONTECRISTI.",08:00 - 21:00,No,No
,tuti monteserrin,,,,Av Eloy Alfaro y de las bugambillas,08:00 - 21:00,Sí,No
,tuti monumento al choclo,,,,"CIUDADELA SAN MARCOS, PARROQUIA 12 DE MARZO, DIAGONAL AL REDONDEL DEL CHOCLO VIA CRUCITA, JUNTO AL CENTRO DE EDUCACION INICIAL CEIBO KIDS.",08:00 - 21:00,Sí,No
,tuti muchacho trabajador,,,,Av. De la Prensa y David Ledesma,08:00 - 21:00,Sí,No
,tuti mucho lote 1 gomez lince,,,,Av. Isidro Ayora pasaje 33. pasando estacion Bomberos,08:00 - 21:00,Sí,No
,tuti mucho lote 2 espana,,,,Mucho lote 1. Mz. 2669 Sl1. Antiguo Teatro Candilejas,08:00 - 21:00,Sí,No
,tuti muey,,,,"PARROQUIA JOSE LUIS TAMAYO, BARRIO PARAISO, AVENIDA 11 ENTRE CALLE 13 Y 14. DIAGONAL AL MONUMENTO DEL NINO.",08:00 - 21:00,No,No
Manta,tuti municipal,"XGJM+RVP, Avenida Jose Maria Urbina, Portoviejo",-1.0179041,-80.4652938,,,,
,tuti napoleon mera,,,,Av. Napoleon Vera y a Av. 24 de abril,08:00 - 21:00,No,No
,tuti naranjal,,,,AV. PANORAMA Y ROCAFUERTE. LOTIZACION PECHICHAL. SOLAR 1A MZ. 97 SECTOR 10,08:00 - 21:00,No,No
,tuti naranjal centro,,,,Av. Olmedo y calle 27 Norte Mz 72 Sol.9,08:00 - 21:00,No,No
,tuti naranjito,,,,Calle Dolores Alzua # 7 y Calle 9 de Octubre,08:00 - 21:00,No,No
,tuti nariz del diablo,,,,Nariz del diablo y Heleodoro Ayala,08:00 - 21:00,No,No
,tuti nayon,,,,Av. Atahualpa y Huascar,08:00 - 21:00,No,No
,tuti nicolas segovia,,,,NICOLAS SEGOVIA Y CAMILO DESTRUGE,08:00 - 21:00,No,No
,tuti nobol,,,,"Av. Rio Amazonas y Gregorio Conforme, diagonal a la iglesia",08:00 - 21:00,No,No
,tuti nueva israel,,,,"STO. DOMINGO VIA CHONE EL CISNE NUEVO ISRAEL, FRENTE AL PARQUE CENTRAL.",08:00 - 21:00,No,No
Santo Domingo,tuti nuevo israel,"QM43+9C3, Nuevo Israel",-0.2441147,-79.3464466,,,,
,tuti nuevo quininde,,,,AV. NUEVO JERUSALEM Y C. 24 DE JUNIO,08:00 - 21:00,No,No
,tuti olfa bucaram,,,,Cooperativa Union de Bananeros Bloque 3 en 11 transversal 11SE,08:00 - 21:00,No,No
Portoviejo,tuti olmedo,"Y DON PANCHO, OLMEDO CALLE SAN ANDRES, ENTRE",-1.3961202,-80.21099009999999,CALLE SAN ANDRES ENTRE ULPIANO PAEZ Y DON PANCHO,08:00 - 21:00,No,No
,tuti oriente quiteno,,,,"Vilcabamba entre calle S18 y Fronteras. Referencia detras de Av. Simon bolivar sentido sur, sector loma de los perros",08:00 - 21:00,No,No
,tuti orquideas,,,,Avenida Francisco de Orellana,08:00 - 21:00,No,No
,tuti orquideas de la orellana,,,,URB. ORQUIDEAS DE ORELLANA CALLE C.24 NE Y 1ER PASAJE MZ. #72,08:00 - 21:00,Sí,No
,tuti oswaldo guayasamin,,,,Av. Oswaldo Guayasamin y 24 de mayo,08:00 - 21:00,No,No
,tuti otavalo abdon calderon,,,,CALLE ABDON CALDERON Y ATAHUALPA,08:00 - 21:00,Sí,No
,tuti otavalo centro,,,,CALLE VICENTE RAMON ROCA,08:00 - 21:00,Sí,No
,tuti pajan,,,,AV. 9 DE OCTUBRE Y CALLE 24 DE SEPTIEMBRE,08:00 - 21:00,No,No
,tuti pajaro azul,,,,Pajaro Azul. Jorge Wagner y Callejon 19. Entrando por Jardines de Esperanza,08:00 - 21:00,No,No
,tuti palenque,,,,Calle Juan Carlos Aspiazu y Teniente Hugo Ortiz,08:00 - 21:00,No,No
,tuti palestina,,,,Palestina. Calles Av. Fausto Espinoza y 16 de Junio,08:00 - 21:00,No,No
Santa Elena,tuti palmar,"Ruta del Spondylus, Palmar",-2.0232882,-80.7205238,"RUTA SPONDYLUS, VIA PRINCIPAL. COMUNA PALMAR. BARRIO CRUCE DE PALMAR.",08:00 - 21:00,No,No
,tuti palomino,,,,Av Juan Palomino y Av Jose Borja Barrezueta,08:00 - 21:00,No,No
,tuti pambachupa,,,,Humberto Albornoz y Ugarte y Saravia.,08:00 - 21:00,No,No
,tuti paquisha,,,,AV. GUSTAVO ORCES VILLAGOMEZ Y OE7L,08:00 - 21:00,No,No
,tuti parque industrial,,,,PANAMERICANA NORTE 1P DEP01 Y ENTRADA SAMANGA ALTO,08:00 - 21:00,Sí,No
,tuti parque lineal,,,,Av. Hector Chica y Carrera 7ma Oeste,08:00 - 21:00,No,No
,tuti parroquia abdon calderon,,,,ELOY ALFARO Y ERNESTO MENDOZA. PARROQUIA ABDON CALDERON. DEL CANTON PORTOVIEJO.,08:00 - 21:00,No,No
,tuti parroquia atahualpa,,,,AVENIDA 22 DE ENERO Y VALDIVIA,08:00 - 21:00,Sí,No
,tuti pasaje,,,,"9 de Octubre, entre Ave. Azuay y Bolivar",08:00 - 21:00,No,No
Machala,tuti pasaje 2,"M5CQ+WC3, Av. 9 de Mayo, Machala",-3.3277519,-79.8114291,AV. SAN MARTIN ENTRE AV. INDEPENDENCIA Y 9 DE MAYO,08:00 - 21:00,Sí,No
,tuti pascuales 1 las vegas,,,,Pascuales. Av. 38D Solar 1B. Diagonal a KFC pascuales,08:00 - 21:00,No,Sí
,tuti pascuales 2 paquisha,,,,Solar y Edificacion 1 Mz 328. ubicada en la Coop. Assad Bucaram,08:00 - 21:00,No,No
Santo Domingo,tuti patricia pilar,"CJHH+7R9, Patricia Pilar",-0.5718958,-79.3704278,"BUENA FE, PARROQUIA PATRICIA PILAR",08:00 - 21:00,Sí,No
,tuti pedernales,,,,CALLE LUIS MARIA PUNTO DEL BARRIO CENTRAL,08:00 - 21:00,No,No
,tuti pedro carbo,,,,Pedro Carbo. 9 de Octubre y Leopoldo Gordon. Frente a Bank Ecuador.,08:00 - 21:00,No,No
,tuti pedro vicente maldonado,,,,AV. 29 DE JUNIO Y DE LOS ARTESANOS,08:00 - 21:00,Sí,No
,tuti pendola,,,,Calle principal Av 25 de julio y calle secundaria Raul Clemente Huerta,08:00 - 21:00,No,No
,tuti perimetral,,,,Av. Perimetral. a 1.5 Km de la entrada de la 8,08:00 - 21:00,No,No
Quevedo,tuti pichincha,"X52H+6WH, Luis Maria Pinto, Pichincha",-1.0494639,-79.8200332,CALLE LUIS MARIA PUNTO DEL BARRIO CENTRAL DEL CANTON PICHINCHA,08:00 - 21:00,No,No
Manta,tuti picoaza,"XG86+4VM, Av. 5 De Junio, Portoviejo",-1.0346576,-80.4878282,LOTE 6 DEL CARRETERO PORTOVIEJO - Picoaza DE LA PARROQUIA Picoaza,08:00 - 21:00,No,No
,tuti pifo,,,,CALLE RAFAEL DELGADO 2E E IGNACIO AGUIRRE.,08:00 - 21:00,Sí,Sí
Ambato,tuti pillaro,"Av.Antonio Clavijo &, Píllaro",-1.1758455,-78.5420437,Calle Clavijo y Sucre Pillaro.,08:00 - 21:00,No,No
,tuti pimampiro,,,,CALLE ROCAFUERTE Y OLMEDO,08:00 - 21:00,Sí,No
,tuti pinllo,,,,Calle Jose Maugeri y el Quiteno Libre.,08:00 - 21:00,No,No
,tuti pintag,,,,CALLE ANTISANA N1-24 Y CALDAS.,08:00 - 21:00,Sí,No
,tuti pio xii,,,,"PIO XII y C.F, Bellavista, Calderon",08:00 - 21:00,No,No
,tuti playas 1 paquisha,,,,Av. Paquisha y Alfonso Jurado. solar 1 Mz 12,08:00 - 21:00,No,No
,tuti playas 2 - shopping,,,,GENERAL VILLAMIL. CIUDADELA BELLAVISTA. CALLE ZENÓN MACÍAS. SOLAR 5 MZ. Q. VIA A PASEO SHOPPING,08:00 - 21:00,No,No
,tuti playas 3 - av. sixto chang,,,,AV. SIXTO CHANG Y GILBERTO LAZARO ESQUINA,08:00 - 21:00,No,No
,tuti playas 4 malecon,,,,AV. JAMBELI MZ 12A SOLAR 1,08:00 - 21:00,No,No
Manta,tuti playita mia,"372W+7XC, Manta",-0.9493185,-80.7025996,,,,
,tuti playon de la marin,,,,AV PICHINCHA Y SUCRE,08:00 - 21:00,No,No
,tuti plaza danin,,,,Cdla. sagrada familia Mz59 Sl4. diagonal al hogar S. Jose,08:00 - 21:00,Sí,No
,tuti plaza napoles,,,,TRONCAL DE LA SIERRA Y NAPOLES,08:00 - 21:00,Sí,No
Babahoyo,tuti plaza orellana,"R4P3+9FV, Guayaquil",-2.1640039,-79.8963191,AV. FRANCISCO DE ORELLANA Y ALBERTO BORGES,08:00 - 21:00,Sí,No
,tuti plaza recreo,,,,KM 8.5 VIA DURAN YAGUAQUI SOL. 2 MZ. 4,08:00 - 21:00,Sí,No
,tuti plaza roja,,,,CALLE 9 DE ABRIL Y AZUAY,08:00 - 21:00,Sí,No
,tuti plaza san jorge,,,,Km 10.5 Via Daule,08:00 - 21:00,Sí,No
,tuti plaza shiva,,,,CANTON DURAN URB. PANORAMA PLAZA SHIVA,08:00 - 21:00,Sí,No
,tuti plaza sport,,,,PARROQUIA LAS LOJAS EN LA VIA PRINCIPAL SAMBOCITY- CASA LAGUNA( Plaza Sports) ETAPA 1,08:00 - 21:00,No,Sí
,tuti plaza via daule,,,,AV. DR. CAMILO PONCE KM 7 JUAN TANCA MARENGO SOL. 8 MZ. 11,08:00 - 20:00,Sí,No
,tuti plaza viva,,,,9 DE AGOSTO CALDERON,08:00 - 21:00,Sí,No
,tuti pomasqui,,,,AV. MANUEL CORDOVA GALARZA Y MANUELA SAENZ,08:00 - 21:00,Sí,No
,tuti ponceano alto,,,,AV. MARIANO PAREDES Y AV JOSE ANDRADE,08:00 - 21:00,No,No
Quito,tuti ponceano alto.,"Mariano Paredes 75-104, Quito",-0.0976262,-78.4806078,,,,
Babahoyo,tuti portete y la 11,"Q3WQ+PRR, Portete de Tarqui, Guayaquil",-2.2031214,-79.9104965,Portete #3621 y Federico Goding,08:00 - 21:00,No,Sí
,tuti portete y la 35,,,,Portete #6018 entre la 34 y la 35,08:00 - 21:00,No,No
Guayaquil,tuti portete y lorenzo,Guayaquil,-2.2092243,-79.88986349999999,,,,
,tuti portete y lorenzo de garaicoa,,,,Portete y Lorenzo Garaicoa,08:00 - 21:00,No,No
,tuti portoviejo av. bolivariana,,,,AVENIDA BOLIVARIANA ENTRE JORGE WASHINGTON Y LOS HELECHOS,08:00 - 21:00,No,No
,tuti portoviejo av. del ejercito,,,,PORTOVIEJO AVENIDA DEL EJERCITO Y TERCERA. TRANSVERSAL. JUNTO A DECOFRANT,08:00 - 21:00,No,No
,tuti portoviejo av. manabi,,,,"Sector Robles, Av. Manabi­ y Calle Nueva",08:00 - 21:00,No,No
,tuti portoviejo av. santa ana,,,,"Av. 15 de Abril y Nardos, Via Santa Ana",08:00 - 21:00,No,No
,tuti portoviejo av. universitaria,,,,Avenida El Ejercito y 3era transversal diagonal al Gran Garaje,08:00 - 21:00,No,Sí
,tuti portoviejo centro,,,,Centro. Ricaurte e/Fco Paula y 9 de oct,08:00 - 21:00,No,No
,tuti portoviejo floron,,,,FLORON 4 MZ M. AVENIDA 21 DE DICIEMBRE ENTRE CALLE LIBERTAD Y SIMON BOLIVAR. PARROQUIA ANDRES DE VERA,08:00 - 21:00,No,No
,tuti portoviejo las orquideas,,,,BARRIO EL LLANO. PARROQUIA ANDRES DE VERA. NUMERO 11 MZ. I,08:00 - 21:00,No,No
Manta,tuti portoviejo los bosques,"XG2J+655, Portoviejo",-1.0495283,-80.4695502,,,,
,tuti portoviejo primero de mayo,,,,CDLA. PRIMERO DE MAYO. AV. ATANACIO SANTOS ESQUINA Y CALLE ANIBAL BRAVO,08:00 - 21:00,No,No
,tuti portoviejo san alejo,,,,PORTOVIEJO. AV. DEL EJERCITO Y 12 DE OCTUBRE,08:00 - 21:00,No,No
,tuti portoviejo terminal,,,,Av. 9 de Julio entre Fausto Velez y Av. del Ejercito. esquina. Barrio Terminal Terrestre,08:00 - 21:00,No,Sí
,tuti porvenir,,,,"CALLE 297 Y CALLE T-10, MZ 3-A EN LA LOTIZACION DEL PORVENIR, FRENTE AL COLEGIO TARQUI.",08:00 - 21:00,Sí,No
,tuti posorja,,,,CALLE NERY CHALEN POBLACION LAS CANITAS. SOLAR 5 MZ. 12 Y CALLE 9 DE OCTUBRE.,08:00 - 21:00,No,No
,tuti posorja 2,,,,AVENIDA GUTIERREZ CHAGUAY Y CALLE SEXTA,08:00 - 21:00,Sí,No
,tuti pradera,,,,"CDLA. PRADERA AV. DOMINGO COMIN Y CALLE 11, DENTRO DE PARQUEO GASOLINERA SHELL",08:00 - 21:00,Sí,No
Manta,tuti primero de mayo,"XG5J+QR4, Atanacio Santos, Portoviejo",-1.0406199,-80.46793679999999,,,,
,tuti princesa toa,,,,"Pasaje San Blas y princesa Toa, frente al tecnicentro ZTYRES",08:00 - 21:00,No,No
,tuti progreso,,,,KM 64 VIA A LA COSTA,08:00 - 20:00,Sí,No
,tuti prosperina,,,,PROSPERINA. CIUDADELA LOS ANGELES SOLAR 1 MZ. 10,08:00 - 21:00,No,No
,tuti pucara,,,,JUAN DE VELASCO Y PRIMERA CONSTITUYENTE,08:00 - 21:00,Sí,No
,tuti pueblo solo pueblo,,,,CALLE OE1E Y 8,08:00 - 21:00,No,No
,tuti puente 3,,,,AV. GENERAL RUMINAHUI Y NELA MARTINEZ,08:00 - 21:00,Sí,No
,tuti puente 9,,,,Jose Jovanen y Av. General Ruminahui,08:00 - 21:00,No,No
,tuti puertas al sol,,,,"Cooperativa Puertas al Sol Mz. 2384 solar 9 y 10, ingresando por Via a la Costa",08:00 - 21:00,No,No
Machala,tuti puerto bolivar,"070103, Machala",-3.2646081,-79.998166,AV. BOLIVAR MADERO VARGAS ENTRE SUCRE Y BOLIVAR,08:00 - 20:00,No,No
,tuti puerto inca,,,,PUERTO INCA. AV. PRINCIPAL VIA NARANJAL,08:00 - 21:00,No,No
,tuti puerto lopez,,,,Av. Machalilla. Mariscal Sucre,08:00 - 21:00,No,No
,tuti puerto quito,,,,AV. 18 DE MAYO Y C. EUGENIO ESPEJO,08:00 - 21:00,No,No
,tuti pujili,,,,JOSE ANTONIO DE SUCRE Y BELISARIO QUEVEDO,08:00 - 21:00,Sí,No
,tuti punta carnero,,,,"Principal Vi­a Punta Carner Referencia Frente a DISENSA, diagonal al Hospital de La Libertad",08:00 - 21:00,No,No
Quito,tuti pusuqui,"E28 5350, Quito",-0.0706210999999999,-78.4712169,AV. MANUEL CORDOVA GALARZA,08:00 - 21:00,Sí,No
,tuti quevedo 1,,,,"Cdla La Salud Mz. H Sol. 1,2.",08:00 - 21:00,Sí,No
,tuti quevedo 2 - june,,,,Calle Decima Cuarta entre Doce de Octubre y calle June Guzman Villa 115 y 117,08:00 - 21:00,Sí,No
,tuti quevedo canalito,,,,Parroquia San Camilo Sol. 17 Mz. Z,08:00 - 21:00,Sí,No
,tuti quevedo jaime roldos,,,,SECTOR BARRIO DESQUITE NORTE CALLE JAIME ROLDOS SOLAR 13 INTERSECCION 27 MZ 9 CANTON QUEVEDO,08:00 - 21:00,No,No
,tuti quevedo san camilo,,,,Calle Estados Unidos entre Guayaquil y Juan Montalvo Sol. 5 y 6 Mz. 26,08:00 - 21:00,Sí,No
,tuti quevedo walter andrade,,,,El progreso Mz. B Sol. 1 y 2 en calle P Av. Walter Andrade esquina,08:00 - 21:00,No,No
,tuti quijano y ordonez,,,,CALLE QUIJANO Y ORDNEZ Y RUMINAHUI,08:00 - 21:00,No,No
,tuti quinche,,,,Troncal de la Sierra y Quito,08:00 - 21:00,No,No
,tuti quininde,,,,AVENIDA SIMON PLATA TORRES Y GUSTAVO BECERRA,08:00 - 21:00,Sí,No
Quevedo,tuti quinsaloma,"QMRM+G3, Quinsaloma",-1.2086815,-79.3173182,AV. MIGUEL INFANTES Y CALLE 10,08:00 - 21:00,No,No
Guayaquil,tuti quisquis,"Unnamed Road, Guayaquil",-2.1582544,-79.9200838,Coop. Quisquis Solar 06 MZ 1,08:00 - 21:00,Sí,No
,tuti quitumbe,,,,Avenida llira Nan y s35c,08:00 - 21:00,No,No
Machala,tuti rayito de luz,"P3R9+JWM Rayito de luz, Machala",-3.2584137,-79.9302121,Calle Mario Minuche y Avenida 17 de Noviembre,08:00 - 21:00,No,No
,tuti real audiencia,,,,AV. REAL AUDIENCIA Y PORFILIO ROMERO 170104,08:00 - 21:00,No,No
,tuti recreo 1 anton,,,,Av. Laurice Anton. Coop. Los Sauces Mz D,08:00 - 21:00,No,Sí
,tuti recreo 2 salem,,,,Recreo 5ta etapa. calle principal frente a CNEL,08:00 - 21:00,No,No
,tuti recreo 3 10 de enero (5ta etapa),,,,Recreo 5ta etapa. Cooperativa Diez de Enero solar 2. manzana A. junto a Cruz azul esquinero,08:00 - 21:00,No,No
,tuti recreo 4ta etapa,,,,CUARTA ETAPA EL RECREO MZ. 448 SOL.47,08:00 - 21:00,Sí,No
Quito,tuti republica,"Av. de la República E4-34, Quito",-0.1856336,-78.4887205,,,,
,tuti retiro,,,,AV. TRONCAL DE LA COSTA Y MADERO VARGAS,07:00 - 20:00,Sí,No
Manta,tuti ricaurte,"WGWW+7GW, Portoviejo",-1.054284,-80.4536937,,,,
,tuti ricaurte av. pinargote,,,,Calle Av. Pinargote y Bartolome Bastidas,08:00 - 21:00,No,No
,tuti river mall,,,,AV. LUIS CORDERO Y AV. GENERAL ENRIQUEZ,08:00 - 21:00,Sí,No
Manta,tuti rocafuerte,"3GFX+WHW, C. Pichincha, Rocafuerte",-0.9251091,-80.4510627,CALLE PICHINCHA. ENTRE CALLE BOLIVAR Y ELOY ALFARO,08:00 - 21:00,No,No
Manta,tuti rocafuerte la y,"3HJ4+M26, Rocafuerte, Manta",-0.9183495,-80.44499429999999,"ROCAFUERTE, VIA SPONDYLUS Y CALLE SUCRE",08:00 - 21:00,Sí,No
,tuti rodriguez bonin,,,,AVENIDA RODRIGUEZ BONIN,08:00 - 21:00,No,No
,tuti rosa borja de icaza,,,,Barrio Centenario. Av. Rosa Borja de Icaza Mz 2 Sl 2,08:00 - 21:00,No,No
,tuti rosendo aviles,,,,Rosendo Aviles y Assad Bucaram Sl 17 Mz 801,08:00 - 21:00,No,Sí
Quito,tuti ruiz de castilla,"RG62+3PV, Ruiz de Castilla, Quito",-0.1897748,-78.4982035,Calle Ruiz de Casilla y Pascual de Aandagoya,08:00 - 21:00,No,No
,tuti ruminahui,,,,Av. Abdon Calderon y Ante.,08:00 - 21:00,No,No
,tuti rumipamba,,,,AV ATAHUALPA Y AMERICA N34-211,08:00 - 21:00,Sí,No
,tuti salcedo,,,,CALLE VICENTE LEON Y ANA PAREDES,08:00 - 21:00,No,No
,tuti salinas 1 - general enrique gallo,,,,Salinas. Calle General Enrique Gallo y Las Palmeras. Una cuadra antes de la Lojanita,08:00 - 21:00,No,No
,tuti salinas 2 - av. carlos espinoza,,,,"SALINAS, AV. CARLOS ESPINOZA LARA",08:00 - 21:00,No,No
,tuti salitre,,,,Av. Jaime Roldos y Av. Samborondon Sl. 1,08:00 - 21:00,No,Sí
,tuti samanes 6,,,,Samanes 6 Mz 953 Solar 2,08:00 - 21:00,Sí,No
,tuti samborondon,,,,Sector Sucre Mz24 Sl 17-2. junto al Coliseo H. Andrade,08:00 - 21:00,No,No
,tuti san antonio,,,,AVENIDA EQUINOCCIAL Y LOS HEMISFERIOS,08:00 - 21:00,Sí,No
Ibarra,tuti san antonio de ibarra,"8RPH+7R4, San Antonio de Ibarra",0.3356375,-78.1704219,,,,
,tuti san antonio ibarra,,,,JOSE DE SUCRE Y POMPEYO GUZMAN,08:00 - 21:00,No,No
,tuti san bartolo,,,,Av. Pedro Vicente Maldonado y Pungala,08:00 - 21:00,No,No
Ibarra,tuti san blas,"Av. 13 de Abril 2339-2371, Ibarra",0.3623751,-78.1223466,CALLE GUAYAQUIL Y FRANCISCO DE CALDAS,08:00 - 21:00,No,No
,tuti san buenaventura,,,,AVENIDA MIGUEL ITURRALDE SN,08:00 - 21:00,Sí,No
Quevedo,tuti san carlos,"VHM7+JCF, San Carlos",-1.1159269,-79.436447,"QUEVEDO, PARROQUIA SAN CARLOS, AV. 2 DE JULIO Y CALLE ESTENIO BURGOS.",08:00 - 21:00,No,No
,tuti san felipe,,,,Urb. Lomas de Prosperina Sol. 10 Mz. 10,08:00 - 21:00,Sí,No
,tuti san francisco,,,,COOPERATIVA SAN FRANCISCO 2 ETAPA 8 MZ. 1111 SOL. 6,08:00 - 21:00,No,No
,tuti san gabriel,,,,AV. RIO AMAZONAS Y PRIMERA TRANSVERSAL,08:00 - 21:00,No,No
,tuti san isidro,,,,"SUCRE, PARROQUIA SAN ISIDRO AV. VALENTIN ALCIVAR",08:00 - 21:00,No,No
,tuti san isidro del inca,,,,De los Nogales y De Los Olivos,08:00 - 21:00,Sí,No
Manta,tuti san jorge,"WGJ8+4VP, E30, Portoviejo",-1.0696742,-80.48279649999999,"AV. METROPOLITANA ELOY ALFARO, MZ. A, DEL SECTOR PARQUE INDUSTRIAL EN LA PARROQUIA ANDRES DE VERA.",08:00 - 21:00,Sí,No
Quito,tuti san jose de moran,"WH76+GWC, Quito",-0.086171,-78.4377294,CALLE CARLOS MANTILLA Y SAN JOSE R. ANDRADE,08:00 - 21:00,No,No
,tuti san juan,,,,AVENIDA AURORA ESTRADA Y SEMINARIO. JUNTO A BANCO PICHINCHA,08:00 - 21:00,No,No
,tuti san juan de la armenia,,,,AV. SEBASTIAN DE BENALCAZAR E1-69,08:00 - 21:00,Sí,No
,tuti san luis,,,,JUAN FELIX PROANO Y HOLANDA,08:00 - 21:00,Sí,No
,tuti san martin de porras,,,,E8G Y S34D,08:00 - 21:00,No,No
,tuti san miguel de los bancos,,,,AV. 17 DE JULIO MOISES CARRERA Y AV. 6 DE DICIEMBRE,08:00 - 21:00,Sí,No
Santa Elena,tuti san pablo,"V66G+G4P, Ruta del Spondylus, San Pablo",-2.1386611,-80.77466509999999,COMUNA SAN PABLO MZ 47 SOLAR 4 Y 5,08:00 - 21:00,No,No
,tuti san patricio,,,,Av. Ferroviaria y Av. Montgomery Sanchez,08:00 - 21:00,Sí,No
Manta,tuti san pedro,"27GQ+885, Vía Interbarrial, Manta",-0.9743721,-80.71167229999999,,,,
,tuti san pedro de taboada,,,,AV. MARIANA DE JESUS Y PEDRO ATI,08:00 - 21:00,Sí,No
,tuti santa ana de chillogallo,,,,"JULIAN ESTRELLA Oe10 Y VICTOR JIMENEZ, JUNTO A DISENSA",08:00 - 21:00,No,No
,tuti santa anita,,,,"Av. Mariscal Sucre, entre Pedro Capiro y el canelo.",08:00 - 21:00,No,No
,tuti santa clara,,,,ANTONIO DE ULLOA,08:00 - 21:00,Sí,No
Santa Elena,tuti santa elena,"Q4FR+JX5, Santa Elena",-2.2259435,-80.8574948,Calle Comercio y Sucre. Atras del Municipio de Santa Elena y frente a la Gobernacion,08:00 - 21:00,No,No
,tuti santa elena 2,,,,VIA PRINCIPAL A ANCON,08:00 - 21:00,No,No
Santa Elena,tuti santa elena 3 via eleodoro,"Q49H+735, Av. Eleodoro Solorzano, Santa Elena",-2.2318688,-80.872261,,,,
,tuti santa elena 3 via elodoro,,,,VIA ELODORO REFERENCIA A LADO DEL RESTAURANTE SAAVEDRA,08:00 - 21:00,No,No
Santa Elena,tuti santa elena via ancon,"Q49Q+RWC, Vía Ancón, Ancón",-2.2304314,-80.8602214,,,,
,tuti santa isabel,,,,Av. Huancavilca N26-301 y C7,08:00 - 21:00,No,No
,tuti santa lucia,,,,Calle 12 de Diciembre. Lote # 2,08:00 - 21:00,No,No
,tuti santa rosa,,,,Calle Juan Leon Mera y Bolivar,08:00 - 21:00,Sí,No
,tuti santa rosa (salinas),,,,Salinas. Santa Rosa. Cdla. Floresta Mz. 1B sl. 1. Diagonal al colegio Santa Rosa,08:00 - 21:00,No,No
Machala,tuti santa rosa 2,"Los Helechos, Santa Rosa",-3.4468919,-79.9558887,AV. BELLA MARIA Y ELOY ALFARO,07:00 - 21:00,No,No
,tuti santa teresita,,,,Chambers entre la 44 y 45 Sl. 11,08:00 - 21:00,No,No
,tuti santiaguito roldos,,,,PRE COOPERATIVA SANTIAGUITO III MANZANA 1171 SOLAR 22,08:00 - 21:00,No,No
,tuti santo domingo plaza hogar,,,,AV. CHONE-CENTRO COMERCIAL PLAZA HOGAR.,08:00 - 21:00,Sí,No
,tuti santo domingo-av. quevedo,,,,"SANTO DOMINGO, AV. QUEVEDO KM3, FRENTE AL CORAL.",08:00 - 21:00,No,No
,tuti saquisili,,,,Calle 24 de Mayo y Sucre frente al parque la Concordia,08:00 - 21:00,No,No
,tuti sauces 4,,,,Dr. Teodoro Alvarado Olea y Puente Jose Maria Egas,08:00 - 21:00,No,No
,tuti sauces 8,,,,"CALLE ISIDRO AYORA CUEVA Y GABRIEL ROLDOS GARCES ESQUINA, JUNTO A SERVIENTREGA FRENTE A PROMO KONSTRUCCION",08:00 - 21:00,No,No
,tuti selva alegre,,,,MELO RAMON GONZALES ARTIGAS,08:00 - 21:00,Sí,No
,tuti serapio japerabi,,,,Serapio Japerabi y de los encuentros,08:00 - 21:00,No,No
,tuti sergio toral la pluma,,,,COOPERATIVA SERGIO TORAL 2. MZ. 3318 SOLAR 12,08:00 - 21:00,No,No
,tuti sergio toral mercado,,,,Calle 6ta diagonal a El Sabor EsmeraldeNo 2,08:00 - 21:00,No,No
,tuti simon bolivar,,,,Av. 3 de septiembre y callejon Bolivar Pico,08:00 - 21:00,No,No
,tuti stella maris,,,,PRE-COOPERATIVA FRANCISCO DE ORELLANA SOLAR 8 MANZANA 2077,08:00 - 21:00,No,Sí
,tuti sur ajavi,,,,"BARRIO MARISCAL SUCRE, N218 ROBLES E4-135 AVENIDA AMAZONAS EDIFICIO PROINCO OF. 103 PARROQUIA MARISCAL SUCRE DE LA ZONA QUITO.",08:00 - 21:00,Sí,Sí
,tuti sur guamani,,,,"CALLES VARGAS, RIOFRIO Y ZAMBRANO DE LA ZONA METROPOLITANA DEL CENTRO DE QUITO, DE LA PROVINCIA DE PICHINCHA.",08:00 - 21:00,Sí,Sí
,tuti sur santo angel de guamani,,,,"BARRIO MATILDE ALVAREZ, CALLE OE 2H LOTE 2, PARROQUIA GUAMANI DE LA ZONA METROPOLITANA DE QUITUMBE.",08:00 - 21:00,No,No
,tuti sur villaflora el redondel,,,,"BARRIO VILLAFLORA, AV. VICENTE MALDONADO S8-430 AV. RODRIGO DE CHAVEZ / CC. CARAVA PB 265 PARROQUIA LA MAGDALENA DE LA ZONA METROPOLITANA ELOY ALFARO.",08:00 - 21:00,Sí,No
,tuti suscal,,,,Coop. 16 de junio calle 47Ava Mz. 1317 Sl. 36,08:00 - 21:00,No,No
Ibarra,tuti tabacundo,"Calle Velasco Ibarra 0.046926, 78 214582, Tabacundo",0.046992,-78.21457939999999,"AV. VELASCO IBARRA, CERCA DEL PARQUE SAN BLAS",08:00 - 21:00,No,No
,tuti tanda,,,,CALLE LEONIDAS PROANO  Y ROMULO GALLEGOS,08:00 - 21:00,Sí,No
,tuti tena,,,,"TENA, 15 DE NOVIEMBRE - CALLE VICTOR HUGO",08:00 - 21:00,Sí,No
Manta,tuti terminal,"WGQR+CMX, Pedro Gual, Portoviejo",-1.061391,-80.4582557,,,,
,tuti terminal quitumbe,,,,Av. Mariscal Sucre y Av. Guayanay Nan,08:00 - 21:00,Sí,No
,tuti terminal terrestre tulcan,,,,"TULCAN, AV. VEINTIMILLA",08:00 - 21:00,Sí,No
,tuti toacazo,,,,"BARRIO GATAZO, TOACAZO OE5-531 Y OTAVALO ESQUINA PARROQUIA SAN BARTOLO DE LA ZONA METROPOLITANA ELOY ALFARO",08:00 - 21:00,No,Sí
,tuti toctiuco,,,,CALLE ALVARO DE CEVALLOS Y DEL VALLE,08:00 - 21:00,No,No
,tuti tola chica,,,,AV. UNIVERSITARIA Y AV. ILALO,08:00 - 21:00,Sí,No
Portoviejo,tuti tosagua,"6Q68+CM8, 4º Transversal, Tosagua",-0.7889634999999999,-80.23329869999999,AV. 24 DE MAYO Y 4TA TRANSVERSAL.,08:00 - 21:00,Sí,No
,tuti trinidad de dios,,,,COOP. TRINIDAD DE DIOS LAMINA 3 MZ. 4008 SOLAR 1,08:00 - 21:00,Sí,No
,tuti trinitaria 1 via perimetral,,,,ISLA TRINITARIA COOP JACOBO BUCARAM 26 2DO CALLEJON 45B,08:00 - 21:00,Sí,No
,tuti trinitaria 2 wilson cueva,,,,AV. PERIMETRAL COOP. LUCHAR Y VENCER,08:00 - 21:00,No,No
,tuti trinitaria 3,,,,ISLA TRINITARIA COOP 22 DE ABRIL MZ B SOLAR 6-7,08:00 - 21:00,Sí,No
,tuti trinitaria 4,,,,Pre cooperativa 7 de Octubre mz 710 solar 10 de la vi­a principal de la perimetral,08:00 - 21:00,No,No
,tuti trinitaria 5,,,,CARRIL SERVICIO ISLA TRINITARIA SUR,08:00 - 21:00,Sí,No
,tuti triunfo av. carlos amen,,,,AV. 8 DE ABRIL Y CARLOS AMEN,08:00 - 21:00,No,No
,tuti troncal de la costa,,,,AV. TRONCAL DE LA COSTA.,08:00 - 21:00,No,No
,tuti troncal la india,,,,Lotizacion Aztra 3era Etapa Ave. Central 11ava Lote 3,08:00 - 21:00,No,No
,tuti tulcan norte,,,,CALDERON Y CORAL,08:00 - 21:00,Sí,No
,tuti tulipanes,,,,AV. DOMINGO COMÍN Y COTACACHI,08:00 - 21:00,No,No
,tuti tumbaco centro,,,,"FRAY GONZALO DE VERA Y GASPAR DE CARVAJAL, TUMBACO",08:00 - 21:00,Sí,No
,tuti tungurahua,,,,PORTETE Y GUERRERO VALENZUELA,08:00 - 21:00,No,No
Babahoyo,tuti tungurahua 1,"Q3VW+P7M, Portete de Tarqui, Guayaquil",-2.2056742,-79.9043377,,,,
,tuti uniandes,,,,Av. Confraternidad y Dr. Agusto Alvarez,08:00 - 21:00,Sí,No
,tuti union de bananeros,,,,Guasmo. Coop. Union de Bananeros. Mz 2773 Sl 7,08:00 - 21:00,No,No
,tuti urbanor,,,,URBANOR MZ 121 SOLAR 1,08:00 - 21:00,No,No
,tuti urcuqui,,,,JULIO MATOVELLE Y ANTONIO ANTE,08:00 - 21:00,No,No
,tuti urdenor,,,,AV. JUAN TANCA MARENGO Y AV RODRIGO CHAVEZ GONZALEZ Y CALLEJON 15,08:00 - 21:00,No,No
,tuti urdesa av las monjas,,,,URDES. AV LAS MONJAS Y CALLE TERCERA. MZ 38 SOLAR 11,08:00 - 21:00,No,No
Guayaquil,tuti urdesa central,"Av. Pdte. Juan de Dios Martínez Mera 308, Guayaquil",-2.1683399,-79.9077245,,,,
,tuti urdesa circunvalacion sur,,,,URDESA CALLE JORGE PEREZ CONCHA CIRCUNVALACION SUR Y COSTANERA,08:00 - 21:00,No,No
,tuti urdesa norte,,,,"URDESA NORTE, AV. RODRIGO CHAVEZ NO 536 Y AV. PRIMERA",08:00 - 21:00,Sí,No
Santa Elena,tuti valdivia,"376J+99J, Valdivia",-1.9390257,-80.7191193,AV. 25 DE JULIO Y CALLE 50,08:00 - 21:00,No,No
Quevedo,tuti valencia,"2JWW+P94, Av. Gral. Enriquez, Valencia",-0.9531667,-79.3546389,AV. 2 D EJULIO Y CALLE ESTENIO BURGOS,08:00 - 21:00,No,No
,tuti vasija,,,,AV ALFONSO CHAVEZ Y EL MENSAJERO,08:00 - 21:00,No,No
,tuti vela,,,,AV. VELA ENTRE AV. 25 DE JUNIO Y AV. SUCRE,08:00 - 21:00,No,No
,tuti veloz,,,,AV. JOSE VELOZ Y BRASIL,08:00 - 21:00,Sí,No
,tuti ventanas 28 de mayo,,,,CALLE 28 DE MAYO ENTRE 10 DE NOVIEMBRE Y HECTOR CABRERA,08:00 - 21:00,No,No
Quevedo,tuti ventanas av. panamericana,"HG5M+VCF, Ventanas",-1.4403167,-79.46637849999999,,,,
,tuti ventanas-av. panamericana,,,,"AV. PANAMERICANA, FRENTE A KFC",08:00 - 21:00,Sí,No
,tuti vergeles,,,,Coop. Vergeles. solar 1. Mz 123,08:00 - 21:00,No,Sí
,tuti via a daule,,,,Mapasingue Oeste. Km 5.5 Via a Daule. Frente al Centro Comercial El Trebol,08:00 - 21:00,No,No
,tuti via a la costa,,,,"VIA A LA COSTA, URBANIZACION TORRES DEL SALADO JUNTO A LA UNIDAD EDUCATIVA SANTIAGO MAYOR",08:00 - 21:00,No,No
Manta,tuti via manta,"WGJ8+4XX, E30, Portoviejo",-1.069634,-80.4825018,,,,
,tuti via milagro naranjito,,,,SECTOR BANCO DE ARENA VIA MILAGRO NARANJITO,08:00 - 21:00,Sí,No
,tuti via tarifa,,,,KM 3.5 VIA TARIFA MZ 94 SOL. 13A,08:00 - 21:00,Sí,No
,tuti vicente trujillo,,,,AV. JOSE VICENTE TRUJILLO Y AV. DOLORES SUCRE,08:00 - 21:00,No,No
,tuti victor emilio estrada,,,,"Urdesa, Av. Victor Emilio Estrada 1221 y Peatonal, anterior Parrillada del Ñato",08:00 - 21:00,No,No
,tuti villa del rey,,,,URB. VILLA DEL REY,08:00 - 21:00,Sí,No
,tuti villarroel,,,,GASPAR DE VILLAROEL Y GARCIA MORENO,08:00 - 21:00,Sí,No
,tuti vinces,,,,Sucre y Bolivar,08:00 - 21:00,No,No
,tuti vinces 10 de agosto,,,,Coop. San Javier calle 10 de Agosto Mz. 50 Sol. 34 y 35,08:00 - 21:00,No,No
,tuti vinces 4 - che guevara,,,,Lotizacion los Albatros Mz. 13 Sol. 6 y 7,08:00 - 21:00,No,No
,tuti vinces av. galapagos,,,,SECTOR LAS PALMITAS. CALLE CORDOVA Y GALAPAGOS. FRENTE A BANARIEGO VINCES,08:00 - 21:00,No,No
,tuti virgen de fatima,,,,LOTIZACION UNIDOS VENCEREMOS MZ. 2 SOL. 4 PARROQUIA VIRGEN DE FATIMA KM 26,08:00 - 21:00,Sí,No
,tuti vuelta larga,,,,PARROQUIA SANTA ANA. LAS CALLES HORACIO HIDROVO VELASQUEZ Y ELOY ALFARO,08:00 - 21:00,No,No
Ibarra,tuti yacucalle,"8VRH+XFH, Av. Teodoro Goméz de la Torre, Ibarra",0.342431,-78.12125189999999,AV. TEODORO GOMEZ DE LA TORRE,08:00 - 21:00,No,No
,tuti yaguachi,,,,Av. Cone y 21 De Julio. Frente al Parque de la Madre,08:00 - 21:00,No,No
Otavalo,tuti yaruqui,"RMPH+WRF, Eugenio Espejo, Yaruquí",-0.1628226,-78.3205132,Calle Eugenio Espejo y Carr. Panamericana Troncal de la Sierra,08:00 - 21:00,No,No
Ibarra,tuti zabala,"WHCM+8P9, Quito",-0.079162,-78.41566689999999,CALLE DE LOS ARRIEROS Y DE LOS HUIAHCHUROS,08:00 - 21:00,No,No
Quito,tuti zamora,"Zamora 192-240, Quito",-0.156181,-78.4905064,"ZAMORA Y AV. BRASIL, LA CONCEPCION",08:00 - 21:00,No,No
Esmeraldas,tuti's,"Av. Olmedo &, Esmeraldas",0.9652607999999998,-79.65328679999999,,,,
Machala,tuti's coffee,"889C+V32, Av. Ocho de Noviembre, Piñas",-3.6803327,-79.67984799999999,,,,
Babahoyo,tuti- malecon y loja,"Simon Bolivar Palacios 202, Guayaquil",-2.1857823,-79.8770796,,,,
Machala,tuti-guabo 2,"Q58F+WX6, El Guabo",-3.232715,-79.8251169,,,,
Babahoyo,tuti-via_a_la_costa,"S: 1 Mz: 40, Guayaquil",-2.1834897,-79.9794751,,,,
