Ciudad,Nombre,Dirección,Latitud,Longitud
Quito,TuTi | Pueblo Solo Pueblo,"Oe1E 544, Quito",-0.3077011,-78.54552269999999
Quito,TuTi | La Armenia,"Charles Darwin 420d, Quito",-0.2807786,-78.465828
Quito,TuTi | Gran Marcelino,"Av. Oswaldo Guayasamín Oe4-134, Quito",-0.212178,-78.41053459999999
Quito,TuTi | Calderón,"VHXG+C36, Quito",-0.1016694,-78.42472769999999
Quito,TuTi | San Martín de Porras,"PF2G+R5V, E8G, Quito",-0.2978764,-78.5247021
Quito,TuTi Ponceano Alto.,"Mariano Paredes 75-104, Quito",-0.0976262,-78.4806078
Quito,TuTi | San Blas,"QFJV+XFG, Quito",-0.217553,-78.5062888
Quito,TuTi Ciudad Bicentenario,"WGJX+24F, Quito",-0.0699713,-78.4522538
Quito,TuTi | Quitumbe,"Av. Llira Ñan &, Quito",-0.296378,-78.5463826
Quito,TuTi | Huarcay,"PC3J+424, Andres Perez, Quito",-0.297188,-78.5698668
Quito,TuTi Ruiz de Castilla,"RG62+3PV, Ruiz de Castilla, Quito",-0.1897748,-78.4982035
Quito,TuTi | La Vicentina,"QGM6+MPP, Quito",-0.2157506,-78.48817319999999
Quito,TuTi Atucucho,"VFCP+VQJ, Oe16A, Quito",-0.1278345,-78.5130092
Quito,TuTi | San Antonio,"Av Equinoccial 1055, Quito",-0.008054300000000002,-78.4476145
Quito,TuTi El Condado,"Pedro de la Peña Oe5-166, Quito",-0.1052665,-78.499287
Quito,TuTi | Giovanni Calles,"WH24+PHG, Giovanni Calles Lascano, Quito",-0.09818349999999999,-78.4435646
Quito,TuTi | La Ecuatoriana,"MCRP+4JV, Av. La Ecuatoriana, Quito",-0.3096889,-78.5634687
Quito,TuTi República,"Av. de la República E4-34, Quito",-0.1856336,-78.4887205
Quito,TuTi | Centro Mejía,"Vargas 14-46, Quito",-0.2107856,-78.5039965
Quito,TuTi Edén,"De los Pinos 905-830, Quito",-0.1367589,-78.47279619999999
Quito,TuTi | Colón,"QGX5+QQJ, Av. Cristóbal Colón, Quito",-0.2005641,-78.49060659999999
Quito,TuTi | Santa Anita,"PFX6+WVQ, Av. Mariscal Sucre, Quito",-0.2502087,-78.5377994
Quito,TuTi Zamora,"Zamora 192-240, Quito",-0.156181,-78.4905064
Quito,TuTi | Chillogallo,"PCCW+M8Q, Manuel Coronado, y, Quito",-0.2784574,-78.55347220000002
Quito,TuTi | Conocoto,"García Moreno S7-105, Quito",-0.2982972,-78.4808345
Quito,Tuti | La Gasca,"Gaspar de Carvajal 33-9, Quito",-0.1968058,-78.50213640000001
Quito,TuTi El Inca,"Pio Valdivieso E7-74, Quito",-0.1581057,-78.4774137
Quito,TuTi | Ajaví,"PFV5+32R, Quito",-0.2572577,-78.5424743
Quito,TuTi | Pomasqui,"N 1-90, Quito",-0.0518554,-78.4564006
Quito,TuTi | Ilaló,"PG3W+992, Ilaló, Quito",-0.2969515,-78.45450579999999
Quito,TuTi | Santa Ana,"Julian Estrella &, Quito",-0.2828501,-78.5614958
Quito,TuTi Isla Floreana,"Av. Isla Floreana &, Quito",-0.1673693,-78.48335279999999
Quito,TuTi | Tumbaco Centro,"Gaspar de Carvajal S/N, Quito",-0.2150447,-78.4039641
Quito,TuTi | Monteserrín,"RGRM+59W, Av. Eloy Alfaro, Quito",-0.1595209,-78.4665797
Quito,TuTi Cotocollao,"Av. de la Prensa 62-56, Quito",-0.121586,-78.4936322
Quito,TuTi | Villaflora,"QF4J+99P, Av Rodrigo de Chávez, Quito",-0.2440403,-78.5190405
Quito,TuTi | Santo Ángel de Guamani,"MC9W+HM7, C. OE2H, Quito",-0.3313499,-78.55325409999999
Quito,TuTi | Paquisha,"MC4M+WQW, Gustavo Orces Villagomez, Quito",-0.3425166,-78.5658009
Quito,TuTi | San Bartolo,"PFJC+8R7, Quito",-0.2689863,-78.5279674
Quito,TuTi | 6 de Diciembre,"RGGF+F4H, Quito",-0.1738002,-78.4772332
Quito,TuTi | El Arenal,"QJWF+42V, Quito",-0.2046238,-78.3774717
Quito,TuTi | San Juan de La Armenia,"PGJP+RPR, Sebastián de Benalcazar, Quito",-0.267866,-78.4632319
Quito,TuTi | La Roldós,"N85 &, Quito",-0.0847969,-78.5055361
Quito,TuTi | Ciudad Futura,"MFQF+VHQ, Quito",-0.3104546,-78.5258905
Quito,TuTi | Serapio Japerabi,"Serapio Japerabi S13-204, Quito",-0.2568317,-78.5345524
Quito,Tuti Centro del Muchacho Trabajador,Quito,-0.1101746,-78.4938277
Quito,TuTi | Monjas,"Alfonso Mora S2-537, Quito",-0.2318621,-78.4831237
Quito,TuTi | Agapanthus,"Rio Napo 170809, Quito",-0.3317891,-78.48010239999999
Quito,TuTi | Puente 3,"PGP7+P58, Quito",-0.2631822,-78.48694859999999
Quito,TuTi San José de Morán,"WH76+GWC, Quito",-0.086171,-78.4377294
Quito,TuTi La Prensa,"VG65+P2V, Quito",-0.1382011,-78.4924647
Quito,Tuti Pusuqui,"E28 5350, Quito",-0.07062109999999999,-78.4712169
Quito,TuTi | Amaguaña,"JFFV+8Q4, Amaguaña",-0.3767335,-78.505533
Quito,TuTi | La Floresta,"Madrid E12-71, Quito",-0.2077034,-78.4865169
Quito,TuTi | Real Audiencia,"Avenida Real Audiencia &, Porfirio Romero 170104, Quito",-0.1386246,-78.486184
Quito,TuTi | Nayón,"Huascar Esquina, Quito",-0.1575152,-78.4383332
Quito,TuTi | Toacazo,"PFQ3+GRM, Toacazo, Quito",-0.2611713,-78.5453788
Quito,TuTi | Monserrat,"PGQ3+C37, Lizardo Garcia, Quito",-0.2615872,-78.4972548
Quito,TuTi | Cusubamba,"Cusubamba 2, Quito",-0.2739189,-78.54476489999999
Quito,TuTi Luz y Vida,"WHG8+335 Conjunto San José de Moran, Carlos Mantilla, Quito",-0.0748544,-78.43476009999999
Guayaquil,Tuti Urdesa Central,"Av. Pdte. Juan de Dios Martínez Mera 308, Guayaquil",-2.1683399,-79.9077245
Guayaquil,TuTi | 4 de Noviembre,"Tungurahua 3715, Guayaquil",-2.2113821,-79.9036588
Guayaquil,TuTi | VÍCTOR EMILIO,"Victor Emilio Estrada 1219, Guayaquil",-2.1615433,-79.9166805
Guayaquil,TuTi | Guayacanes,"V4J4+7Q2, TuTi, Guayacanes District, Provincia Libre de Guayaquil, 3er Callejon 20 NE, Guayaquil",-2.1193533,-79.8931181
Guayaquil,Supermercado TUTI,"V36X+C35, Demetrio Aguilera Malta, Guayaquil",-2.1389844,-79.90226659999999
Guayaquil,TuTi | Rosendo Avilés,"Rosendo Avilés T., Guayaquil",-2.2073793,-79.9273345
Guayaquil,TuTi | La Atarazana,"R4C7+V39, Av. 2 N-E- De La Democracia, Guayaquil",-2.1778484,-79.88727279999999
Guayaquil,TuTi | 10 de Agosto,"R443+WMR, Blvd. 9 de Octubre, Guayaquil",-2.1926406,-79.89587259999999
Guayaquil,TuTi - Villa España,"W39M+X75, Guayaquil",-2.0800419,-79.9167851
Guayaquil,TuTi | Bastión Popular - Bloque 2,"W34C+FMF, Guayaquil",-2.0938468,-79.9283342
Guayaquil,TuTi | Limonal,"Autop. Narcisa de Jesús Solar 11, Guayaquil",-2.1347851,-79.88111479999999
Guayaquil,TuTi | Garzota,"V445+8HJ, Guayaquil",-2.1441508,-79.8911079
Guayaquil,TuTi | Plaza Dañin,"6º Pasaje 9 NO 520, Guayaquil",-2.1717346,-79.8964335
Guayaquil,TuTi | Los Ríos,"Q4X2+HR7, Guayaquil",-2.2010783,-79.8979409
Guayaquil,TuTi | Urbasur,"2, Los Tulipanes Guasmo Sur",-2.2434375,-79.8867428
Guayaquil,TuTi | Portete,"Porrete 2817, Guayaquil",-2.2050697,-79.9043212
Guayaquil,TuTi | Vergeles,"W36W+498, Guayaquil",-2.089411,-79.9040189
Guayaquil,TuTi | Sauces 8,"V3FX+7RJ, Guayaquil",-2.1267875,-79.9004844
Guayaquil,Tuti bellavista,"R38Q+C27, Jose Maria Velasco Ibarra, Guayaquil",-2.1839626,-79.9124688
Guayaquil,TuTi | Gomez Rendón,"R34G+6GG, Guayaquil",-2.1944474,-79.9236629
Guayaquil,Tuti Chongón,"QW8C+568, Via Chongon, Guayaquil",-2.2345675,-80.07941149999999
Guayaquil,TuTi | Mapasingue Oeste,"R3X8+5XR, Guayaquil",-2.1520141,-79.9326225
Guayaquil,TuTi | Federico Goding,"Federico Godín 2414, Guayaquil",-2.2117421,-79.91229059999999
Guayaquil,TuTi | Colón y Teniente,"Colon &, Guayaquil",-2.1925673,-79.90460999999999
Guayaquil,TuTi | 1ro de Mayo,"Calle 2 NO 426, Guayaquil",-2.1879907,-79.8908391
Guayaquil,TuTi | Barrio Centenario,"Q4J6+78V, Rosa Borja de Ycaza, Guayaquil",-2.2192602,-79.8892025
Guayaquil,TuTi | Urdenor 2,"Av. Rodrigo Chavez, Guayaquil",-2.1496049,-79.90554879999999
Guayaquil,TuTi | Ciudadela Bolivariana,"1A, Bolivariana",-2.1836455,-79.8952771
Guayaquil,TuTi | Sauces 4,"Teodoro Alvarado Oleas, Guayaquil, y",-2.1283432,-79.8845089
Guayaquil,TuTi | Entre Ríos,"V43P+F5J, Samborondón",-2.1462952,-79.86455289999999
Guayaquil,TuTi | Isidro Ayora,"V483+9VC, Av Isidro Ayora, Guayaquil",-2.1340711,-79.89536009999999
Guayaquil,TuTi | Portete y la 35,"Portete de Tarqui 6016, Guayaquil",-2.1979928,-79.9301795
Guayaquil,TuTi | Las Esclusas,"P4R6+HH4, Guayaquil",-2.2586003,-79.88855769999999
Guayaquil,TUTI Fragata,"Q34R+XM8, Guayaquil",-2.2426107,-79.9082827
Guayaquil,TuTi | Guangala,"Q3FV+PMF, Guayaquil",-2.2256754,-79.90581449999999
Guayaquil,TuTi | Colinas de la Alborada,13,-2.1313338,-79.910339
Guayaquil,TuTi | Junín,"Junín 407 y, Guayaquil",-2.1884852,-79.8870182
Guayaquil,Tuti El Paseo Shopping,"V3M8+RP8, Av. Camilo Ponce Enríquez, Guayaquil",-2.1154574,-79.9331405
Guayaquil,TuTi | Mucho Lote Lince,"1° CALLEJÓN 25 NO 2686, Guayaquil",-2.0857076,-79.9221159
Guayaquil,TuTi | Perimetral,"km25, Vía Perimetral, Guayaquil",-2.1284761,-79.94961169999999
Guayaquil,TuTi | Pascuales,Guayaquil,-2.068309,-79.9324311
Guayaquil,TuTi | La Aurora,W4X9+4CC,-2.0521988,-79.8815049
Guayaquil,TuTi | Las Peñas,"R48F+PF7, Numa Pompilio Llona 204, Guayaquil",-2.1830584,-79.8764022
Guayaquil,Tuti José Mascote,"José Mascote 4705, Guayaquil",-2.2169592,-79.90137709999999
Guayaquil,TuTi | Suscal,"Q3C5+R5P, Guayaquil",-2.2279054,-79.9420446
Guayaquil,TuTi | Pradera,"Q475+99C, Av. Domingo Comín, Guayaquil",-2.2366012,-79.891576
Guayaquil,TuTi | El Dorado,Av León Febres Cordero Ribadeneyra,-2.0555891,-79.8749804
Guayaquil,TUTI QUISQUIS,"Unnamed Road, Guayaquil",-2.1582544,-79.9200838
Guayaquil,TuTi | Samborondón,"31 de Octubre, Samborondón",-1.9627995,-79.72555659999999
Guayaquil,TuTi | Durán - Recreo 3 ( 5ta Etapa),"25, El Recreo 6",-2.168933,-79.7996354
Guayaquil,TuTi | 24 y Garcia Goyena,"24 entre García Goyena, y, Guayaquil",-2.2031483,-79.9222331
Guayaquil,TuTi | Coviem,"Sl 11, Guayaquil",-2.1891341,-79.8899031
Guayaquil,TUTI IV MILAGRO,"Av. 17 de Septiembre &, Milagro",-2.1377163,-79.5967288
Guayaquil,TuTi | Puerto Azul,"R26Q+QF5, *Av. Principal Y Calle Tercera, Guayaquil",-2.1881137,-79.9612459
Guayaquil,Tuti Portete y Lorenzo,Guayaquil,-2.2092243,-79.88986349999999
Guayaquil,TuTi | Lomas de Sargentillo,"Av. El Telégrafo, Lomas de Sargentillo",-1.8786063,-80.0850947
Guayaquil,TuTi | Garzota Hermano Miguel,"R4X5+CF9, Av. Hermano Miguel, Guayaquil",-2.1514751,-79.8912536
Guayaquil,TuTi | Calle A,"Q3JR+C8P, Guayaquil",-2.2188971,-79.9091655
Guayaquil,TuTi | Puerto Inca,FF62+3FG,-2.5398145,-79.5488108
Guayaquil,TuTi | Durán 3 - Colinas del Valle,"Cdla. Primavera 2, Durán",-2.174236,-79.8468697
Cuenca,TuTi González Suárez Cuenca,"Av. González Suárez 14-44 y, Cuenca",-2.8983856,-78.9827131
Cuenca,Tutttifrutti,"Av. Abelardo J. Andrade, Cuenca",-2.8730544,-79.0348243
Cuenca,D' Todo Minimarket,"Cam. a Patamarca 3-31, Cuenca",-2.8714838,-78.9815986
Cuenca,Tu Tienda,"Coronel Guillermo Tálbot 11-41 y, Cuenca",-2.892813,-79.0103764
Cuenca,Tu Tienda,"Mariano Cueva 13-95, Cuenca",-2.8928174,-79.0002126
Loja,Panadería y Pastelería Tuttideli,"Imbabura 152-36 entre Avenida Universitaria y, 18 de Noviembre, Loja",-3.994383699999999,-79.2047165
Manta,TuTi AV. 4 DE NOVIEMBRE,"Av. 4 de Noviembre &, Manta",-0.9694301,-80.7043145
Manta,TuTi AV.BOLIVARIANA,"Av. Bolivariana, Portoviejo",-1.0572164,-80.4722877
Manta,TuTi Av. Universitaria,"XG3V+4Q4, Portoviejo",-1.0472549,-80.4555845
Manta,TUTI Arenales,"4FR8+VR8, Arenales de Crucita Crucita, Portoviejo",-0.8578331,-80.532935
Manta,TUTI MANTA LAS CUMBRES,"27HG+W9F, C. 291, Manta",-0.9701636,-80.7242327
Manta,TuTi Bahía,"9HXG+4GP, Av. 3 de Noviembre, Bahía de Caráquez",-0.602166,-80.4236719
Manta,TuTi AV. DEL EJÉRCITO,"WGRP+2Q7, Av. del Ejército, Portoviejo",-1.0599685,-80.4630668
Manta,Tuti San Jorge,"WGJ8+4VP, E30, Portoviejo",-1.0696742,-80.48279649999999
Manta,TuTi Rocafuerte,"3GFX+WHW, C. Pichincha, Rocafuerte",-0.9251091,-80.4510627
Manta,TuTi,"X84Q+MMG, Av. Metropolitana, Montecristi",-1.0428543,-80.6605579
Manta,TuTi EL PALMAR,"Rocafuerte en las inmediaciones del Aeropuerto, Vía Manta - Jaramijo, Manta",-0.9611888999999999,-80.6880903
Manta,TuTi CANTÓN Santa Ana,"C. Horacio Hidrovo Velasquez 0209, Santa Ana",-1.2083901,-80.37102790000002
Manta,TuTi PICOAZÁ,"XG86+4VM, Av. 5 De Junio, Portoviejo",-1.0346576,-80.4878282
Manta,TuTi Terminal,"WGQR+CMX, Pedro Gual, Portoviejo",-1.061391,-80.4582557
Manta,TuTi Jaramijó,"29X6+R48, C. 23 de Octubre, Jaramijó",-0.9504579,-80.63964190000002
Manta,TuTi LOS BAJOS,"W89C+37C, Portoviejo",-1.0823073,-80.679356
Manta,TuTi Primero de Mayo,"XG5J+QR4, Atanacio Santos, Portoviejo",-1.0406199,-80.46793679999999
Manta,TuTi MANTA TARQUI,"27WM+HM2, Avenida 108, Manta",-0.9536048,-80.7158493
Manta,TuTi ROCAFUERTE LA Y,"3HJ4+M26, Rocafuerte, Manta",-0.9183495,-80.44499429999999
Manta,TuTi LOS ESTEROS,"C. 119 119, Manta",-0.9494747000000001,-80.70271629999999
Manta,TuTi Av. Manabí,"Callejon Robles 130103, Portoviejo",-1.0515815,-80.46129599999999
Manta,TuTi,"Av Flavio Reyes 1714, Manta",-0.9451991,-80.7301653
Manta,TuTi El Redondel,"JCV5+CPC, Jipijapa",-1.3565001,-80.5907909
Manta,TuTi Montecristi Leonidas Proaño,2834+F8X,-0.9962299999999998,-80.6941578
Manta,TuTi BADARACCO,"27Q4+M8V, Manta",-0.9608359999999999,-80.7442109
Manta,TuTi PORTOVIEJO LOS BOSQUES,"XG2J+655, Portoviejo",-1.0495283,-80.4695502
Manta,TuTi Municipal,"XGJM+RVP, Avenida Jose Maria Urbina, Portoviejo",-1.0179041,-80.4652938
Manta,TuTi ALTAMIRA,"28H2+M6Q, Av. Las Acacias, Manta",-0.9707853999999999,-80.6993923
Manta,TuTi Las Orquideas,"WGR9+M57, C. D-1, Portoviejo",-1.0583449,-80.4820608
Manta,TuTi Charapotó,"5G75+VQC, Charapotó",-0.8353075999999999,-80.4905158
Manta,TuTi EL PORVENIR,"27MP+FCM, Manta",-0.9662928,-80.71394509999999
Manta,Tuti San Pedro,"27GQ+885, Vía Interbarrial, Manta",-0.9743721,-80.71167229999999
Manta,TuTi MANTA INTERBARRIAL,"27GQ+22Q, Manta",-0.9749823999999999,-80.7123541
Manta,TuTi MANTA SANTA MARTHA,"27W9+F5F, Manta",-0.9538227,-80.7320778
Manta,TuTi AURORA,"2893+PGQ, Manta",-0.9804632999999999,-80.6962186
Manta,TuTi Ricaurte,"WGWW+7GW, Portoviejo",-1.054284,-80.4536937
Manta,TuTi MANTA COSTA AZUL,"28PG+P76, Manta",-0.9632602999999998,-80.6743872
Manta,TuTi Abdón Calderón,"XM95+QW7, E30, Portoviejo",-1.0306089,-80.34019669999999
Manta,TuTi Florón,"WGCW+3PR, C. 21 de Diciembre, Portoviejo",-1.0797352,-80.4532535
Manta,TuTi Jipijapa Centro,"MC2C+CQX, Jipijapa",-1.3488896,-80.57801540000001
Manta,Tuti del redondel del Paraiso,"27VX+FQ3, Avenida 108, Manta",-0.9563559,-80.7005741
Manta,Tuti 24 de Mayo,"PHCJ+7MF, Portoviejo",-1.2793437,-80.4184142
Manta,TuTi AV. GUAYAQUIL,"WHR4+WFV, Portoviejo",-1.057634,-80.4438656
Manta,@pollosfagape2016,"Calle 309 11, Manta",-0.9693487,-80.70513559999999
Manta,Tuti,"27CH+6JH, Manta",-0.9794337,-80.7208946
Manta,Tuti Playita Mía,"372W+7XC, Manta",-0.9493185000000001,-80.7025996
Manta,TuTi CIELITO LINDO,"273V+V3R, Manta",-0.9952660999999999,-80.7073638
Manta,TuTi MONTECRISTI LA PRADERA,"2897+858, Manta",-0.9817005,-80.6870484
Manta,TuTi LA TEJEDORA,"DE LA LOTIZACIÓN LAS PAMPAS DEL SOL, MZ E LOTE 17",-1.1286535,-80.7973681
Manta,Super AKÍ 15 de Abril,"15 de Abril y, Las Acacias, Portoviejo",-1.0698843,-80.4473904
Manta,TuTi JOCAY,"27QP+Q5W, Manta",-0.9604361999999999,-80.7144492
Manta,Tuti vía manta,"WGJ8+4XX, E30, Portoviejo",-1.069634,-80.4825018
Manta,Mini despensa Titi,"WGGC+MHM, Portoviejo",-1.0732908,-80.4785649
Manta,Ferrisariato 15 de Abril,"WHH2+VW2, Andres de Vera, Portoviejo",-1.0703741,-80.4477165
Manta,Piso Flexible,"WGWW+7GV TUTi, Avenida Ricaurte, Portoviejo",-1.0542637,-80.4537083
Manta,Almacenes Santa Maria,"593, Portoviejo",-1.0544059,-80.456063
Manta,Paseo Shopping Manta,"Av. 4 de Noviembre, Manta",-0.9667077000000001,-80.7054173
Ambato,TuTi | Salcedo,"XC56+3H2, Vicente León, Salcedo",-1.0423597,-78.5886567
Ambato,TuTi | Galería Plaza,"89W4+Q22, Girasoles, Riobamba",-1.6531349,-78.6448537
Ambato,Tuti | San Felipe,Av. Simón Rodríguez,-0.9295977000000001,-78.6293036
Ambato,TuTi | 12 de noviembre,"Q95G+869, Av. Doce de Noviembre, Ambato",-1.2417198,-78.6243854
Ambato,TuTi | Pinllo,"Q985+2VX, Calle Maugeri y Quiteño Libre, Ambato",-1.2348805,-78.6402808
Ambato,Tuti | PujilÍ,"28V3+W8P, Pujilí",-0.9552170000000001,-78.6966726
Ambato,TuTi | Saquisilí,"586M+J57, Saquisilí",-0.8386881,-78.6668254
Ambato,TuTi | Uniandes,"M9XW+QVP, Av Bolivariana, Ambato",-1.2998634,-78.60253999999999
Ambato,TuTi | Alamos,"88VP+J73, Riobamba",-1.6559436,-78.6643423
Ambato,Tuti | La Prensa,"88QP+4JG, Avenida La Prensa, Riobamba",-1.6621932,-78.6634163
Ambato,TuTi | SAN FRANCISCO,"Sebastián de Benalcázar 2064-2234, Riobamba",-1.675618,-78.6472107
Ambato,Tuti | La Prensa,"1°39'46.0""S 78°38'22.6""W Av. Alfonso Chavez, y, Riobamba",-1.6627549,-78.6397207
Ambato,TuTi | Pucará,"89C7+C5Q, Ave Celso Rodriguez, Riobamba",-1.678907,-78.63701999999999
Ambato,TuTi | Huachi Grande,"M9V7+785, Carr. Panamericana, Ambato",-1.3068845,-78.6366482
Ambato,TuTi | IZAMBA,Av. Pedro Vásconez &,-1.2261139,-78.5869483
Ambato,Tuti I Quijano y Ordóñez,Quijano y Ordoñez &,-0.9379094,-78.612808
Ambato,TuTi | Parroquia Atahualpa,"Q9JQ+HHR, Av. 22 de Enero, Ambato",-1.2186727,-78.61102369999999
Ambato,TuTi | Villarroel,"88GW+QPV, Gaspar de Villarroel, Riobamba",-1.6730248,-78.6532059
Ambato,TuTi | Mercado Oriental,"Eugenio Espejo 3396-3488, Riobamba",-1.6658562,-78.6432584
Ambato,TuTi | Bypass,"983F+WQ7, Riobamba",-1.6452316,-78.6755879
Ambato,TuTi | José Peralta,"P9F9+HJ2, José Peralta, Ambato",-1.2761062,-78.6309785
Ambato,TuTi | Baños,"JH3G+QF8, Baños de Agua Santa",-1.3954454,-78.4238263
Ambato,TuTi l San Buenaventura,Av. Miguel Iturralde 350,-0.8839572,-78.6151896
Ambato,TuTi | Mercado Mayorista,"P9JP+F6Q, Av. El Cóndor, Ambato",-1.2687875,-78.61439060000001
Ambato,"SAN MIGUEL ""Tu tienda favorita""","060102, Riobamba",-1.6745843,-78.63387949999999
Ambato,TuTi | Guano,"Agustin Davalos &, Guano",-1.6065296,-78.646052
Ambato,TuTi Pillaro,"Av.Antonio Clavijo &, Píllaro",-1.1758455,-78.5420437
Ambato,TuTi | 10 de Noviembre,"C. Pichincha 216, Guaranda",-1.595361,-79.0018729
Ambato,TuTi | Espoch,"88QC+GJ5, Av. Pedro Vicente Maldonado, Riobamba",-1.6611762,-78.6783588
Ambato,"TuTi | Cajabamba, Riobamba","76XH+4X4, Caja bamba",-1.7022375,-78.7700469
Ambato,TuTi | Veloz,"88MV+VG3, Brasil, Riobamba",-1.6654538,-78.6561656
Ambato,TuTi Av. El Rey,"Av. El Rey 119, Ambato",-1.237055,-78.6189818
Ambato,TuTi | VASIJA_Riobamba,"89P6+V33, Juan de Velasco, Riobamba",-1.6628625,-78.6398281
Ambato,TuTi | Santa Rosa,"Vía a Sta Rosa &, Santa Rosa",-1.2816544,-78.6625415
Ambato,TuTi | Av Atahualpa,"Av Atahualpa, Ambato",-1.2571904,-78.63123449999999
Ambato,TuTi | El Salto - Latacunga,Calle Calixto Pino &,-0.9293643,-78.6174405
Ambato,TuTi | Ficoa,"20, Av. Rodrigo Pachano &, Ambato",-1.2372873,-78.63292860000001
Ambato,De Todito,"887F+6FR, Quis Quis, Riobamba",-1.6868595,-78.67632019999999
Ambato,TutiFicoa,"Q978+3RP, Av. Rodrigo Pachano, Ambato",-1.2372759,-78.6329279
Ambato,TuTi | 1 de Mayo,"Lizardo Ruiz &, Ambato",-1.2354055,-78.6273779
Ambato,TuTi | Plaza Roja Guaranda,"C. Azuay 701, Guaranda",-1.5909312,-79.000297
Ambato,TuTi | Manuelita Sáez Ambato,"Manuelita Sáenz 359, Ambato",-1.2609602,-78.6397136
Ambato,TuTi | Chasquis,"Av. los chásquis &, Ambato",-1.2601762,-78.6242383
Ambato,TuTi | Parque Industrial,"RC44+RH9, Ambato",-1.192921,-78.59367309999999
Ambato,Tuti | AYAPAMBA,"Av. Pedro Vazcones, y",-1.2263049,-78.58697819999999
Ambato,TuTi | San Luis Riobamba,"8974+4HX Pana americana Macas, Riobamba",-1.6871368,-78.6435096
Ambato,TuTi | Media Luna,"88W4+25P, Troncal de la Sierra, Riobamba",-1.654903,-78.6945434
Ambato,Entre Tu y Yo,"180103, Ambato",-1.2376755,-78.62531779999999
Ambato,Tía Pujili,"Av. Velasco Ibarra entre Pichincha, y, Pujilí",-0.953948,-78.69657
Portoviejo,TuTi AV. 4 DE NOVIEMBRE,"Av. 4 de Noviembre &, Manta",-0.9694301,-80.7043145
Portoviejo,TuTi AV.BOLIVARIANA,"Av. Bolivariana, Portoviejo",-1.0572164,-80.4722877
Portoviejo,TuTi Av. Universitaria,"XG3V+4Q4, Portoviejo",-1.0472549,-80.4555845
Portoviejo,TUTI Arenales,"4FR8+VR8, Arenales de Crucita Crucita, Portoviejo",-0.8578331,-80.532935
Portoviejo,TUTI MANTA LAS CUMBRES,"27HG+W9F, C. 291, Manta",-0.9701636,-80.7242327
Portoviejo,TuTi Bahía,"9HXG+4GP, Av. 3 de Noviembre, Bahía de Caráquez",-0.602166,-80.4236719
Portoviejo,TuTi AV. DEL EJÉRCITO,"WGRP+2Q7, Av. del Ejército, Portoviejo",-1.0599685,-80.4630668
Portoviejo,Tuti San Jorge,"WGJ8+4VP, E30, Portoviejo",-1.0696742,-80.48279649999999
Portoviejo,TuTi Rocafuerte,"3GFX+WHW, C. Pichincha, Rocafuerte",-0.9251091,-80.4510627
Portoviejo,TuTi,"X84Q+MMG, Av. Metropolitana, Montecristi",-1.0428543,-80.6605579
Portoviejo,TuTi EL PALMAR,"Rocafuerte en las inmediaciones del Aeropuerto, Vía Manta - Jaramijo, Manta",-0.9611888999999999,-80.6880903
Portoviejo,TuTi CANTÓN Santa Ana,"C. Horacio Hidrovo Velasquez 0209, Santa Ana",-1.2083901,-80.37102790000002
Portoviejo,TuTi PICOAZÁ,"XG86+4VM, Av. 5 De Junio, Portoviejo",-1.0346576,-80.4878282
Portoviejo,TuTi Terminal,"WGQR+CMX, Pedro Gual, Portoviejo",-1.061391,-80.4582557
Portoviejo,TuTi Jaramijó,"29X6+R48, C. 23 de Octubre, Jaramijó",-0.9504579,-80.63964190000002
Portoviejo,TuTi LOS BAJOS,"W89C+37C, Portoviejo",-1.0823073,-80.679356
Portoviejo,TuTi Primero de Mayo,"XG5J+QR4, Atanacio Santos, Portoviejo",-1.0406199,-80.46793679999999
Portoviejo,TuTi MANTA TARQUI,"27WM+HM2, Avenida 108, Manta",-0.9536048,-80.7158493
Portoviejo,TuTi ROCAFUERTE LA Y,"3HJ4+M26, Rocafuerte, Manta",-0.9183495,-80.44499429999999
Portoviejo,TuTi OLMEDO,"Y DON PANCHO, OLMEDO CALLE SAN ANDRES, ENTRE",-1.3961202,-80.21099009999999
Portoviejo,TuTi Av. Manabí,"Callejon Robles 130103, Portoviejo",-1.0515815,-80.46129599999999
Portoviejo,TuTi LOS ESTEROS,"C. 119 119, Manta",-0.9494747000000001,-80.70271629999999
Portoviejo,TuTi CHONE AV. AMAZONAS,"7WR2+VM6, Chone",-0.7078458999999999,-80.0983748
Portoviejo,TuTi El Redondel,"JCV5+CPC, Jipijapa",-1.3565001,-80.5907909
Portoviejo,TuTi BADARACCO,"27Q4+M8V, Manta",-0.9608359999999999,-80.7442109
Portoviejo,TuTi Montecristi Leonidas Proaño,2834+F8X,-0.9962299999999998,-80.6941578
Portoviejo,TuTi Las Orquideas,"WGR9+M57, C. D-1, Portoviejo",-1.0583449,-80.4820608
Portoviejo,Tuti del redondel del Paraiso,"27VX+FQ3, Avenida 108, Manta",-0.9563559,-80.7005741
Portoviejo,TuTi,"Av Flavio Reyes 1714, Manta",-0.9451991,-80.7301653
Portoviejo,TuTi Jipijapa Centro,"MC2C+CQX, Jipijapa",-1.3488896,-80.57801540000001
Portoviejo,TuTi Tosagua,"6Q68+CM8, 4º Transversal, Tosagua",-0.7889634999999999,-80.23329869999999
Portoviejo,Tuti 24 de Mayo,"PHCJ+7MF, Portoviejo",-1.2793437,-80.4184142
Portoviejo,Tuti San Pedro,"27GQ+885, Vía Interbarrial, Manta",-0.9743721,-80.71167229999999
Portoviejo,TuTi AV. GUAYAQUIL,"WHR4+WFV, Portoviejo",-1.057634,-80.4438656
Portoviejo,TuTi Municipal,"XGJM+RVP, Avenida Jose Maria Urbina, Portoviejo",-1.0179041,-80.4652938
Portoviejo,TuTi PORTOVIEJO LOS BOSQUES,"XG2J+655, Portoviejo",-1.0495283,-80.4695502
Portoviejo,TuTi EL PORVENIR,"27MP+FCM, Manta",-0.9662928,-80.71394509999999
Portoviejo,TuTi Charapotó,"5G75+VQC, Charapotó",-0.8353075999999999,-80.4905158
Portoviejo,TuTi MANTA COSTA AZUL,"28PG+P76, Manta",-0.9632602999999998,-80.6743872
Portoviejo,TuTi ALTAMIRA,"28H2+M6Q, Av. Las Acacias, Manta",-0.9707853999999999,-80.6993923
Portoviejo,Tuti,"27CH+6JH, Manta",-0.9794337,-80.7208946
Portoviejo,El Tuti,"3QCR+XQP, Junín",-0.9275228,-80.2080404
Portoviejo,Tuti Playita Mía,"372W+7XC, Manta",-0.9493185000000001,-80.7025996
Portoviejo,TuTi Ricaurte,"WGWW+7GW, Portoviejo",-1.054284,-80.4536937
Portoviejo,TuTi MONTECRISTI LA PRADERA,"2897+858, Manta",-0.9817005,-80.6870484
Machala,Tiendas Tuti,"Guayas 1433-1315, Machala",-3.2552852,-79.9566346
Machala,Tiendas Tuti | Santa Rosa,"G2WR+63X, Cristóbal Colón, Santa Rosa",-3.4543932,-79.9598062
Machala,TuTi | 6 Esquinas 2024,"P2JV+47W, Machala",-3.2696442,-79.95681130000001
Machala,TuTi | Arenillas,"CWVJ+MM7 y Rio Guayas, Av Raul Frias, Arenillas",-3.5558317,-80.0683574
Machala,TuTi | San-Patricio,"P3GF+7H9, Av. Ferroviaria, Machala",-3.2743435,-79.9255237
Machala,TuTi | Pasaje,"9 de Octubre &, Pasaje",-3.3267117,-79.8056574
Machala,TuTi | Rayito de Luz,"P3QC+XVW, Machala",-3.2606625,-79.92724129999999
Machala,TuTi | Huaquillas,"GQC6+2HX, Huaquillas",-3.4797377,-80.2384634
Machala,Tiendas Tuti Republica,"GQ9C+33G, Av. de la República, Huaquillas",-3.4823155,-80.2298096
Machala,TuTi | Marcel Laniado,"P2RX+HV7, Marcel Laniado, Machala",-3.2585676,-79.9503198
Machala,TUTI SANTA ROSA 2,"Los Helechos, Santa Rosa",-3.4468919,-79.9558887
Machala,TuTi | Juan Palomino,"P2GM+3VC, Av. Jose Borja Barrezueta, Machala",-3.2748221,-79.96535999999999
Machala,Tuti Ferroviaria #2,"P3J5+GWG, Av. Ferroviaria, Machala",-3.2686757,-79.9401523
Machala,TuTi | Balao,"35QM+QPM, Balao",-2.9116079,-79.8154757
Machala,Tuti Circ. Norte,"P3W4+QGR, Napoleon Mera, Machala",-3.2530033,-79.9437392
Machala,TuTi | Napoleón Mera,"P2PW+67X, Machala",-3.2644265,-79.9542932
Machala,Tienda TuTi - CastroBenítez,"P2FV+JPR, Av. Alejandro Castro Benites, Machala",-3.2757923,-79.9557686
Machala,TuTi | Parque Lineal,"P2QH+4C7, Avenida 11ava. Sur, Machala",-3.2622675,-79.9713148
Machala,Tienda TuTi El Guabo,"Q549+55M, El Guabo",-3.2445498,-79.8321282
Machala,Tiendas Tuti - Av. Luis Ángel Leon,"Av. Arizaga 130, Machala",-3.2695922,-79.9500036
Machala,Tuti Circunvalación sur,"P2MH+JVJ, Machala",-3.2659096,-79.9703632
Machala,Tuti | Empleados Municipales (Av. Las Palmeras),"P2MH+79Q, Avenida de Las Palmeras, Machala",-3.2667993,-79.9715076
Machala,Tuti-Guabo 2,"Q58F+WX6, El Guabo",-3.232715,-79.8251169
Machala,Tuti - Vía al Puerto,"P2W9+VWG, Machala",-3.2528013,-79.980171
Machala,TuTi | Brisas,"Av. Arizaga 130, Machala",-3.2695157,-79.95020040000001
Machala,Tuti‘s coffee,"889C+V32, Av. Ocho de Noviembre, Piñas",-3.6803327,-79.67984799999999
Machala,TuTi Pasaje 2,"M5CQ+WC3, Av. 9 de Mayo, Machala",-3.3277519,-79.8114291
Machala,TUTTI,"P2GV+R6R y Ceibos, Av. Colón Tinoco, Machala",-3.2728987,-79.9569681
Machala,Tuti - Bolivar,"P2WG+6F4, Machala",-3.2544793,-79.97384009999999
Machala,Tuti puerto bolivar,"070103, Machala",-3.2646081,-79.998166
Machala,Tuti Rayito de luz,"P3R9+JWM Rayito de luz, Machala",-3.2584137,-79.9302121
Machala,Supermaxi Machala,"Edf. Multiplaza, La Piazza, Av. 25 de Junio, Machala",-3.2710864,-79.94226479999999
Esmeraldas,Minimarket GD,"V4FX+4MF Malecón De La Playa, Atacames",0.8727973,-79.850811
Esmeraldas,Tía Tolita,"Vía Esmeraldas - Atacames, Parroquia Simón Plata Torres, Esmeraldas",0.9188360999999998,-79.6823871
Esmeraldas,Tuti's,"Av. Olmedo &, Esmeraldas",0.9652607999999998,-79.65328679999999
Esmeraldas,Tienda Itatí Janed,"X89X+68M, Esmeraldas",0.9680989999999999,-79.65169879999999
Esmeraldas,Super Akí,"y El Jardín, Av. Jaime Hurtado Gonzales",0.9332022,-79.67166519999999
Esmeraldas,Tía Esmeraldas Centro,"Av. Libertad, entre Rocafuerte 722, Esmeraldas",0.9680245,-79.6520975
Esmeraldas,Gran AKÍ Esmeraldas,"Pedro Vicente Maldonado, Esmeraldas",0.9765749,-79.6535148
Esmeraldas,Tía Esmeraldas Codesa,"Parroquia 5 de Agosto, Sector Mz. 09 solar 11-14, Esmeraldas",0.9325,-79.67171599999999
Esmeraldas,Tía Esmeraldas Colon,"Colón entre Salinas, y, Esmeraldas",0.9622449999999999,-79.653595
Esmeraldas,Tía Esmeraldas Parque Inf,"Av. Olmedo entre Mejia, y, Esmeraldas",0.9641131000000001,-79.6527419
Esmeraldas,Tonsupa,"V5MQ+HJQ, Vía Esmeraldas - Atacames, Tonsupa",0.8839711,-79.81088679999999
Santo Domingo,TuTi | Av. Quevedo,"Av. Quevedo Km3, Santo Domingo",-0.2679113,-79.1937969
Santo Domingo,TuTi LA ESPERANZA,"PGFJ+X38, Av. Esperanza, El Carmen",-0.275095,-79.4698033
Santo Domingo,TuTi | ABRAHAM CALAZACON,"Av. Abraham Calazacón &, Santo Domingo",-0.26327,-79.16584230000001
Santo Domingo,TuTi EL 34,"PGHX+3PF, Av. Chone, El Carmen",-0.272383,-79.450654
Santo Domingo,Tuti | Monseñor,"QR5J+V4R, Santo Domingo",-0.2402334,-79.1697228
Santo Domingo,TuTi | Plaza Hogar,"PRW3+4J6, Santo Domingo",-0.2546786,-79.1960215
Santo Domingo,TuTi | Puerto Quito,"4PCW+QHX, Av. 18 de Mayo, Puerto Quito",0.122002,-79.2534788
Santo Domingo,TuTi | Pedro Vicente Maldonado,"3WPX+VCP, Pedro Vicente Maldonado",0.0868094,-79.05115119999999
Santo Domingo,TuTi El Paraíso la 14,"CF6Q+H42, La Catorce",-0.5886057,-79.5122289
Santo Domingo,Tuti | La Lorena,"PRVW+8C2, Av. la Lorena, Santo Domingo",-0.2563656,-79.1541285
Santo Domingo,Tuti | Los Continentes,"Av. Abraham Calazacón &, Santo Domingo",-0.2515758,-79.16183219999999
Santo Domingo,Tuti | Troncal de la costa,"PQFW+4V2, Troncal de la Costa, Santo Domingo",-0.277317,-79.2029183
Santo Domingo,TuTi | 2 de Mayo,"Av. Patricio Romero 206, Santo Domingo",-0.2329729,-79.1814904
Santo Domingo,TuTi | AV. Chone,"PRW7+3FP, Santo Domingo",-0.2547819,-79.18629299999999
Santo Domingo,TuTi | Alluriquin,"M2G3+X75, E20, San José de Alluriquín",-0.3226234000000001,-78.9967633
Santo Domingo,Tienda Tuti Av El Proletariado,"PRP6+J79, Av. Quevedo, Santo Domingo",-0.2634574,-79.1892682
Santo Domingo,TuTi | San Miguel de los Bancos,"24F3+3W2, San Miguel de Los Bancos",0.0227204,-78.8951993
Santo Domingo,TuTi NUEVO ISRAEL,"QM43+9C3, Nuevo Israel",-0.2441147,-79.3464466
Santo Domingo,TuTi | Jacinto Cortez,"PRM8+7VH, AURELIO ESPINOZA, Via Bellavista, Santo Domingo",-0.2668237,-79.1827733
Santo Domingo,TuTi | La Unión,"4HMW+F42, E20, La Unión",0.1336984,-79.4047932
Santo Domingo,TuTi | La Concordia,"2J33+794, La Concordia",0.0031325,-79.39654469999999
Santo Domingo,TuTi | Indio Colorado,"PRWC+3V5, Av. Abraham Calazacón, Santo Domingo",-0.2548556,-79.17777060000002
Santo Domingo,Tuti Patricia Pilar,"CJHH+7R9, Patricia Pilar",-0.5718958,-79.3704278
Santo Domingo,Tuti,"PGRR+68, El Carmen",-0.2594375,-79.4591875
Santo Domingo,Santo Domingo De Los Tsáchilas,"PQFW+3Q2, via a, Quevedo",-0.2773688,-79.2031173
Riobamba,TuTi | Galería Plaza,"89W4+Q22, Girasoles, Riobamba",-1.6531349,-78.6448537
Riobamba,TuTi | 12 de noviembre,"Q95G+869, Av. Doce de Noviembre, Ambato",-1.2417198,-78.6243854
Riobamba,TuTi | Pinllo,"Q985+2VX, Calle Maugeri y Quiteño Libre, Ambato",-1.2348805,-78.6402808
Riobamba,TuTi | Guamote,"378R+6RV, Av Macas, Guamote",-1.9343678,-78.7077639
Riobamba,TuTi | Uniandes,"M9XW+QVP, Av Bolivariana, Ambato",-1.2998634,-78.60253999999999
Riobamba,TuTi | Alamos,"88VP+J73, Riobamba",-1.6559436,-78.6643423
Riobamba,Tuti | La Prensa,"88QP+4JG, Avenida La Prensa, Riobamba",-1.6621932,-78.6634163
Riobamba,TuTi | SAN FRANCISCO,"Sebastián de Benalcázar 2064-2234, Riobamba",-1.675618,-78.6472107
Riobamba,Tuti | La Prensa,"1°39'46.0""S 78°38'22.6""W Av. Alfonso Chavez, y, Riobamba",-1.6627549,-78.6397207
Riobamba,TuTi | Pucará,"89C7+C5Q, Ave Celso Rodriguez, Riobamba",-1.678907,-78.63701999999999
Riobamba,TuTi | Huachi Grande,"M9V7+785, Carr. Panamericana, Ambato",-1.3068845,-78.6366482
Riobamba,TuTi | IZAMBA,Av. Pedro Vásconez &,-1.2261139,-78.5869483
Riobamba,TuTi | Parroquia Atahualpa,"Q9JQ+HHR, Av. 22 de Enero, Ambato",-1.2186727,-78.61102369999999
Riobamba,TuTi | Villarroel,"88GW+QPV, Gaspar de Villarroel, Riobamba",-1.6730248,-78.6532059
Riobamba,TuTi | Mercado Oriental,"Eugenio Espejo 3396-3488, Riobamba",-1.6658562,-78.6432584
Riobamba,TuTi | Bypass,"983F+WQ7, Riobamba",-1.6452316,-78.6755879
Riobamba,TuTi | José Peralta,"P9F9+HJ2, José Peralta, Ambato",-1.2761062,-78.6309785
Riobamba,TuTi | Baños,"JH3G+QF8, Baños de Agua Santa",-1.3954454,-78.4238263
Riobamba,TuTi | Mercado Mayorista,"P9JP+F6Q, Av. El Cóndor, Ambato",-1.2687875,-78.61439060000001
Riobamba,"SAN MIGUEL ""Tu tienda favorita""","060102, Riobamba",-1.6745843,-78.63387949999999
Riobamba,TuTi | Guano,"Agustin Davalos &, Guano",-1.6065296,-78.646052
Riobamba,TuTi | 10 de Noviembre,"C. Pichincha 216, Guaranda",-1.595361,-79.0018729
Riobamba,TuTi | Espoch,"88QC+GJ5, Av. Pedro Vicente Maldonado, Riobamba",-1.6611762,-78.6783588
Riobamba,"TuTi | Cajabamba, Riobamba","76XH+4X4, Caja bamba",-1.7022375,-78.7700469
Riobamba,TuTi | Veloz,"88MV+VG3, Brasil, Riobamba",-1.6654538,-78.6561656
Riobamba,TuTi Av. El Rey,"Av. El Rey 119, Ambato",-1.237055,-78.6189818
Riobamba,TuTi | VASIJA_Riobamba,"89P6+V33, Juan de Velasco, Riobamba",-1.6628625,-78.6398281
Riobamba,TuTi | Santa Rosa,"Vía a Sta Rosa &, Santa Rosa",-1.2816544,-78.6625415
Riobamba,TuTi | Av Atahualpa,"Av Atahualpa, Ambato",-1.2571904,-78.63123449999999
Riobamba,TuTi | Ficoa,"20, Av. Rodrigo Pachano &, Ambato",-1.2372873,-78.63292860000001
Riobamba,De Todito,"887F+6FR, Quis Quis, Riobamba",-1.6868595,-78.67632019999999
Riobamba,TutiFicoa,"Q978+3RP, Av. Rodrigo Pachano, Ambato",-1.2372759,-78.6329279
Riobamba,TuTi | 1 de Mayo,"Lizardo Ruiz &, Ambato",-1.2354055,-78.6273779
Riobamba,TuTi | Plaza Roja Guaranda,"C. Azuay 701, Guaranda",-1.5909312,-79.000297
Riobamba,TuTi | Manuelita Sáez Ambato,"Manuelita Sáenz 359, Ambato",-1.2609602,-78.6397136
Riobamba,TuTi | Chasquis,"Av. los chásquis &, Ambato",-1.2601762,-78.6242383
Riobamba,TuTi | San Luis Riobamba,"8974+4HX Pana americana Macas, Riobamba",-1.6871368,-78.6435096
Riobamba,Tuti | AYAPAMBA,"Av. Pedro Vazcones, y",-1.2263049,-78.58697819999999
Riobamba,Entre Tu y Yo,"180103, Ambato",-1.2376755,-78.62531779999999
Riobamba,Guaranda,"CX4X+G7X, Guaranda",-1.5936153,-79.0016552
Riobamba,Vive 100 AMBATO DOS,"P9QH+QR7, Pablo Arenas, y Antepara, Ambato",-1.2605808,-78.6204624
Riobamba,TuTi | Media Luna,"88W4+25P, Troncal de la Sierra, Riobamba",-1.654903,-78.6945434
Riobamba,Gran Akí Riobamba,"Av. Celso Augusto Rodriguez, y, Riobamba",-1.6785202,-78.6380875
Riobamba,L' tití,"0129068006000, Ambato",-1.267645,-78.6258308
Riobamba,Titila Desserts & Details,"Av Edelberto Bonilla Oleas, Riobamba",-1.6718124,-78.63560749999999
Riobamba,Toty Boutique,"Mariano Eguez, Ambato",-1.2397189,-78.6270432
Ibarra,TuTi Ponceano Alto.,"Mariano Paredes 75-104, Quito",-0.0976262,-78.4806078
Ibarra,TuTi Ciudad Bicentenario,"WGJX+24F, Quito",-0.0699713,-78.4522538
Ibarra,TuTi | San Antonio,"Av Equinoccial 1055, Quito",-0.008054300000000002,-78.4476145
Ibarra,TuTi | Giovanni Calles,"WH24+PHG, Giovanni Calles Lascano, Quito",-0.09818349999999999,-78.4435646
Ibarra,TuTi | Pomasqui,"N 1-90, Quito",-0.0518554,-78.4564006
Ibarra,TuTi | La Roldós,"N85 &, Quito",-0.0847969,-78.5055361
Ibarra,TuTi San José de Morán,"WH76+GWC, Quito",-0.086171,-78.4377294
Ibarra,Tuti Pusuqui,"E28 5350, Quito",-0.07062109999999999,-78.4712169
Ibarra,TuTi Luz y Vida,"WHG8+335 Conjunto San José de Moran, Carlos Mantilla, Quito",-0.0748544,-78.43476009999999
Ibarra,TuTi | El Angel,"J3C6+M56, El Ángel",0.6216875,-77.9395625
Ibarra,TuTi Mercado Carapungo,"WH42+XFM, Galo Pl. Lasso, Quito",-0.09253349999999999,-78.4487973
Ibarra,Tuti LOS CEIBOS,"Av. El Retorno &, Ibarra",0.3352349,-78.1161253
Ibarra,TuTi | Los Olivos,"Dr. Plutarco Larrea 259-282, Ibarra",0.3632874,-78.1120148
Ibarra,TuTi Atuntaqui,"C. Gral. Enriquez &, Atuntaqui",0.3287266,-78.2160492
Ibarra,TuTi Marianitas,"WH6C+59G, Capitán Giovanni Calles, Quito",-0.0895874,-78.42911959999999
Ibarra,TuTi | Pío XII,"Pío XII 1730, Quito",-0.0634214,-78.4286535
Ibarra,TuTi Zabala,"WHCM+8P9, Quito",-0.079162,-78.41566689999999
Ibarra,TuTi | Urcuqui,"CR5H+6M3, Urcuqui",0.4173604,-78.1945997
Ibarra,TuTi | Cotacachi,"Av. Modesto Peñaherrera 1246, Cotacachi",0.3003343,-78.26398809999999
Ibarra,TuTi | Cayambe.,"Restauración 5154, Cayambe",0.0406101,-78.1446436
Ibarra,TuTi | Ibarra Mercado Mayorista,"Av. 13 de Abril 23-71, Ibarra",0.3623399,-78.1223856
Ibarra,TuTi | Julio Andrade,"M76J+JHF, Quito",0.661354,-77.7188422
Ibarra,TuTi | San Gabriel,"H5V9+P4P, San Gabriel",0.5942957999999999,-77.8321519
Ibarra,TuTi | La Victoria,"8VWR+VXP, Ibarra",0.3452472,-78.1096816
Ibarra,TuTi | Otavalo Centro,"C. Vicente Ramon Roca 1002-1070, Otavalo",0.228796,-78.26029079999999
Ibarra,TuTi | El Ejido,"Av. Mariano Acosta, Ibarra",0.3457517,-78.1373443
Ibarra,TuTi | Plaza Napoles,"3V44+8G6, Cayambe",0.0561185,-78.1433172
Ibarra,TuTi | Pimampiro,"93Q5+WWR, Pimampiro",0.3898205,-77.94036349999999
Ibarra,TuTi | Ibarra Juan De Velasco,"Juan de Velasco 714-800, Ibarra",0.348028,-78.1192615
Ibarra,TuTi | Jaime Roldos Quito,"WF8V+3QF, Quito",-0.08484549999999999,-78.5054175
Ibarra,TuTi | Otavalo Abdon Calderon,"Abdon Calderon 208, Otavalo",0.2259195,-78.26190340000001
Ibarra,TuTi | Guayllabamba,"Av. Libertador Simón Bolívar 1303-1279, Quito",-0.0574759,-78.3452089
Ibarra,TuTi | Plaza Viva,"9 de Agosto, Quito",-0.0997021,-78.4223122
Ibarra,TuTi | Mercado Santo Domingo,"9V4H+9W6, Ibarra",0.355987,-78.12017569999999
Ibarra,TUTI SAN ANTONIO DE IBARRA,"8RPH+7R4, San Antonio de Ibarra",0.3356375,-78.1704219
Ibarra,TuTi | Divino niño,"8VPC+CJ3, Ibarra",0.3361515,-78.12842429999999
Ibarra,TuTi | Laguna Mall,"Av. Mariano Acosta 1571, Ibarra",0.3481426,-78.1275522
Ibarra,Tuti Yacucalle,"8VRH+XFH, Av. Teodoro Goméz de la Torre, Ibarra",0.342431,-78.12125189999999
Ibarra,TuTi Tabacundo,"Calle Velasco Ibarra 0.046926, 78 214582, Tabacundo",0.046992,-78.21457939999999
Ibarra,Tiendas Tuti,"WHG8+966, Carlos Mantilla, Quito",-0.0740716,-78.4345103
Ibarra,TuTi | Otavalo Centro,"9V6G+428, Otavalo, Ibarra",0.360303,-78.12493239999999
Ibarra,TuTi San Blas,"Av. 13 de Abril 2339-2371, Ibarra",0.3623751,-78.1223466
Ibarra,Tutti Mitad del Mundo,"XHR3+V2C, Av Equinoccial, Quito",-0.0078128,-78.4474718
Ibarra,Tía Cayambe,"Rocafuerte entre Bolivar y Libertad, Cayambe",0.041989,-78.143093
Ibarra,Supermercado Mega Ahorro,"Geovanny calles, Y N1-156, Quito",-0.0886208,-78.4267118
Ibarra,TuTi | Juncal,"Carr. Panamericana, Troncal de la Sierra E35, El Juncal",0.4350984,-77.9679752
Tulcán,TuTi | El Angel,"J3C6+M56, El Ángel",0.6216875,-77.9395625
Tulcán,TuTi | Los Olivos,"Dr. Plutarco Larrea 259-282, Ibarra",0.3632874,-78.1120148
Tulcán,TuTi | San Gabriel,"H5V9+P4P, San Gabriel",0.5942957999999999,-77.8321519
Tulcán,TuTi | Ibarra Mercado Mayorista,"Av. 13 de Abril 23-71, Ibarra",0.3623399,-78.1223856
Tulcán,TuTi | Julio Andrade,"M76J+JHF, Quito",0.661354,-77.7188422
Tulcán,TuTi | Pimampiro,"93Q5+WWR, Pimampiro",0.3898205,-77.94036349999999
Tulcán,TuTi | Otavalo Centro,"9V6G+428, Otavalo, Ibarra",0.360303,-78.12493239999999
Tulcán,TuTi San Blas,"Av. 13 de Abril 2339-2371, Ibarra",0.3623751,-78.1223466
Tulcán,TuTi | Tulcan Norte,"R7CR+8PG, Tulcán",0.8207576999999999,-77.7081165
Tulcán,TuTi | Juncal,"Carr. Panamericana, Troncal de la Sierra E35, El Juncal",0.4350984,-77.9679752
Tulcán,Tulcanfashion,"R76H+4FJ, Av. Bolívar, Tulcán",0.8103521,-77.7213663
Latacunga,TuTi | Salcedo,"XC56+3H2, Vicente León, Salcedo",-1.0423597,-78.5886567
Latacunga,Tuti | San Felipe,Av. Simón Rodríguez,-0.9295977000000001,-78.6293036
Latacunga,TuTi | Pinllo,"Q985+2VX, Calle Maugeri y Quiteño Libre, Ambato",-1.2348805,-78.6402808
Latacunga,TuTi | Saquisilí,"586M+J57, Saquisilí",-0.8386881,-78.6668254
Latacunga,Tuti | PujilÍ,"28V3+W8P, Pujilí",-0.9552170000000001,-78.6966726
Latacunga,TuTi | 12 de noviembre,"Q95G+869, Av. Doce de Noviembre, Ambato",-1.2417198,-78.6243854
Latacunga,TuTi | Uniandes,"M9XW+QVP, Av Bolivariana, Ambato",-1.2998634,-78.60253999999999
Latacunga,TuTi | Huachi Grande,"M9V7+785, Carr. Panamericana, Ambato",-1.3068845,-78.6366482
Latacunga,TuTi | IZAMBA,Av. Pedro Vásconez &,-1.2261139,-78.5869483
Latacunga,TuTi l San Buenaventura,Av. Miguel Iturralde 350,-0.8839572,-78.6151896
Latacunga,TuTi | Machachi,"FCPM+M35, Machachi",-0.5133771,-78.5672685
Latacunga,TuTi | José Peralta,"P9F9+HJ2, José Peralta, Ambato",-1.2761062,-78.6309785
Latacunga,Tuti I Quijano y Ordóñez,Quijano y Ordoñez &,-0.9379094,-78.612808
Latacunga,TuTi | Mercado Mayorista,"P9JP+F6Q, Av. El Cóndor, Ambato",-1.2687875,-78.61439060000001
Latacunga,TuTi | Parroquia Atahualpa,"Q9JQ+HHR, Av. 22 de Enero, Ambato",-1.2186727,-78.61102369999999
Latacunga,TuTi Pillaro,"Av.Antonio Clavijo &, Píllaro",-1.1758455,-78.5420437
Latacunga,Tía Pujili,"Av. Velasco Ibarra entre Pichincha, y, Pujilí",-0.953948,-78.69657
Latacunga,TuTi Av. El Rey,"Av. El Rey 119, Ambato",-1.237055,-78.6189818
Latacunga,TuTi | Av Atahualpa,"Av Atahualpa, Ambato",-1.2571904,-78.63123449999999
Latacunga,TuTi | Santa Rosa,"Vía a Sta Rosa &, Santa Rosa",-1.2816544,-78.6625415
Latacunga,TuTi | El Salto - Latacunga,Calle Calixto Pino &,-0.9293643,-78.6174405
Latacunga,TuTi | Ficoa,"20, Av. Rodrigo Pachano &, Ambato",-1.2372873,-78.63292860000001
Latacunga,TutiFicoa,"Q978+3RP, Av. Rodrigo Pachano, Ambato",-1.2372759,-78.6329279
Latacunga,TuTi | 1 de Mayo,"Lizardo Ruiz &, Ambato",-1.2354055,-78.6273779
Latacunga,TuTi | Parque Industrial,"RC44+RH9, Ambato",-1.192921,-78.59367309999999
Latacunga,TuTi | Manuelita Sáez Ambato,"Manuelita Sáenz 359, Ambato",-1.2609602,-78.6397136
Latacunga,TuTi | Chasquis,"Av. los chásquis &, Ambato",-1.2601762,-78.6242383
Latacunga,Tuti | AYAPAMBA,"Av. Pedro Vazcones, y",-1.2263049,-78.58697819999999
Latacunga,Entre Tu y Yo,"180103, Ambato",-1.2376755,-78.62531779999999
Latacunga,Tía Latacunga,"Felix Valencia, y, Latacunga",-0.93014,-78.61712899999999
Latacunga,Mr Sorvetto heladería en Latacunga,"Calle Quito y, C. Guayaquil, Latacunga",-0.9324175,-78.6157132
Latacunga,Bodega TUTI( Machachi ),"GC6P+C3V, Machachi",-0.4888832,-78.56481509999999
Latacunga,Vive 100 AMBATO DOS,"P9QH+QR7, Pablo Arenas, y Antepara, Ambato",-1.2605808,-78.6204624
Latacunga,CEDI Machachi Tiendas Tuti,"GC3M+23X, El Obraje, Machachi",-0.4973761,-78.56726859999999
Latacunga,L' tití,"0129068006000, Ambato",-1.267645,-78.6258308
Babahoyo,TuTi | 4 de Noviembre,"Tungurahua 3715, Guayaquil",-2.2113821,-79.9036588
Babahoyo,TUTI KENNEDY NORTE,"Maria Piedad Castillo de Levi, Guayaquil",-2.1541973,-79.90213949999999
Babahoyo,TuTi | Samanes 6,"CALLE 20C NE-HNO. ROBERTO COSTA PRATS 102, Guayaquil",-2.1107816,-79.9046595
Babahoyo,Tuti Urdesa Central,"Av. Pdte. Juan de Dios Martínez Mera 308, Guayaquil",-2.1683399,-79.9077245
Babahoyo,TuTi | VÍCTOR EMILIO,"Victor Emilio Estrada 1219, Guayaquil",-2.1615433,-79.9166805
Babahoyo,Supermercado TUTI,"V36X+C35, Demetrio Aguilera Malta, Guayaquil",-2.1389844,-79.90226659999999
Babahoyo,TuTi | Rosendo Avilés,"Rosendo Avilés T., Guayaquil",-2.2073793,-79.9273345
Babahoyo,TuTi | Guayacanes,"V4J4+7Q2, TuTi, Guayacanes District, Provincia Libre de Guayaquil, 3er Callejon 20 NE, Guayaquil",-2.1193533,-79.8931181
Babahoyo,TuTi | La Atarazana,"R4C7+V39, Av. 2 N-E- De La Democracia, Guayaquil",-2.1778484,-79.88727279999999
Babahoyo,TuTi | 10 de Agosto,"R443+WMR, Blvd. 9 de Octubre, Guayaquil",-2.1926406,-79.89587259999999
Babahoyo,TuTi - Villa España,"W39M+X75, Guayaquil",-2.0800419,-79.9167851
Babahoyo,TuTi | Bastión Popular - Bloque 2,"W34C+FMF, Guayaquil",-2.0938468,-79.9283342
Babahoyo,TuTi | Limonal,"Autop. Narcisa de Jesús Solar 11, Guayaquil",-2.1347851,-79.88111479999999
Babahoyo,TuTi | Garzota,"V445+8HJ, Guayaquil",-2.1441508,-79.8911079
Babahoyo,TuTi | Plaza Dañin,"6º Pasaje 9 NO 520, Guayaquil",-2.1717346,-79.8964335
Babahoyo,TuTi | Los Ríos,"Q4X2+HR7, Guayaquil",-2.2010783,-79.8979409
Babahoyo,TuTi | Urbasur,"2, Los Tulipanes Guasmo Sur",-2.2434375,-79.8867428
Babahoyo,TuTi | Portete,"Porrete 2817, Guayaquil",-2.2050697,-79.9043212
Babahoyo,TuTi | Vergeles,"W36W+498, Guayaquil",-2.089411,-79.9040189
Babahoyo,Tuti bellavista,"R38Q+C27, Jose Maria Velasco Ibarra, Guayaquil",-2.1839626,-79.9124688
Babahoyo,TuTi | Gomez Rendón,"R34G+6GG, Guayaquil",-2.1944474,-79.9236629
Babahoyo,TuTi | Mapasingue Oeste,"R3X8+5XR, Guayaquil",-2.1520141,-79.9326225
Babahoyo,TuTi | Federico Goding,"Federico Godín 2414, Guayaquil",-2.2117421,-79.91229059999999
Babahoyo,TuTi | Colón y Teniente,"Colon &, Guayaquil",-2.1925673,-79.90460999999999
Babahoyo,TuTi | 1ro de Mayo,"Calle 2 NO 426, Guayaquil",-2.1879907,-79.8908391
Babahoyo,TuTi | Barrio Centenario,"Q4J6+78V, Rosa Borja de Ycaza, Guayaquil",-2.2192602,-79.8892025
Babahoyo,TuTi | Urdenor 2,"Av. Rodrigo Chavez, Guayaquil",-2.1496049,-79.90554879999999
Babahoyo,TuTi | Ciudadela Bolivariana,"1A, Bolivariana",-2.1836455,-79.8952771
Babahoyo,TuTi | Sauces 8,"V3FX+7RJ, Guayaquil",-2.1267875,-79.9004844
Babahoyo,TuTi | Sauces 4,"Teodoro Alvarado Oleas, Guayaquil, y",-2.1283432,-79.8845089
Babahoyo,TuTi | Entre Ríos,"V43P+F5J, Samborondón",-2.1462952,-79.86455289999999
Babahoyo,TuTi | Isidro Ayora,"V483+9VC, Av Isidro Ayora, Guayaquil",-2.1340711,-79.89536009999999
Babahoyo,TuTi | Portete y la 35,"Portete de Tarqui 6016, Guayaquil",-2.1979928,-79.9301795
Babahoyo,TUTI Fragata,"Q34R+XM8, Guayaquil",-2.2426107,-79.9082827
Babahoyo,TuTi | Guangala,"Q3FV+PMF, Guayaquil",-2.2256754,-79.90581449999999
Babahoyo,TuTi | Colinas de la Alborada,13,-2.1313338,-79.910339
Babahoyo,TuTi | Junín,"Junín 407 y, Guayaquil",-2.1884852,-79.8870182
Babahoyo,TuTi | Mucho Lote Lince,"1° CALLEJÓN 25 NO 2686, Guayaquil",-2.0857076,-79.9221159
Babahoyo,TuTi | Perimetral,"km25, Vía Perimetral, Guayaquil",-2.1284761,-79.94961169999999
Babahoyo,Tuti El Paseo Shopping,"V3M8+RP8, Av. Camilo Ponce Enríquez, Guayaquil",-2.1154574,-79.9331405
Babahoyo,TuTi | Puerto Azul,"R26Q+QF5, *Av. Principal Y Calle Tercera, Guayaquil",-2.1881137,-79.9612459
Babahoyo,TuTi | Durán - Recreo 3 ( 5ta Etapa),"25, El Recreo 6",-2.168933,-79.7996354
Babahoyo,TuTi | Las Peñas,"R48F+PF7, Numa Pompilio Llona 204, Guayaquil",-2.1830584,-79.8764022
Babahoyo,TuTi | Pradera,"Q475+99C, Av. Domingo Comín, Guayaquil",-2.2366012,-79.891576
Babahoyo,TuTi | 24 y Garcia Goyena,"24 entre García Goyena, y, Guayaquil",-2.2031483,-79.9222331
Babahoyo,Tuti José Mascote,"José Mascote 4705, Guayaquil",-2.2169592,-79.90137709999999
Babahoyo,Tuti- Malecon y Loja,"Simon Bolivar Palacios 202, Guayaquil",-2.1857823,-79.8770796
Babahoyo,Tuti Portete y la 11,"Q3WQ+PRR, Portete de Tarqui, Guayaquil",-2.2031214,-79.9104965
Babahoyo,TuTi | Suscal,"Q3C5+R5P, Guayaquil",-2.2279054,-79.9420446
Babahoyo,TuTi | Pascuales,Guayaquil,-2.068309,-79.9324311
Babahoyo,TuTi | Salitre,"558P+XJQ, Vía a Samborondón, Salitre",-1.8326066,-79.8135913
Babahoyo,TuTi Tungurahua 1,"Q3VW+P7M, Portete de Tarqui, Guayaquil",-2.2056742,-79.9043377
Babahoyo,TuTi | Duran 9 Héctor Cobos,"R5X8+3PR, Durán",-2.1522689,-79.8332254
Babahoyo,TuTi | Huancavilca,"W32Q+CW7, Guayaquil",-2.0989694,-79.9102073
Babahoyo,TuTi | Garzota Hermano Miguel,"R4X5+CF9, Av. Hermano Miguel, Guayaquil",-2.1514751,-79.8912536
Babahoyo,TuTi | La Aurora,W4X9+4CC,-2.0521988,-79.8815049
Babahoyo,TuTi | Durán 3 - Colinas del Valle,"Cdla. Primavera 2, Durán",-2.174236,-79.8468697
Babahoyo,TUTI-VIA_A_LA_COSTA,"S: 1 Mz: 40, Guayaquil",-2.1834897,-79.9794751
Babahoyo,Tuti Plaza Orellana,"R4P3+9FV, Guayaquil",-2.1640039,-79.8963191
Babahoyo,Tuti Portete y Lorenzo,Guayaquil,-2.2092243,-79.88986349999999
Quevedo,TuTi | Quevedo,"WGX8+RX3, Quevedo",-1.0509332,-79.4827648
Quevedo,Tuti | Vía Guayaquil,"W9W5+2H6, Velasco Ibarra",-1.0549719,-79.6410994
Quevedo,TuTi | Balzar Av Amazonas,"Av. Amazonas &, Balzar",-1.3573795,-79.9025158
Quevedo,TuTi | El Empalme San Miguel,"X952+P9G, Velasco Ibarra",-1.0406881,-79.6490492
Quevedo,TuTi | June Guzmán,"C. Decima Cuarta 511, Quevedo",-1.0299068,-79.4700759
Quevedo,Tuti | Vía a Valencia,"XHP3+R7M, Quevedo",-1.0129125,-79.44682809999999
Quevedo,Tuti | San José Sur,"XG6F+HVM, Quevedo",-1.0385375,-79.4753281
Quevedo,TUTI VENTANAS AV. PANAMERICANA,"HG5M+VCF, Ventanas",-1.4403167,-79.46637849999999
Quevedo,TuTi El Paraíso la 14,"CF6Q+H42, La Catorce",-0.5886057,-79.5122289
Quevedo,Tuti,"Avenida 19 de mayo, y",-0.9413130999999999,-79.2297138
Quevedo,TuTi ECHEANDIA,"HP9C+C2J, C. Ramon Ulloa, Echeandía",-1.4314112,-79.279994
Quevedo,Tuti | Vía Manabí,"X955+7W5, Velasco Ibarra",-1.0418711,-79.6401319
Quevedo,TuTi | Quevedo San Camilo,"XGGR+MFW, Quevedo",-1.0232625,-79.4587969
Quevedo,TUTI EMPALME 2 DON PANCHO,"W9V5+RH2, Velasco Ibarra",-1.0554983,-79.6411189
Quevedo,TuTi 28 DE MAYO,"HG4P+6HJ, Ventanas",-1.444399,-79.46361279999999
Quevedo,Tuti Don Pancho,"sector, Velasco Ibarra",-1.0422217,-79.6370517
Quevedo,TuTi | El Empalme Hnos. Coronel,"Vía La Guayas 307, Velasco Ibarra",-1.0380298,-79.6355021
Quevedo,TuTi | Palenque Vía a la Revesa,"H66R+263, Palenque",-1.4399798,-79.7594591
Quevedo,TuTi | Balzar 1,"J3MV+M27 Vinces, Balzar",-1.3658732,-79.90744629999999
Quevedo,Tuti El Empalme Centro,"X92R+MQC, Av. Manabi, Velasco Ibarra",-1.0483186,-79.6080967
Quevedo,TuTi | Buena Fe,"4G66+G6H, 7 de Agosto, Buena Fe",-0.8888096,-79.4891523
Quevedo,TuTi Buena Fe 2 centro,"4G46+536, 7 de Agosto, Buena Fe",-0.8946944,-79.4898889
Quevedo,Tuti Valencia,"2JWW+P94, Av. Gral. Enriquez, Valencia",-0.9531666999999999,-79.3546389
Quevedo,Tuti Mocache,28 de Mayo,-1.1868933,-79.5049037
Quevedo,TuTi | Jaime Roldos,"XG7M+W49, Av. Jaime Roldos A, Quevedo",-1.0352046,-79.4671255
Quevedo,TuTi San Carlos,"VHM7+JCF, San Carlos",-1.1159269,-79.436447
Quevedo,TUTI QUINSALOMA,"QMRM+G3, Quinsaloma",-1.2086815,-79.3173182
Quevedo,Tuti Pichincha,"X52H+6WH, Luis Maria Pinto, Pichincha",-1.0494639,-79.8200332
Otavalo,TuTi | Gran Marcelino,"Av. Oswaldo Guayasamín Oe4-134, Quito",-0.212178,-78.41053459999999
Otavalo,TuTi | Calderón,"VHXG+C36, Quito",-0.1016694,-78.42472769999999
Otavalo,TuTi Ponceano Alto.,"Mariano Paredes 75-104, Quito",-0.0976262,-78.4806078
Otavalo,TuTi Ciudad Bicentenario,"WGJX+24F, Quito",-0.0699713,-78.4522538
Otavalo,TuTi Ruiz de Castilla,"RG62+3PV, Ruiz de Castilla, Quito",-0.1897748,-78.4982035
Otavalo,TuTi | La Vicentina,"QGM6+MPP, Quito",-0.2157506,-78.48817319999999
Otavalo,TuTi Atucucho,"VFCP+VQJ, Oe16A, Quito",-0.1278345,-78.5130092
Otavalo,TuTi | San Blas,"QFJV+XFG, Quito",-0.217553,-78.5062888
Otavalo,TuTi | San Antonio,"Av Equinoccial 1055, Quito",-0.008054300000000002,-78.4476145
Otavalo,TuTi El Condado,"Pedro de la Peña Oe5-166, Quito",-0.1052665,-78.499287
Otavalo,TuTi | Giovanni Calles,"WH24+PHG, Giovanni Calles Lascano, Quito",-0.09818349999999999,-78.4435646
Otavalo,TuTi República,"Av. de la República E4-34, Quito",-0.1856336,-78.4887205
Otavalo,TuTi | Centro Mejía,"Vargas 14-46, Quito",-0.2107856,-78.5039965
Otavalo,TuTi | 28 de Junio,"Gabriel García Moreno S/n, Quito",-0.1128934,-78.4479672
Otavalo,TuTi | Colón,"QGX5+QQJ, Av. Cristóbal Colón, Quito",-0.2005641,-78.49060659999999
Otavalo,TuTi Zamora,"Zamora 192-240, Quito",-0.156181,-78.4905064
Otavalo,TuTi Edén,"De los Pinos 905-830, Quito",-0.1367589,-78.47279619999999
Otavalo,Tuti | La Gasca,"Gaspar de Carvajal 33-9, Quito",-0.1968058,-78.50213640000001
Otavalo,TuTi El Inca,"Pio Valdivieso E7-74, Quito",-0.1581057,-78.4774137
Otavalo,TuTi | Pomasqui,"N 1-90, Quito",-0.0518554,-78.4564006
Otavalo,TuTi Isla Floreana,"Av. Isla Floreana &, Quito",-0.1673693,-78.48335279999999
Otavalo,TuTi | Monteserrín,"RGRM+59W, Av. Eloy Alfaro, Quito",-0.1595209,-78.4665797
Otavalo,TuTi Cotocollao,"Av. de la Prensa 62-56, Quito",-0.121586,-78.4936322
Otavalo,TuTi | Tumbaco Centro,"Gaspar de Carvajal S/N, Quito",-0.2150447,-78.4039641
Otavalo,TuTi | 6 de Diciembre,"RGGF+F4H, Quito",-0.1738002,-78.4772332
Otavalo,TuTi | El Arenal,"QJWF+42V, Quito",-0.2046238,-78.3774717
Otavalo,TuTi | La Roldós,"N85 &, Quito",-0.0847969,-78.5055361
Otavalo,Tuti Centro del Muchacho Trabajador,Quito,-0.1101746,-78.4938277
Otavalo,TuTi San José de Morán,"WH76+GWC, Quito",-0.086171,-78.4377294
Otavalo,TuTi La Prensa,"VG65+P2V, Quito",-0.1382011,-78.4924647
Otavalo,TuTi | La Floresta,"Madrid E12-71, Quito",-0.2077034,-78.4865169
Otavalo,TuTi | Real Audiencia,"Avenida Real Audiencia &, Porfirio Romero 170104, Quito",-0.1386246,-78.486184
Otavalo,TuTi | Nayón,"Huascar Esquina, Quito",-0.1575152,-78.4383332
Otavalo,Tuti Pusuqui,"E28 5350, Quito",-0.07062109999999999,-78.4712169
Otavalo,TuTi Luz y Vida,"WHG8+335 Conjunto San José de Moran, Carlos Mantilla, Quito",-0.0748544,-78.43476009999999
Otavalo,TuTi San Carlos,"Machala 58-404, Quito",-0.1277742,-78.4985422
Otavalo,TuTi Llano Grande,"Gabriel García Moreno &, Quito",-0.1120553,-78.4414508
Otavalo,TuTi Comite del Pueblo,"Eloy Alfaro, Y 2), 170138, Quito",-0.1281877,-78.471052
Otavalo,TuTi | El Angel,"J3C6+M56, El Ángel",0.6216875,-77.9395625
Otavalo,TuTi | Toctiuco,"Juan De Quiroz 6-135, Quito",-0.2093453,-78.5223213
Otavalo,TuTi | Oswaldo Guayasamín,"QJWJ+RGC, E28C, Quito",-0.2029082,-78.3687219
Otavalo,TuTi | Bustamante,"Rafael Bustamante E4-23, Quito",-0.1442589,-78.4819558
Otavalo,TuTi La Pulida,"VF6V+2M4, Jorge Piedra, Quito",-0.1393849,-78.5048907
Otavalo,TuTi Mercado Carapungo,"WH42+XFM, Galo Pl. Lasso, Quito",-0.09253349999999999,-78.4487973
Otavalo,TuTi Yaruquí,"RMPH+WRF, Eugenio Espejo, Yaruquí",-0.1628226,-78.3205132
Otavalo,Tuti LOS CEIBOS,"Av. El Retorno &, Ibarra",0.3352349,-78.1161253
Otavalo,TuTi | Los Olivos,"Dr. Plutarco Larrea 259-282, Ibarra",0.3632874,-78.1120148
Otavalo,TuTi Atuntaqui,"C. Gral. Enriquez &, Atuntaqui",0.3287266,-78.2160492
Otavalo,TuTi Marianitas,"WH6C+59G, Capitán Giovanni Calles, Quito",-0.0895874,-78.42911959999999
Otavalo,TuTi | Bonanza,"VG89+F9F, Av. Galo Plaza Lasso, Quito",-0.1338125,-78.4815625
Otavalo,TuTi | Pío XII,"Pío XII 1730, Quito",-0.0634214,-78.4286535
Otavalo,TuTi | Pambachupa,"RF5Q+PF2, Antonio Herrera, Quito",-0.1908896,-78.50843909999999
Otavalo,TuTi Zabala,"WHCM+8P9, Quito",-0.079162,-78.41566689999999
Otavalo,TuTi | Tanda,"RH95+94V, C. Leonidas Proaño, Quito",-0.1813115,-78.44241310000001
Otavalo,TuTi | Alamos,"De los Álamos E10-30 y, Quito",-0.1446029,-78.4725308
Otavalo,TuTi | Las Viñas,Quito,-0.1353116,-78.4641084
Otavalo,TuTi | Urcuqui,"CR5H+6M3, Urcuqui",0.4173604,-78.1945997
Otavalo,TuTi | Ciudadela Universitaria,Quito,-0.2111888,-78.3856223
Otavalo,TuTi | Rumipamba,"RG74+XQX, Quito",-0.1850625,-78.49306250000001
Otavalo,TuTi | Cotacachi,"Av. Modesto Peñaherrera 1246, Cotacachi",0.3003343,-78.26398809999999
Santa Elena,TuTi | La Libertad 5 - 28 de Mayo,"Barrio 28 de Mayo, y, La Libertad",-2.2303162,-80.9139885
Santa Elena,TuTi | Santa Rosa de Salinas,"Q3P2+QPF, Salinas",-2.2130313,-80.9481938
Santa Elena,TUTI Santa Elena,"Q4FR+JX5, Santa Elena",-2.2259435,-80.8574948
Santa Elena,TuTi | Salinas 1 - General Enrique Gallo,"Q2WF+F88, Gral. Enríquez Gallo, Salinas",-2.2038324,-80.9766652
Santa Elena,Tuti San Pablo,"V66G+G4P, Ruta del Spondylus, San Pablo",-2.1386611,-80.77466509999999
Santa Elena,TuTi | Vía Punta Carnero,"Vía Punta Carnero, Salinas",-2.230350800000001,-80.9217437
Santa Elena,TuTi | La Libertad 4 - Abdón Calderón,"11 de Diciembre, La Libertad",-2.2372756,-80.9105725
Santa Elena,Tuti Palmar,"Ruta del Spondylus, Palmar",-2.0232882,-80.7205238
Santa Elena,TuTi | Muey de Salinas,"Q379+5R4, Salinas",-2.2371242,-80.9304172
Santa Elena,Tuti | Anconcito,"M4H7+943 entre calle L y K, av. Principal, Anconcito",-2.3216012,-80.8871857
Santa Elena,TuTi | Ballenita,"Q4MP+C4C, Santa Elena",-2.2165839,-80.86524829999999
Santa Elena,TuTi | Salinas 2 - Av. Carlos Espinoza,"Q3J3+Q4P, Avenida Eleodoro Solorzano, Salinas",-2.2180137,-80.947133
Santa Elena,TuTi | La Libertad 6 - Propicia,"C. 43 28, Mz. 26 Solar 11 y, La Libertad",-2.2385096,-80.8893168
Santa Elena,Tuti Santa Elena 3 Via Eleodoro,"Q49H+735, Av. Eleodoro Solorzano, Santa Elena",-2.2318688,-80.872261
Santa Elena,TUTI CHANDUY,"H8W9+XM6, Calle Sta. Elena, Chanduy",-2.4025884,-80.68087349999999
Santa Elena,TUTI ENGABAO,Engabao,-2.5726133,-80.4857107
Santa Elena,TuTi | La Libertad 3 - Calle Tercera,"Av. Tercera, y, La Libertad",-2.2215426,-80.906116
Santa Elena,TuTi | La Libertad 2 - Av. Eleodoro,"Av. Eleodoro Solorzano, y, La Libertad",-2.2268903,-80.8995491
Santa Elena,Tuti Santa Elena Vía Ancón,"Q49Q+RWC, Vía Ancón, Ancón",-2.2304314,-80.8602214
Santa Elena,TUTI VALDIVIA,"376J+99J, Valdivia",-1.9390257,-80.7191193
Santa Elena,Tienda El Mirador,"E15, Montañita",-1.8295367,-80.75066729999999
Santa Elena,TuTi | La Libertad 7 - Velasco Ibarra,"Calle 24, y, La Libertad",-2.2440702,-80.9045126
Santa Elena,"Tuti michis 2, Gasolinera","Q37Q+5QF, 11 de Diciembre, La Libertad",-2.2371597,-80.9105859
Santa Elena,TUTI los michis,"Q4F2+468, Calle 31, La Libertad",-2.2271248,-80.89942549999999
Santa Elena,TUTI Manglaralto,"5724+24J, Montañita",-1.8499733,-80.7446318
Santa Elena,Tuti,6G7F+345,-1.7873743,-80.47714719999999
Santa Elena,TuTi | La Libertad 1 - Mercado,"Av. 9, entre y 23, La Libertad",-2.2273982,-80.9065959
Santa Elena,Super mercado tutti,"Q38X+H9M, La Libertad",-2.233546,-80.90158199999999
Santa Elena,Sta. Elena Café|Arte,"Calle Sucre, y, Santa Elena",-2.2258258,-80.8572497
Santa Elena,Mini Market Leonardito,La Libertad,-2.2286445,-80.89920479999999
Santa Elena,Delivery Service D'GaTuNo,"Barrio 28 de mayo, La Libertad",-2.230015,-80.9142234
Salinas,TuTi | La Libertad 5 - 28 de Mayo,"Barrio 28 de Mayo, y, La Libertad",-2.2303162,-80.9139885
Salinas,TuTi | Santa Rosa de Salinas,"Q3P2+QPF, Salinas",-2.2130313,-80.9481938
Salinas,TUTI Santa Elena,"Q4FR+JX5, Santa Elena",-2.2259435,-80.8574948
Salinas,TuTi | Salinas 1 - General Enrique Gallo,"Q2WF+F88, Gral. Enríquez Gallo, Salinas",-2.2038324,-80.9766652
Salinas,Tuti San Pablo,"V66G+G4P, Ruta del Spondylus, San Pablo",-2.1386611,-80.77466509999999
Salinas,TuTi | Vía Punta Carnero,"Vía Punta Carnero, Salinas",-2.230350800000001,-80.9217437
Salinas,TuTi | La Libertad 4 - Abdón Calderón,"11 de Diciembre, La Libertad",-2.2372756,-80.9105725
Salinas,Tuti Palmar,"Ruta del Spondylus, Palmar",-2.0232882,-80.7205238
Salinas,TuTi | Muey de Salinas,"Q379+5R4, Salinas",-2.2371242,-80.9304172
Salinas,Tuti | Anconcito,"M4H7+943 entre calle L y K, av. Principal, Anconcito",-2.3216012,-80.8871857
Salinas,TuTi | Ballenita,"Q4MP+C4C, Santa Elena",-2.2165839,-80.86524829999999
Salinas,TuTi | Salinas 2 - Av. Carlos Espinoza,"Q3J3+Q4P, Avenida Eleodoro Solorzano, Salinas",-2.2180137,-80.947133
Salinas,TuTi | La Libertad 6 - Propicia,"C. 43 28, Mz. 26 Solar 11 y, La Libertad",-2.2385096,-80.8893168
Salinas,Tuti Santa Elena 3 Via Eleodoro,"Q49H+735, Av. Eleodoro Solorzano, Santa Elena",-2.2318688,-80.872261
Salinas,TUTI CHANDUY,"H8W9+XM6, Calle Sta. Elena, Chanduy",-2.4025884,-80.68087349999999
Salinas,TuTi | La Libertad 3 - Calle Tercera,"Av. Tercera, y, La Libertad",-2.2215426,-80.906116
Salinas,TuTi | La Libertad 2 - Av. Eleodoro,"Av. Eleodoro Solorzano, y, La Libertad",-2.2268903,-80.8995491
Salinas,Tuti Santa Elena Vía Ancón,"Q49Q+RWC, Vía Ancón, Ancón",-2.2304314,-80.8602214
Salinas,TUTI VALDIVIA,"376J+99J, Valdivia",-1.9390257,-80.7191193
Salinas,Tienda El Mirador,"E15, Montañita",-1.8295367,-80.75066729999999
Salinas,TuTi | La Libertad 7 - Velasco Ibarra,"Calle 24, y, La Libertad",-2.2440702,-80.9045126
Salinas,"Tuti michis 2, Gasolinera","Q37Q+5QF, 11 de Diciembre, La Libertad",-2.2371597,-80.9105859
Salinas,TUTI Manglaralto,"5724+24J, Montañita",-1.8499733,-80.7446318
Salinas,TUTI los michis,"Q4F2+468, Calle 31, La Libertad",-2.2271248,-80.89942549999999
Salinas,Super mercado tutti,"Q38X+H9M, La Libertad",-2.233546,-80.90158199999999
Salinas,TuTi | La Libertad 1 - Mercado,"Av. 9, entre y 23, La Libertad",-2.2273982,-80.9065959
Salinas,Mini Market Leonardito,La Libertad,-2.2286445,-80.89920479999999
Salinas,Delivery Service D'GaTuNo,"Barrio 28 de mayo, La Libertad",-2.230015,-80.9142234
Tena,TuTi | Tena,"X5XQ+P86, C. Victor Hugo San Miguel, Tena",-1.0006766,-77.8117517
Puyo,TuTi | Baños,"JH3G+QF8, Baños de Agua Santa",-1.3954454,-78.4238263
Zamora,Panadería y Pastelería Tuttideli,"Imbabura 152-36 entre Avenida Universitaria y, 18 de Noviembre, Loja",-3.994383699999999,-79.2047165
